<osm generator="uvmogr2osm" upload="false" version="0.6">
<node id="-2" lat="47.776432196" lon="-122.227757049" visible="true" />
<node id="-3" lat="47.77646385" lon="-122.227722835" visible="true" />
<node id="-4" lat="47.776449552" lon="-122.227693719" visible="true" />
<node id="-5" lat="47.776417898" lon="-122.227727932" visible="true" />
<node id="-7" lat="47.774091948" lon="-122.227633715" visible="true" />
<node id="-8" lat="47.774059725" lon="-122.227636386" visible="true" />
<node id="-9" lat="47.774061071" lon="-122.227672054" visible="true" />
<node id="-10" lat="47.774093294" lon="-122.227669382" visible="true" />
<node id="-12" lat="47.765379243" lon="-122.228873836" visible="true" />
<node id="-13" lat="47.765437561" lon="-122.228746971" visible="true" />
<node id="-14" lat="47.765406859" lon="-122.228715923" visible="true" />
<node id="-15" lat="47.765420089" lon="-122.228687142" visible="true" />
<node id="-16" lat="47.765392563" lon="-122.228659264" visible="true" />
<node id="-17" lat="47.765390146" lon="-122.228640325" visible="true" />
<node id="-18" lat="47.765367934" lon="-122.228617863" visible="true" />
<node id="-19" lat="47.765354504" lon="-122.228620946" visible="true" />
<node id="-20" lat="47.765327339" lon="-122.228593475" visible="true" />
<node id="-21" lat="47.765314236" lon="-122.22862198" visible="true" />
<node id="-22" lat="47.765311023" lon="-122.22861873" visible="true" />
<node id="-23" lat="47.765234311" lon="-122.228785609" visible="true" />
<node id="-24" lat="47.765244225" lon="-122.228795635" visible="true" />
<node id="-25" lat="47.765245675" lon="-122.228792481" visible="true" />
<node id="-26" lat="47.765252852" lon="-122.22879974" visible="true" />
<node id="-27" lat="47.765249996" lon="-122.228805954" visible="true" />
<node id="-28" lat="47.765278771" lon="-122.228835053" visible="true" />
<node id="-29" lat="47.76529091" lon="-122.228808648" visible="true" />
<node id="-30" lat="47.765298042" lon="-122.228815861" visible="true" />
<node id="-31" lat="47.76528889" lon="-122.228835771" visible="true" />
<node id="-32" lat="47.765304419" lon="-122.228851475" visible="true" />
<node id="-33" lat="47.765307591" lon="-122.228844572" visible="true" />
<node id="-34" lat="47.765314757" lon="-122.228851819" visible="true" />
<node id="-35" lat="47.765311561" lon="-122.228858771" visible="true" />
<node id="-36" lat="47.76532755" lon="-122.22887494" visible="true" />
<node id="-37" lat="47.765337177" lon="-122.228853998" visible="true" />
<node id="-38" lat="47.765369025" lon="-122.228886204" visible="true" />
<node id="-39" lat="47.765376149" lon="-122.228870708" visible="true" />
<node id="-41" lat="47.765412493" lon="-122.228101573" visible="true" />
<node id="-42" lat="47.765349252" lon="-122.228065398" visible="true" />
<node id="-43" lat="47.765338268" lon="-122.228107646" visible="true" />
<node id="-44" lat="47.765332662" lon="-122.22810444" visible="true" />
<node id="-45" lat="47.765310919" lon="-122.228188059" visible="true" />
<node id="-46" lat="47.765301129" lon="-122.228182459" visible="true" />
<node id="-47" lat="47.765288155" lon="-122.228232357" visible="true" />
<node id="-48" lat="47.765280786" lon="-122.228228141" visible="true" />
<node id="-49" lat="47.76526562" lon="-122.228286468" visible="true" />
<node id="-50" lat="47.765273973" lon="-122.228291246" visible="true" />
<node id="-51" lat="47.765270993" lon="-122.228302707" visible="true" />
<node id="-52" lat="47.765266036" lon="-122.228321768" visible="true" />
<node id="-53" lat="47.765265051" lon="-122.228349635" visible="true" />
<node id="-54" lat="47.765273423" lon="-122.228370646" visible="true" />
<node id="-55" lat="47.765289727" lon="-122.228380143" visible="true" />
<node id="-56" lat="47.765307861" lon="-122.228373211" visible="true" />
<node id="-57" lat="47.76531965" lon="-122.228353428" visible="true" />
<node id="-58" lat="47.765327919" lon="-122.228339553" visible="true" />
<node id="-59" lat="47.765343151" lon="-122.228348781" visible="true" />
<node id="-60" lat="47.765358129" lon="-122.228348516" visible="true" />
<node id="-61" lat="47.765370718" lon="-122.228339564" visible="true" />
<node id="-62" lat="47.765379871" lon="-122.228324591" visible="true" />
<node id="-63" lat="47.765399414" lon="-122.228337734" visible="true" />
<node id="-64" lat="47.765423254" lon="-122.228242094" visible="true" />
<node id="-65" lat="47.765414602" lon="-122.228237322" visible="true" />
<node id="-66" lat="47.765433947" lon="-122.228160164" visible="true" />
<node id="-67" lat="47.765401861" lon="-122.228142465" visible="true" />
<node id="-69" lat="47.773976246" lon="-122.227741049" visible="true" />
<node id="-70" lat="47.773820869" lon="-122.227747683" visible="true" />
<node id="-71" lat="47.773822756" lon="-122.227844983" visible="true" />
<node id="-72" lat="47.773846904" lon="-122.227843953" visible="true" />
<node id="-73" lat="47.773847155" lon="-122.227856869" visible="true" />
<node id="-74" lat="47.773852639" lon="-122.227856635" visible="true" />
<node id="-75" lat="47.773853051" lon="-122.227877847" visible="true" />
<node id="-76" lat="47.773863397" lon="-122.227877406" visible="true" />
<node id="-77" lat="47.773863468" lon="-122.227881043" visible="true" />
<node id="-78" lat="47.773992104" lon="-122.227877037" visible="true" />
<node id="-79" lat="47.773990878" lon="-122.227790406" visible="true" />
<node id="-80" lat="47.773977212" lon="-122.227790831" visible="true" />
<node id="-82" lat="47.774696526" lon="-122.227868234" visible="true" />
<node id="-83" lat="47.774697474" lon="-122.227968031" visible="true" />
<node id="-84" lat="47.774810779" lon="-122.227965665" visible="true" />
<node id="-85" lat="47.774810197" lon="-122.227904302" visible="true" />
<node id="-86" lat="47.774827624" lon="-122.227903939" visible="true" />
<node id="-87" lat="47.774827147" lon="-122.227853727" visible="true" />
<node id="-88" lat="47.774822057" lon="-122.227853833" visible="true" />
<node id="-89" lat="47.774821559" lon="-122.227801406" visible="true" />
<node id="-90" lat="47.77482552" lon="-122.227801323" visible="true" />
<node id="-91" lat="47.774824953" lon="-122.227741634" visible="true" />
<node id="-92" lat="47.774794215" lon="-122.227742276" visible="true" />
<node id="-93" lat="47.774794117" lon="-122.227732004" visible="true" />
<node id="-94" lat="47.77475327" lon="-122.227732859" visible="true" />
<node id="-95" lat="47.774753353" lon="-122.227741721" visible="true" />
<node id="-96" lat="47.774740725" lon="-122.227741984" visible="true" />
<node id="-97" lat="47.774740663" lon="-122.227735367" visible="true" />
<node id="-98" lat="47.77469489" lon="-122.227736324" visible="true" />
<node id="-99" lat="47.774695538" lon="-122.227804691" visible="true" />
<node id="-100" lat="47.774699556" lon="-122.227804607" visible="true" />
<node id="-101" lat="47.774700159" lon="-122.227868157" visible="true" />
<node id="-103" lat="47.774402891" lon="-122.227812572" visible="true" />
<node id="-104" lat="47.774401883" lon="-122.227734884" visible="true" />
<node id="-105" lat="47.774337368" lon="-122.227736726" visible="true" />
<node id="-106" lat="47.774337476" lon="-122.227745007" visible="true" />
<node id="-107" lat="47.774307494" lon="-122.227745863" visible="true" />
<node id="-108" lat="47.774307467" lon="-122.227743761" visible="true" />
<node id="-109" lat="47.774280285" lon="-122.227744537" visible="true" />
<node id="-110" lat="47.774281182" lon="-122.227813582" visible="true" />
<node id="-111" lat="47.774302631" lon="-122.22781297" visible="true" />
<node id="-112" lat="47.774302659" lon="-122.22781519" visible="true" />
<node id="-113" lat="47.774304818" lon="-122.227815129" visible="true" />
<node id="-114" lat="47.774306202" lon="-122.227921788" visible="true" />
<node id="-115" lat="47.774304018" lon="-122.227921851" visible="true" />
<node id="-116" lat="47.774304272" lon="-122.22794142" visible="true" />
<node id="-117" lat="47.774306377" lon="-122.227941359" visible="true" />
<node id="-118" lat="47.774306606" lon="-122.22795899" visible="true" />
<node id="-119" lat="47.774364186" lon="-122.227957346" visible="true" />
<node id="-120" lat="47.7743643" lon="-122.227966124" visible="true" />
<node id="-121" lat="47.774404549" lon="-122.227964975" visible="true" />
<node id="-122" lat="47.774404205" lon="-122.227938454" visible="true" />
<node id="-123" lat="47.77440396" lon="-122.227919649" visible="true" />
<node id="-124" lat="47.774402851" lon="-122.227919681" visible="true" />
<node id="-125" lat="47.774401462" lon="-122.227812612" visible="true" />
<node id="-127" lat="47.774104159" lon="-122.227735231" visible="true" />
<node id="-128" lat="47.774103952" lon="-122.227907173" visible="true" />
<node id="-129" lat="47.774201922" lon="-122.227907434" visible="true" />
<node id="-130" lat="47.774201917" lon="-122.227911293" visible="true" />
<node id="-131" lat="47.774218671" lon="-122.227911337" visible="true" />
<node id="-132" lat="47.774218887" lon="-122.227733079" visible="true" />
<node id="-133" lat="47.774202444" lon="-122.227733035" visible="true" />
<node id="-134" lat="47.774202442" lon="-122.227735491" visible="true" />
<way id="-1" visible="true"><nd ref="-2" /><nd ref="-3" /><nd ref="-4" /><nd ref="-5" /><nd ref="-2" /><tag k="building" v="yes" /></way>
<way id="-6" visible="true"><nd ref="-7" /><nd ref="-8" /><nd ref="-9" /><nd ref="-10" /><nd ref="-7" /><tag k="building" v="yes" /></way>
<way id="-11" visible="true"><nd ref="-12" /><nd ref="-13" /><nd ref="-14" /><nd ref="-15" /><nd ref="-16" /><nd ref="-17" /><nd ref="-18" /><nd ref="-19" /><nd ref="-20" /><nd ref="-21" /><nd ref="-22" /><nd ref="-23" /><nd ref="-24" /><nd ref="-25" /><nd ref="-26" /><nd ref="-27" /><nd ref="-28" /><nd ref="-29" /><nd ref="-30" /><nd ref="-31" /><nd ref="-32" /><nd ref="-33" /><nd ref="-34" /><nd ref="-35" /><nd ref="-36" /><nd ref="-37" /><nd ref="-38" /><nd ref="-39" /><nd ref="-12" /><tag k="addr:housenumber" v="8308" /><tag k="addr:postcode" v="98028" /><tag k="building" v="house" /><tag k="addr:city" v="Kenmore" /><tag k="addr:street" v="Northeast 187th Way" /></way>
<way id="-40" visible="true"><nd ref="-41" /><nd ref="-42" /><nd ref="-43" /><nd ref="-44" /><nd ref="-45" /><nd ref="-46" /><nd ref="-47" /><nd ref="-48" /><nd ref="-49" /><nd ref="-50" /><nd ref="-51" /><nd ref="-52" /><nd ref="-53" /><nd ref="-54" /><nd ref="-55" /><nd ref="-56" /><nd ref="-57" /><nd ref="-58" /><nd ref="-59" /><nd ref="-60" /><nd ref="-61" /><nd ref="-62" /><nd ref="-63" /><nd ref="-64" /><nd ref="-65" /><nd ref="-66" /><nd ref="-67" /><nd ref="-41" /><tag k="addr:housenumber" v="8344" /><tag k="addr:postcode" v="98028" /><tag k="building" v="house" /><tag k="addr:city" v="Kenmore" /><tag k="addr:street" v="Northeast 187th Way" /></way>
<way id="-68" visible="true"><nd ref="-69" /><nd ref="-70" /><nd ref="-71" /><nd ref="-72" /><nd ref="-73" /><nd ref="-74" /><nd ref="-75" /><nd ref="-76" /><nd ref="-77" /><nd ref="-78" /><nd ref="-79" /><nd ref="-80" /><nd ref="-69" /><tag k="addr:housenumber" v="19914" /><tag k="addr:postcode" v="98028" /><tag k="building" v="house" /><tag k="addr:city" v="Kenmore" /><tag k="addr:street" v="83rd Place Northeast" /></way>
<way id="-81" visible="true"><nd ref="-82" /><nd ref="-83" /><nd ref="-84" /><nd ref="-85" /><nd ref="-86" /><nd ref="-87" /><nd ref="-88" /><nd ref="-89" /><nd ref="-90" /><nd ref="-91" /><nd ref="-92" /><nd ref="-93" /><nd ref="-94" /><nd ref="-95" /><nd ref="-96" /><nd ref="-97" /><nd ref="-98" /><nd ref="-99" /><nd ref="-100" /><nd ref="-101" /><nd ref="-82" /><tag k="addr:housenumber" v="20226" /><tag k="addr:postcode" v="98028" /><tag k="building" v="house" /><tag k="addr:city" v="Kenmore" /><tag k="addr:street" v="83rd Place Northeast" /></way>
<way id="-102" visible="true"><nd ref="-103" /><nd ref="-104" /><nd ref="-105" /><nd ref="-106" /><nd ref="-107" /><nd ref="-108" /><nd ref="-109" /><nd ref="-110" /><nd ref="-111" /><nd ref="-112" /><nd ref="-113" /><nd ref="-114" /><nd ref="-115" /><nd ref="-116" /><nd ref="-117" /><nd ref="-118" /><nd ref="-119" /><nd ref="-120" /><nd ref="-121" /><nd ref="-122" /><nd ref="-123" /><nd ref="-124" /><nd ref="-125" /><nd ref="-103" /><tag k="addr:housenumber" v="20212" /><tag k="addr:postcode" v="98028" /><tag k="building" v="house" /><tag k="addr:city" v="Kenmore" /><tag k="addr:street" v="83rd Place Northeast" /></way>
<way id="-126" visible="true"><nd ref="-127" /><nd ref="-128" /><nd ref="-129" /><nd ref="-130" /><nd ref="-131" /><nd ref="-132" /><nd ref="-133" /><nd ref="-134" /><nd ref="-127" /><tag k="addr:housenumber" v="20210" /><tag k="addr:postcode" v="98028" /><tag k="building" v="house" /><tag k="addr:city" v="Kenmore" /><tag k="addr:street" v="83rd Place Northeast" /></way>
<node id="-1000001" lat="47.752950229" lon="-122.227528664" visible="true"><tag k="addr:housenumber" v="8427" /><tag k="addr:postcode" v="98028" /><tag k="addr:city" v="Kenmore" /><tag k="addr:street" v="Northeast 175th Street" /></node>
<node id="-1000002" lat="47.752398079" lon="-122.224458366" visible="true"><tag k="addr:housenumber" v="8715" /><tag k="addr:postcode" v="98028" /><tag k="addr:city" v="Kenmore" /><tag k="addr:street" v="Northeast 175th Street" /></node>
<node id="-1000003" lat="47.775373565" lon="-122.232498935" visible="true"><tag k="addr:housenumber" v="20318" /><tag k="addr:postcode" v="98028" /><tag k="addr:city" v="Kenmore" /><tag k="addr:street" v="80th Avenue Northeast" /></node>
<node id="-1000004" lat="47.774801199" lon="-122.232676866" visible="true"><tag k="addr:housenumber" v="8003" /><tag k="addr:postcode" v="98028" /><tag k="addr:city" v="Kenmore" /><tag k="addr:street" v="Northeast 203rd Street" /></node>
<node id="-1000005" lat="47.774817988" lon="-122.23234997" visible="true"><tag k="addr:housenumber" v="8011" /><tag k="addr:postcode" v="98028" /><tag k="addr:city" v="Kenmore" /><tag k="addr:street" v="Northeast 203rd Street" /></node>
<node id="-1000006" lat="47.774469746" lon="-122.232724705" visible="true"><tag k="addr:housenumber" v="20044" /><tag k="addr:postcode" v="98028" /><tag k="addr:city" v="Kenmore" /><tag k="addr:street" v="80th Avenue Northeast" /></node>
<node id="-1000007" lat="47.755979564" lon="-122.229525934" visible="true"><tag k="addr:housenumber" v="17617" /><tag k="addr:postcode" v="98028" /><tag k="addr:city" v="Kenmore" /><tag k="addr:street" v="83rd Place Northeast" /></node>
<node id="-1000008" lat="47.752746733" lon="-122.226538799" visible="true"><tag k="addr:housenumber" v="8515" /><tag k="addr:postcode" v="98028" /><tag k="addr:city" v="Kenmore" /><tag k="addr:street" v="Northeast 175th Street" /></node>
<node id="-1000009" lat="47.753890863" lon="-122.233490437" visible="true"><tag k="addr:housenumber" v="8005" /><tag k="addr:postcode" v="98028" /><tag k="addr:city" v="Kenmore" /><tag k="addr:street" v="Northeast 175th Street" /></node>
<node id="-1000010" lat="47.758671775" lon="-122.233261508" visible="true"><tag k="addr:housenumber" v="18002" /><tag k="addr:postcode" v="98028" /><tag k="addr:city" v="Kenmore" /><tag k="addr:street" v="80th Avenue Northeast" /></node>
<node id="-1000011" lat="47.758931912" lon="-122.233289988" visible="true"><tag k="addr:housenumber" v="18012" /><tag k="addr:postcode" v="98028" /><tag k="addr:city" v="Kenmore" /><tag k="addr:street" v="80th Lane Northeast" /></node>
<node id="-1000012" lat="47.758613056" lon="-122.232001751" visible="true"><tag k="addr:housenumber" v="8116" /><tag k="addr:postcode" v="98028" /><tag k="addr:city" v="Kenmore" /><tag k="addr:street" v="Northeast 179th Place" /></node>
<node id="-1000013" lat="47.758639064" lon="-122.232388757" visible="true"><tag k="addr:housenumber" v="8108" /><tag k="addr:postcode" v="98028" /><tag k="addr:city" v="Kenmore" /><tag k="addr:street" v="Northeast 179th Place" /></node>
<node id="-1000014" lat="47.758661519" lon="-122.232917849" visible="true"><tag k="addr:housenumber" v="18000" /><tag k="addr:postcode" v="98028" /><tag k="addr:city" v="Kenmore" /><tag k="addr:street" v="81st Lane Northeast" /></node>
<node id="-1000015" lat="47.758959467" lon="-122.232960761" visible="true"><tag k="addr:housenumber" v="18018" /><tag k="addr:postcode" v="98028" /><tag k="addr:city" v="Kenmore" /><tag k="addr:street" v="81st Lane Northeast" /></node>
<node id="-1000016" lat="47.759146383" lon="-122.232912149" visible="true"><tag k="addr:housenumber" v="18020" /><tag k="addr:postcode" v="98028" /><tag k="addr:city" v="Kenmore" /><tag k="addr:street" v="81st Lane Northeast" /></node>
<node id="-1000017" lat="47.759135666" lon="-122.232606032" visible="true"><tag k="addr:housenumber" v="18022" /><tag k="addr:postcode" v="98028" /><tag k="addr:city" v="Kenmore" /><tag k="addr:street" v="81st Lane Northeast" /></node>
<node id="-1000018" lat="47.759137145" lon="-122.232337802" visible="true"><tag k="addr:housenumber" v="18026" /><tag k="addr:postcode" v="98028" /><tag k="addr:city" v="Kenmore" /><tag k="addr:street" v="81st Lane Northeast" /></node>
<node id="-1000019" lat="47.759165059" lon="-122.231979073" visible="true"><tag k="addr:housenumber" v="18030" /><tag k="addr:postcode" v="98028" /><tag k="addr:city" v="Kenmore" /><tag k="addr:street" v="81st Lane Northeast" /></node>
<node id="-1000020" lat="47.758995535" lon="-122.231936945" visible="true"><tag k="addr:housenumber" v="18033" /><tag k="addr:postcode" v="98028" /><tag k="addr:city" v="Kenmore" /><tag k="addr:street" v="81st Lane Northeast" /></node>
<node id="-1000021" lat="47.758849126" lon="-122.231927634" visible="true"><tag k="addr:housenumber" v="18031" /><tag k="addr:postcode" v="98028" /><tag k="addr:city" v="Kenmore" /><tag k="addr:street" v="81st Lane Northeast" /></node>
<node id="-1000022" lat="47.758725337" lon="-122.231991364" visible="true"><tag k="addr:housenumber" v="18029" /><tag k="addr:postcode" v="98028" /><tag k="addr:city" v="Kenmore" /><tag k="addr:street" v="81st Lane Northeast" /></node>
<node id="-1000023" lat="47.758839" lon="-122.232310984" visible="true"><tag k="addr:housenumber" v="18027" /><tag k="addr:postcode" v="98028" /><tag k="addr:city" v="Kenmore" /><tag k="addr:street" v="81st Lane Northeast" /></node>
<node id="-1000024" lat="47.772347886" lon="-122.230270275" visible="true"><tag k="addr:housenumber" v="19805" /><tag k="addr:postcode" v="98028" /><tag k="addr:city" v="Kenmore" /><tag k="addr:street" v="82nd Place Northeast" /></node>
<node id="-1000025" lat="47.772450665" lon="-122.23026678" visible="true"><tag k="addr:housenumber" v="19809" /><tag k="addr:postcode" v="98028" /><tag k="addr:city" v="Kenmore" /><tag k="addr:street" v="82nd Place Northeast" /></node>
<node id="-1000026" lat="47.772573243" lon="-122.230255467" visible="true"><tag k="addr:housenumber" v="19813" /><tag k="addr:postcode" v="98028" /><tag k="addr:city" v="Kenmore" /><tag k="addr:street" v="82nd Place Northeast" /></node>
<node id="-1000027" lat="47.772698507" lon="-122.230254665" visible="true"><tag k="addr:housenumber" v="19817" /><tag k="addr:postcode" v="98028" /><tag k="addr:city" v="Kenmore" /><tag k="addr:street" v="82nd Place Northeast" /></node>
<node id="-1000028" lat="47.772704877" lon="-122.229676548" visible="true"><tag k="addr:housenumber" v="19814" /><tag k="addr:postcode" v="98028" /><tag k="addr:city" v="Kenmore" /><tag k="addr:street" v="82nd Place Northeast" /></node>
<node id="-1000029" lat="47.772837303" lon="-122.229665498" visible="true"><tag k="addr:housenumber" v="19820" /><tag k="addr:postcode" v="98028" /><tag k="addr:city" v="Kenmore" /><tag k="addr:street" v="82nd Place Northeast" /></node>
<node id="-1000030" lat="47.772823144" lon="-122.230247583" visible="true"><tag k="addr:housenumber" v="19821" /><tag k="addr:postcode" v="98028" /><tag k="addr:city" v="Kenmore" /><tag k="addr:street" v="82nd Place Northeast" /></node>
<node id="-1000031" lat="47.772944239" lon="-122.230242493" visible="true"><tag k="addr:housenumber" v="19825" /><tag k="addr:postcode" v="98028" /><tag k="addr:city" v="Kenmore" /><tag k="addr:street" v="82nd Place Northeast" /></node>
<node id="-1000032" lat="47.773075283" lon="-122.230229321" visible="true"><tag k="addr:housenumber" v="19829" /><tag k="addr:postcode" v="98028" /><tag k="addr:city" v="Kenmore" /><tag k="addr:street" v="82nd Place Northeast" /></node>
<node id="-1000033" lat="47.77373349" lon="-122.229712588" visible="true"><tag k="addr:housenumber" v="19917" /><tag k="addr:postcode" v="98028" /><tag k="addr:city" v="Kenmore" /><tag k="addr:street" v="82nd Place Northeast" /></node>
<node id="-1000034" lat="47.773864761" lon="-122.229565805" visible="true"><tag k="addr:housenumber" v="19921" /><tag k="addr:postcode" v="98028" /><tag k="addr:city" v="Kenmore" /><tag k="addr:street" v="82nd Place Northeast" /></node>
<node id="-1000035" lat="47.773914714" lon="-122.229393868" visible="true"><tag k="addr:housenumber" v="19925" /><tag k="addr:postcode" v="98028" /><tag k="addr:city" v="Kenmore" /><tag k="addr:street" v="82nd Place Northeast" /></node>
<node id="-1000036" lat="47.773931182" lon="-122.229198064" visible="true"><tag k="addr:housenumber" v="19929" /><tag k="addr:postcode" v="98028" /><tag k="addr:city" v="Kenmore" /><tag k="addr:street" v="82nd Place Northeast" /></node>
<node id="-1000037" lat="47.773944964" lon="-122.228991749" visible="true"><tag k="addr:housenumber" v="19933" /><tag k="addr:postcode" v="98028" /><tag k="addr:city" v="Kenmore" /><tag k="addr:street" v="82nd Place Northeast" /></node>
<node id="-1000038" lat="47.771938835" lon="-122.228987877" visible="true"><tag k="addr:housenumber" v="19718" /><tag k="addr:postcode" v="98028" /><tag k="addr:city" v="Kenmore" /><tag k="addr:street" v="82nd Place Northeast" /></node>
<node id="-1000039" lat="47.771965266" lon="-122.229243282" visible="true"><tag k="addr:housenumber" v="19722" /><tag k="addr:postcode" v="98028" /><tag k="addr:city" v="Kenmore" /><tag k="addr:street" v="82nd Place Northeast" /></node>
<node id="-1000040" lat="47.772048304" lon="-122.229473072" visible="true"><tag k="addr:housenumber" v="19726" /><tag k="addr:postcode" v="98028" /><tag k="addr:city" v="Kenmore" /><tag k="addr:street" v="82nd Place Northeast" /></node>
<node id="-1000041" lat="47.772187717" lon="-122.229581207" visible="true"><tag k="addr:housenumber" v="19730" /><tag k="addr:postcode" v="98028" /><tag k="addr:city" v="Kenmore" /><tag k="addr:street" v="82nd Place Northeast" /></node>
<node id="-1000042" lat="47.771633401" lon="-122.229451467" visible="true"><tag k="addr:housenumber" v="19719" /><tag k="addr:postcode" v="98028" /><tag k="addr:city" v="Kenmore" /><tag k="addr:street" v="82nd Place Northeast" /></node>
<node id="-1000043" lat="47.771678376" lon="-122.229686493" visible="true"><tag k="addr:housenumber" v="19723" /><tag k="addr:postcode" v="98028" /><tag k="addr:city" v="Kenmore" /><tag k="addr:street" v="82nd Place Northeast" /></node>
<node id="-1000044" lat="47.771774841" lon="-122.229854014" visible="true"><tag k="addr:housenumber" v="19725" /><tag k="addr:postcode" v="98028" /><tag k="addr:city" v="Kenmore" /><tag k="addr:street" v="82nd Place Northeast" /></node>
<node id="-1000045" lat="47.771898879" lon="-122.229953386" visible="true"><tag k="addr:housenumber" v="18807" /><tag k="addr:postcode" v="98028" /><tag k="addr:city" v="Kenmore" /><tag k="addr:street" v="82nd Place Northeast" /></node>
<node id="-1000046" lat="47.77205108" lon="-122.230051428" visible="true"><tag k="addr:housenumber" v="19731" /><tag k="addr:postcode" v="98028" /><tag k="addr:city" v="Kenmore" /><tag k="addr:street" v="82nd Place Northeast" /></node>
<node id="-1000047" lat="47.771959921" lon="-122.230289037" visible="true"><tag k="addr:housenumber" v="8129" /><tag k="addr:postcode" v="98028" /><tag k="addr:city" v="Kenmore" /><tag k="addr:street" v="Northeast 198th Street" /></node>
<node id="-1000048" lat="47.77256071" lon="-122.229705117" visible="true"><tag k="addr:housenumber" v="8208" /><tag k="addr:postcode" v="98028" /><tag k="addr:city" v="Kenmore" /><tag k="addr:street" v="Northeast 198th Street" /></node>
<node id="-1000049" lat="47.772376618" lon="-122.229295362" visible="true"><tag k="addr:housenumber" v="8217" /><tag k="addr:postcode" v="98028" /><tag k="addr:city" v="Kenmore" /><tag k="addr:street" v="Northeast 198th Street" /></node>
<node id="-1000050" lat="47.772716068" lon="-122.229332904" visible="true"><tag k="addr:housenumber" v="8218" /><tag k="addr:postcode" v="98028" /><tag k="addr:city" v="Kenmore" /><tag k="addr:street" v="Northeast 198th Street" /></node>
<node id="-1000051" lat="47.772855634" lon="-122.229077444" visible="true"><tag k="addr:housenumber" v="8228" /><tag k="addr:postcode" v="98028" /><tag k="addr:city" v="Kenmore" /><tag k="addr:street" v="Northeast 198th Street" /></node>
<node id="-1000052" lat="47.772989893" lon="-122.228864451" visible="true"><tag k="addr:housenumber" v="8236" /><tag k="addr:postcode" v="98028" /><tag k="addr:city" v="Kenmore" /><tag k="addr:street" v="Northeast 198th Street" /></node>
<node id="-1000053" lat="47.772619763" lon="-122.228595278" visible="true"><tag k="addr:housenumber" v="8235" /><tag k="addr:postcode" v="98028" /><tag k="addr:city" v="Kenmore" /><tag k="addr:street" v="Northeast 198th Street" /></node>
<node id="-1000054" lat="47.77305467" lon="-122.228656689" visible="true"><tag k="addr:housenumber" v="8238" /><tag k="addr:postcode" v="98028" /><tag k="addr:city" v="Kenmore" /><tag k="addr:street" v="Northeast 198th Street" /></node>
<node id="-1000055" lat="47.773085989" lon="-122.228444477" visible="true"><tag k="addr:housenumber" v="8242" /><tag k="addr:postcode" v="98028" /><tag k="addr:city" v="Kenmore" /><tag k="addr:street" v="Northeast 198th Street" /></node>
<node id="-1000056" lat="47.77269359" lon="-122.228430372" visible="true"><tag k="addr:housenumber" v="8239" /><tag k="addr:postcode" v="98028" /><tag k="addr:city" v="Kenmore" /><tag k="addr:street" v="Northeast 198th Street" /></node>
<node id="-1000057" lat="47.772275284" lon="-122.229164804" visible="true"><tag k="addr:housenumber" v="19727" /><tag k="addr:postcode" v="98028" /><tag k="addr:city" v="Kenmore" /><tag k="addr:street" v="82nd Lane Northeast" /></node>
<node id="-1000058" lat="47.772169642" lon="-122.228995071" visible="true"><tag k="addr:housenumber" v="19721" /><tag k="addr:postcode" v="98028" /><tag k="addr:city" v="Kenmore" /><tag k="addr:street" v="82nd Lane Northeast" /></node>
<node id="-1000059" lat="47.772326609" lon="-122.228686817" visible="true"><tag k="addr:housenumber" v="19720" /><tag k="addr:postcode" v="98028" /><tag k="addr:city" v="Kenmore" /><tag k="addr:street" v="82nd Lane Northeast" /></node>
<node id="-1000060" lat="47.772462008" lon="-122.22877213" visible="true"><tag k="addr:housenumber" v="19724" /><tag k="addr:postcode" v="98028" /><tag k="addr:city" v="Kenmore" /><tag k="addr:street" v="82nd Lane Northeast" /></node>
<node id="-1000061" lat="47.772554075" lon="-122.228877582" visible="true"><tag k="addr:housenumber" v="19730" /><tag k="addr:postcode" v="98028" /><tag k="addr:city" v="Kenmore" /><tag k="addr:street" v="82nd Lane Northeast" /></node>
<node id="-1000062" lat="47.773931729" lon="-122.228780893" visible="true"><tag k="addr:housenumber" v="19932" /><tag k="addr:postcode" v="98028" /><tag k="addr:city" v="Kenmore" /></node>
<node id="-1000063" lat="47.773934159" lon="-122.228582104" visible="true"><tag k="addr:housenumber" v="19928" /><tag k="addr:postcode" v="98028" /><tag k="addr:city" v="Kenmore" /><tag k="addr:street" v="83rd Place Northeast" /></node>
<node id="-1000064" lat="47.773924" lon="-122.228368772" visible="true"><tag k="addr:housenumber" v="19924" /><tag k="addr:postcode" v="98028" /><tag k="addr:city" v="Kenmore" /><tag k="addr:street" v="83rd Place Northeast" /></node>
<node id="-1000065" lat="47.773920048" lon="-122.228169811" visible="true"><tag k="addr:housenumber" v="19920" /><tag k="addr:postcode" v="98028" /><tag k="addr:city" v="Kenmore" /><tag k="addr:street" v="83rd Place Northeast" /></node>
<node id="-1000066" lat="47.773896837" lon="-122.227979801" visible="true"><tag k="addr:housenumber" v="19916" /><tag k="addr:postcode" v="98028" /><tag k="addr:city" v="Kenmore" /><tag k="addr:street" v="83rd Place Northeast" /></node>
<node id="-1000067" lat="47.773664676" lon="-122.227912009" visible="true"><tag k="addr:housenumber" v="19844" /><tag k="addr:postcode" v="98028" /><tag k="addr:city" v="Kenmore" /><tag k="addr:street" v="83rd Place Northeast" /></node>
<node id="-1000068" lat="47.773415694" lon="-122.227914785" visible="true"><tag k="addr:housenumber" v="19838" /><tag k="addr:postcode" v="98028" /><tag k="addr:city" v="Kenmore" /><tag k="addr:street" v="83rd Place Northeast" /></node>
<node id="-1000069" lat="47.773045239" lon="-122.227933232" visible="true"><tag k="addr:housenumber" v="19824" /><tag k="addr:postcode" v="98028" /><tag k="addr:city" v="Kenmore" /><tag k="addr:street" v="83rd Place Northeast" /></node>
<node id="-1000070" lat="47.77277056" lon="-122.22794952" visible="true"><tag k="addr:housenumber" v="19734" /><tag k="addr:postcode" v="98028" /><tag k="addr:city" v="Kenmore" /><tag k="addr:street" v="83rd Place Northeast" /></node>
<node id="-1000071" lat="47.77264578" lon="-122.227974572" visible="true"><tag k="addr:housenumber" v="19732" /><tag k="addr:postcode" v="98028" /><tag k="addr:city" v="Kenmore" /><tag k="addr:street" v="83rd Place Northeast" /></node>
<node id="-1000072" lat="47.772505452" lon="-122.227966065" visible="true"><tag k="addr:housenumber" v="19726" /><tag k="addr:postcode" v="98028" /><tag k="addr:city" v="Kenmore" /><tag k="addr:street" v="83rd Place Northeast" /></node>
<node id="-1000073" lat="47.772336438" lon="-122.227980459" visible="true"><tag k="addr:housenumber" v="19724" /><tag k="addr:postcode" v="98028" /><tag k="addr:city" v="Kenmore" /><tag k="addr:street" v="83rd Place Northeast" /></node>
<node id="-1000074" lat="47.772347938" lon="-122.228345324" visible="true"><tag k="addr:housenumber" v="19722" /><tag k="addr:postcode" v="98028" /><tag k="addr:city" v="Kenmore" /><tag k="addr:street" v="83rd Place Northeast" /></node>
<node id="-1000075" lat="47.773540011" lon="-122.227927596" visible="true"><tag k="addr:housenumber" v="19842" /><tag k="addr:postcode" v="98028" /><tag k="addr:city" v="Kenmore" /><tag k="addr:street" v="83rd Place Northeast" /></node>
<node id="-1000076" lat="47.77329103" lon="-122.227930371" visible="true"><tag k="addr:housenumber" v="19834" /><tag k="addr:postcode" v="98028" /><tag k="addr:city" v="Kenmore" /><tag k="addr:street" v="83rd Place Northeast" /></node>
<node id="-1000077" lat="47.77316973" lon="-122.227931845" visible="true"><tag k="addr:housenumber" v="19830" /><tag k="addr:postcode" v="98028" /><tag k="addr:city" v="Kenmore" /><tag k="addr:street" v="83rd Place Northeast" /></node>
<node id="-1000078" lat="47.774629424" lon="-122.227872668" visible="true"><tag k="addr:housenumber" v="20220" /><tag k="addr:postcode" v="98028" /><tag k="addr:city" v="Kenmore" /><tag k="addr:street" v="83rd Place Northeast" /></node>
<node id="-1000079" lat="47.77449598" lon="-122.227873479" visible="true"><tag k="addr:housenumber" v="20216" /><tag k="addr:postcode" v="98028" /><tag k="addr:city" v="Kenmore" /><tag k="addr:street" v="83rd Place Northeast" /></node>
<node id="-1000080" lat="47.774223579" lon="-122.228102108" visible="true"><tag k="addr:housenumber" v="20208" /><tag k="addr:postcode" v="98028" /><tag k="addr:city" v="Kenmore" /><tag k="addr:street" v="83rd Place Northeast" /></node>
<node id="-1000081" lat="47.774144772" lon="-122.228323313" visible="true"><tag k="addr:housenumber" v="20206" /><tag k="addr:postcode" v="98028" /><tag k="addr:city" v="Kenmore" /><tag k="addr:street" v="83rd Place Northeast" /></node>
<node id="-1000082" lat="47.774178834" lon="-122.228590747" visible="true"><tag k="addr:housenumber" v="20207" /><tag k="addr:postcode" v="98028" /><tag k="addr:city" v="Kenmore" /><tag k="addr:street" v="83rd Place Northeast" /></node>
<node id="-1000083" lat="47.774323329" lon="-122.228656217" visible="true"><tag k="addr:housenumber" v="20211" /><tag k="addr:postcode" v="98028" /><tag k="addr:city" v="Kenmore" /><tag k="addr:street" v="83rd Place Northeast" /></node>
<node id="-1000084" lat="47.774480487" lon="-122.228656046" visible="true"><tag k="addr:housenumber" v="20213" /><tag k="addr:postcode" v="98028" /><tag k="addr:city" v="Kenmore" /><tag k="addr:street" v="83rd Place Northeast" /></node>
<node id="-1000085" lat="47.77462912" lon="-122.22838292" visible="true"><tag k="addr:housenumber" v="20221" /><tag k="addr:postcode" v="98028" /><tag k="addr:city" v="Kenmore" /><tag k="addr:street" v="83rd Place Northeast" /></node>
<node id="-1000086" lat="47.774783152" lon="-122.22839586" visible="true"><tag k="addr:housenumber" v="20227" /><tag k="addr:postcode" v="98028" /><tag k="addr:city" v="Kenmore" /><tag k="addr:street" v="83rd Place Northeast" /></node>
<node id="-1000087" lat="47.766322037" lon="-122.231581601" visible="true"><tag k="addr:housenumber" v="19016" /><tag k="addr:postcode" v="98028" /><tag k="addr:city" v="Kenmore" /><tag k="addr:street" v="81st Avenue Northeast" /></node>
<node id="-1000088" lat="47.766507454" lon="-122.23160072" visible="true"><tag k="addr:housenumber" v="19018" /><tag k="addr:postcode" v="98028" /><tag k="addr:city" v="Kenmore" /><tag k="addr:street" v="81st Avenue Northeast" /></node>
<node id="-1000089" lat="47.766496381" lon="-122.23192168" visible="true"><tag k="addr:housenumber" v="19020" /><tag k="addr:postcode" v="98028" /><tag k="addr:city" v="Kenmore" /><tag k="addr:street" v="81st Avenue Northeast" /></node>
<node id="-1000090" lat="47.765389273" lon="-122.230286363" visible="true"><tag k="addr:housenumber" v="18908" /><tag k="addr:postcode" v="98028" /><tag k="addr:city" v="Kenmore" /><tag k="addr:street" v="82nd Avenue Northeast" /></node>
<node id="-1000091" lat="47.764881291" lon="-122.230962538" visible="true"><tag k="addr:housenumber" v="8140" /><tag k="addr:postcode" v="98028" /><tag k="addr:city" v="Kenmore" /><tag k="addr:street" v="Northeast 187th Place" /></node>
<node id="-1000092" lat="47.765383891" lon="-122.231643607" visible="true"><tag k="addr:housenumber" v="8116" /><tag k="addr:postcode" v="98028" /><tag k="addr:city" v="Kenmore" /><tag k="addr:street" v="Northeast 189th Place" /></node>
<node id="-1000093" lat="47.765393491" lon="-122.231248479" visible="true"><tag k="addr:housenumber" v="8122" /><tag k="addr:postcode" v="98028" /><tag k="addr:city" v="Kenmore" /><tag k="addr:street" v="Northeast 189th Place" /></node>
<node id="-1000094" lat="47.765387604" lon="-122.23095178" visible="true"><tag k="addr:housenumber" v="8128" /><tag k="addr:postcode" v="98028" /><tag k="addr:city" v="Kenmore" /><tag k="addr:street" v="Northeast 189th Place" /></node>
<node id="-1000095" lat="47.765120944" lon="-122.230958717" visible="true"><tag k="addr:housenumber" v="8129" /><tag k="addr:postcode" v="98028" /><tag k="addr:city" v="Kenmore" /><tag k="addr:street" v="Northeast 189th Place" /></node>
<node id="-1000096" lat="47.765131589" lon="-122.231255542" visible="true"><tag k="addr:housenumber" v="8123" /><tag k="addr:postcode" v="98028" /><tag k="addr:city" v="Kenmore" /><tag k="addr:street" v="Northeast 189th Place" /></node>
<node id="-1000097" lat="47.764927051" lon="-122.231242971" visible="true"><tag k="addr:housenumber" v="8136" /><tag k="addr:postcode" v="98028" /><tag k="addr:city" v="Kenmore" /><tag k="addr:street" v="Northeast 187th Place" /></node>
<node id="-1000098" lat="47.764952926" lon="-122.231850864" visible="true"><tag k="addr:housenumber" v="8132" /><tag k="addr:postcode" v="98028" /><tag k="addr:city" v="Kenmore" /><tag k="addr:street" v="Northeast 187th Place" /></node>
<node id="-1000099" lat="47.764786025" lon="-122.231874607" visible="true"><tag k="addr:housenumber" v="8131" /><tag k="addr:postcode" v="98028" /><tag k="addr:city" v="Kenmore" /><tag k="addr:street" v="Northeast 187th Place" /></node>
<node id="-1000100" lat="47.76465304" lon="-122.231849841" visible="true"><tag k="addr:housenumber" v="8135" /><tag k="addr:postcode" v="98028" /><tag k="addr:city" v="Kenmore" /><tag k="addr:street" v="Northeast 187th Place" /></node>
<node id="-1000101" lat="47.764645941" lon="-122.231263638" visible="true"><tag k="addr:housenumber" v="8139" /><tag k="addr:postcode" v="98028" /><tag k="addr:city" v="Kenmore" /><tag k="addr:street" v="Northeast 187th Place" /></node>
<node id="-1000102" lat="47.76612856" lon="-122.231540428" visible="true"><tag k="addr:housenumber" v="8034" /><tag k="addr:postcode" v="98028" /><tag k="addr:city" v="Kenmore" /><tag k="addr:street" v="Northeast 190th Street" /></node>
</osm>