<osm generator="uvmogr2osm" upload="false" version="0.6">
<node id="-2" lat="47.776385833" lon="-122.255013867" visible="true" />
<node id="-3" lat="47.776834338" lon="-122.254998934" visible="true" />
<node id="-4" lat="47.776837533" lon="-122.254742318" visible="true" />
<node id="-5" lat="47.776701152" lon="-122.254746359" visible="true" />
<node id="-6" lat="47.776703476" lon="-122.254559729" visible="true" />
<node id="-7" lat="47.776569716" lon="-122.254563843" visible="true" />
<node id="-8" lat="47.776563935" lon="-122.254396438" visible="true" />
<node id="-9" lat="47.776655665" lon="-122.254398951" visible="true" />
<node id="-10" lat="47.776655366" lon="-122.25421225" visible="true" />
<node id="-11" lat="47.776387991" lon="-122.254208815" visible="true" />
<node id="-12" lat="47.776389096" lon="-122.253909359" visible="true" />
<node id="-13" lat="47.775987912" lon="-122.25391393" visible="true" />
<node id="-14" lat="47.775990057" lon="-122.25416291" visible="true" />
<node id="-15" lat="47.776304656" lon="-122.254163749" visible="true" />
<node id="-16" lat="47.776306468" lon="-122.254649975" visible="true" />
<node id="-17" lat="47.775876357" lon="-122.254661526" visible="true" />
<node id="-18" lat="47.775409609" lon="-122.254878208" visible="true" />
<node id="-19" lat="47.775502319" lon="-122.255223012" visible="true" />
<node id="-20" lat="47.775887386" lon="-122.255039099" visible="true" />
<node id="-21" lat="47.775888656" lon="-122.255358063" visible="true" />
<node id="-22" lat="47.776345073" lon="-122.255339461" visible="true" />
<node id="-23" lat="47.776341229" lon="-122.255016533" visible="true" />
<way id="-1" visible="true"><nd ref="-2" /><nd ref="-3" /><nd ref="-4" /><nd ref="-5" /><nd ref="-6" /><nd ref="-7" /><nd ref="-8" /><nd ref="-9" /><nd ref="-10" /><nd ref="-11" /><nd ref="-12" /><nd ref="-13" /><nd ref="-14" /><nd ref="-15" /><nd ref="-16" /><nd ref="-17" /><nd ref="-18" /><nd ref="-19" /><nd ref="-20" /><nd ref="-21" /><nd ref="-22" /><nd ref="-23" /><nd ref="-2" /><tag k="addr:housenumber" v="20323" /><tag k="building" v="yes" /><tag k="addr:city" v="Kenmore" /><tag k="addr:postcode" v="98028" /><tag k="addr:street" v="66th Avenue Northeast" /><tag k="name" v="Kenmore Jr. High" /></way>
<node id="-1000001" lat="47.776946645" lon="-122.262139083" visible="true"><tag k="addr:housenumber" v="20434" /><tag k="addr:postcode" v="98028" /><tag k="addr:city" v="Kenmore" /><tag k="addr:street" v="61st Avenue Northeast" /></node>
<node id="-1000002" lat="47.776895987" lon="-122.258945378" visible="true"><tag k="addr:housenumber" v="6238" /><tag k="addr:postcode" v="98028" /><tag k="addr:city" v="Kenmore" /><tag k="addr:street" v="Northeast 204th Place" /></node>
<node id="-1000003" lat="47.776921269" lon="-122.265163512" visible="true"><tag k="addr:housenumber" v="20424" /><tag k="addr:postcode" v="98028" /><tag k="addr:city" v="Kenmore" /><tag k="addr:street" v="60th Avenue Northeast" /></node>
<node id="-1000004" lat="47.776841549" lon="-122.264856003" visible="true"><tag k="addr:housenumber" v="6015" /><tag k="addr:postcode" v="98028" /><tag k="addr:city" v="Kenmore" /><tag k="addr:street" v="Northeast 205th Street" /></node>
<node id="-1000005" lat="47.776967577" lon="-122.262891417" visible="true"><tag k="addr:housenumber" v="20428" /><tag k="addr:postcode" v="98028" /><tag k="addr:city" v="Kenmore" /><tag k="addr:street" v="61st Avenue Northeast" /></node>
<node id="-1000006" lat="47.776763595" lon="-122.258236521" visible="true"><tag k="addr:housenumber" v="20413" /><tag k="addr:postcode" v="98028" /><tag k="addr:city" v="Kenmore" /><tag k="addr:street" v="63rd Avenue Northeast" /></node>
<node id="-1000007" lat="47.776857657" lon="-122.257985236" visible="true"><tag k="addr:housenumber" v="20417" /><tag k="addr:postcode" v="98028" /><tag k="addr:city" v="Kenmore" /><tag k="addr:street" v="63rd Avenue Northeast" /></node>
<node id="-1000008" lat="47.776829997" lon="-122.264307358" visible="true"><tag k="addr:housenumber" v="6031" /><tag k="addr:postcode" v="98028" /><tag k="addr:city" v="Kenmore" /><tag k="addr:street" v="Northeast 205th Street" /></node>
<node id="-1000009" lat="47.776885449" lon="-122.264009795" visible="true"><tag k="addr:housenumber" v="6039" /><tag k="addr:postcode" v="98028" /><tag k="addr:city" v="Kenmore" /><tag k="addr:street" v="Northeast 205th Street" /></node>
<node id="-1000010" lat="47.776850101" lon="-122.257728337" visible="true"><tag k="addr:housenumber" v="20418" /><tag k="addr:postcode" v="98028" /><tag k="addr:city" v="Kenmore" /><tag k="addr:street" v="63rd Avenue Northeast" /></node>
<node id="-1000011" lat="47.77689864" lon="-122.263587716" visible="true"><tag k="addr:housenumber" v="20427" /><tag k="addr:postcode" v="98028" /><tag k="addr:city" v="Kenmore" /><tag k="addr:street" v="61st Avenue Northeast" /></node>
<node id="-1000012" lat="47.776758611" lon="-122.264584978" visible="true"><tag k="addr:housenumber" v="6023" /><tag k="addr:postcode" v="98028" /><tag k="addr:city" v="Kenmore" /><tag k="addr:street" v="Northeast 205th Street" /></node>
<node id="-1000013" lat="47.776664932" lon="-122.259080086" visible="true"><tag k="addr:housenumber" v="6257" /><tag k="addr:postcode" v="98028" /><tag k="addr:city" v="Kenmore" /><tag k="addr:street" v="Northeast 204th Place" /></node>
<node id="-1000014" lat="47.776683965" lon="-122.257412736" visible="true"><tag k="addr:housenumber" v="20414" /><tag k="addr:postcode" v="98028" /><tag k="addr:city" v="Kenmore" /><tag k="addr:street" v="63rd Avenue Northeast" /></node>
<node id="-1000015" lat="47.776590898" lon="-122.263008012" visible="true"><tag k="addr:housenumber" v="6102" /><tag k="addr:postcode" v="98028" /><tag k="addr:city" v="Kenmore" /><tag k="addr:street" v="Northeast 204th Street" /></node>
<node id="-1000016" lat="47.776568379" lon="-122.262761832" visible="true"><tag k="addr:housenumber" v="6108" /><tag k="addr:postcode" v="98028" /><tag k="addr:city" v="Kenmore" /><tag k="addr:street" v="Northeast 204th Street" /></node>
<node id="-1000017" lat="47.776558752" lon="-122.262514879" visible="true"><tag k="addr:housenumber" v="6114" /><tag k="addr:postcode" v="98028" /><tag k="addr:city" v="Kenmore" /><tag k="addr:street" v="Northeast 204th Street" /></node>
<node id="-1000018" lat="47.776567622" lon="-122.262296655" visible="true"><tag k="addr:housenumber" v="6120" /><tag k="addr:postcode" v="98028" /><tag k="addr:city" v="Kenmore" /><tag k="addr:street" v="Northeast 204th Street" /></node>
<node id="-1000019" lat="47.776609703" lon="-122.262063935" visible="true"><tag k="addr:housenumber" v="6128" /><tag k="addr:postcode" v="98028" /><tag k="addr:city" v="Kenmore" /><tag k="addr:street" v="Northeast 204th Street" /></node>
<node id="-1000020" lat="47.776735349" lon="-122.261679385" visible="true"><tag k="addr:housenumber" v="6130" /><tag k="addr:postcode" v="98028" /><tag k="addr:city" v="Kenmore" /><tag k="addr:street" v="Northeast 204th Street" /></node>
<node id="-1000021" lat="47.776650408" lon="-122.265157785" visible="true"><tag k="addr:housenumber" v="20416" /><tag k="addr:postcode" v="98028" /><tag k="addr:city" v="Kenmore" /><tag k="addr:street" v="60th Avenue Northeast" /></node>
<node id="-1000022" lat="47.776654043" lon="-122.263575756" visible="true"><tag k="addr:housenumber" v="20419" /><tag k="addr:postcode" v="98028" /><tag k="addr:city" v="Kenmore" /><tag k="addr:street" v="61st Avenue Northeast" /></node>
<node id="-1000023" lat="47.776562375" lon="-122.258440812" visible="true"><tag k="addr:housenumber" v="6256" /><tag k="addr:postcode" v="98028" /><tag k="addr:city" v="Kenmore" /><tag k="addr:street" v="Northeast 204th Place" /></node>
<node id="-1000024" lat="47.776443556" lon="-122.259851794" visible="true"><tag k="addr:housenumber" v="20320" /><tag k="addr:postcode" v="98028" /><tag k="addr:city" v="Kenmore" /><tag k="addr:street" v="62nd Avenue Northeast" /></node>
<node id="-1000025" lat="47.776417313" lon="-122.258159723" visible="true"><tag k="addr:housenumber" v="20405" /><tag k="addr:postcode" v="98028" /><tag k="addr:city" v="Kenmore" /><tag k="addr:street" v="63rd Avenue Northeast" /></node>
<node id="-1000026" lat="47.776114225" lon="-122.260800965" visible="true"><tag k="addr:housenumber" v="20265" /><tag k="addr:postcode" v="98028" /><tag k="addr:city" v="Kenmore" /><tag k="addr:street" v="62nd Avenue Northeast" /></node>
<node id="-1000027" lat="47.776379924" lon="-122.265212268" visible="true"><tag k="addr:housenumber" v="6004" /><tag k="addr:postcode" v="98028" /><tag k="addr:city" v="Kenmore" /><tag k="addr:street" v="Northeast 204th Street" /></node>
<node id="-1000028" lat="47.776353205" lon="-122.264950822" visible="true"><tag k="addr:housenumber" v="6012" /><tag k="addr:postcode" v="98028" /><tag k="addr:city" v="Kenmore" /><tag k="addr:street" v="Northeast 204th Street" /></node>
<node id="-1000029" lat="47.776292172" lon="-122.264625526" visible="true"><tag k="addr:housenumber" v="6020" /><tag k="addr:postcode" v="98028" /><tag k="addr:city" v="Kenmore" /><tag k="addr:street" v="Northeast 204th Street" /></node>
<node id="-1000030" lat="47.77645604" lon="-122.261467169" visible="true"><tag k="addr:housenumber" v="6134" /><tag k="addr:postcode" v="98028" /><tag k="addr:city" v="Kenmore" /><tag k="addr:street" v="Northeast 204th Street" /></node>
<node id="-1000031" lat="47.776313565" lon="-122.264309563" visible="true"><tag k="addr:housenumber" v="6030" /><tag k="addr:postcode" v="98028" /><tag k="addr:city" v="Kenmore" /><tag k="addr:street" v="Northeast 204th Street" /></node>
<node id="-1000032" lat="47.776357895" lon="-122.264012418" visible="true"><tag k="addr:housenumber" v="6040" /><tag k="addr:postcode" v="98028" /><tag k="addr:city" v="Kenmore" /><tag k="addr:street" v="Northeast 204th Street" /></node>
<node id="-1000033" lat="47.776418839" lon="-122.263697365" visible="true"><tag k="addr:housenumber" v="6046" /><tag k="addr:postcode" v="98028" /><tag k="addr:city" v="Kenmore" /><tag k="addr:street" v="Northeast 204th Street" /></node>
<node id="-1000034" lat="47.776407539" lon="-122.259058408" visible="true"><tag k="addr:housenumber" v="6239" /><tag k="addr:postcode" v="98028" /><tag k="addr:city" v="Kenmore" /><tag k="addr:street" v="Northeast 204th Place" /></node>
<node id="-1000035" lat="47.77645731" lon="-122.257488558" visible="true"><tag k="addr:housenumber" v="20406" /><tag k="addr:postcode" v="98028" /><tag k="addr:city" v="Kenmore" /><tag k="addr:street" v="63rd Avenue Northeast" /></node>
<node id="-1000036" lat="47.776253731" lon="-122.25904627" visible="true"><tag k="addr:housenumber" v="6241" /><tag k="addr:postcode" v="98028" /><tag k="addr:city" v="Kenmore" /><tag k="addr:street" v="Northeast 204th Place" /></node>
<node id="-1000037" lat="47.776174189" lon="-122.263051094" visible="true"><tag k="addr:housenumber" v="6103" /><tag k="addr:postcode" v="98028" /><tag k="addr:city" v="Kenmore" /><tag k="addr:street" v="Northeast 204th Street" /></node>
<node id="-1000038" lat="47.776184259" lon="-122.262758016" visible="true"><tag k="addr:housenumber" v="6109" /><tag k="addr:postcode" v="98028" /><tag k="addr:city" v="Kenmore" /><tag k="addr:street" v="Northeast 204th Street" /></node>
<node id="-1000039" lat="47.776142217" lon="-122.262565728" visible="true"><tag k="addr:housenumber" v="6115" /><tag k="addr:postcode" v="98028" /><tag k="addr:city" v="Kenmore" /><tag k="addr:street" v="Northeast 204th Street" /></node>
<node id="-1000040" lat="47.776192719" lon="-122.25750173" visible="true"><tag k="addr:housenumber" v="20402" /><tag k="addr:postcode" v="98028" /><tag k="addr:city" v="Kenmore" /><tag k="addr:street" v="63rd Avenue Northeast" /></node>
<node id="-1000041" lat="47.776142071" lon="-122.262316781" visible="true"><tag k="addr:housenumber" v="6121" /><tag k="addr:postcode" v="98028" /><tag k="addr:city" v="Kenmore" /><tag k="addr:street" v="Northeast 204th Street" /></node>
<node id="-1000042" lat="47.77612912" lon="-122.262065936" visible="true"><tag k="addr:housenumber" v="6129" /><tag k="addr:postcode" v="98028" /><tag k="addr:city" v="Kenmore" /><tag k="addr:street" v="Northeast 204th Street" /></node>
<node id="-1000043" lat="47.776082957" lon="-122.258705143" visible="true"><tag k="addr:housenumber" v="6243" /><tag k="addr:postcode" v="98028" /><tag k="addr:city" v="Kenmore" /><tag k="addr:street" v="Northeast 204th Place" /></node>
<node id="-1000044" lat="47.776127909" lon="-122.260077107" visible="true"><tag k="addr:housenumber" v="20306" /><tag k="addr:postcode" v="98028" /><tag k="addr:city" v="Kenmore" /><tag k="addr:street" v="62nd Avenue Northeast" /></node>
<node id="-1000045" lat="47.776068849" lon="-122.261656747" visible="true"><tag k="addr:housenumber" v="6131" /><tag k="addr:postcode" v="98028" /><tag k="addr:city" v="Kenmore" /><tag k="addr:street" v="Northeast 204th Street" /></node>
<node id="-1000046" lat="47.775985728" lon="-122.25836194" visible="true"><tag k="addr:housenumber" v="20323" /><tag k="addr:postcode" v="98028" /><tag k="addr:city" v="Kenmore" /><tag k="addr:street" v="63rd Avenue Northeast" /></node>
<node id="-1000047" lat="47.775969111" lon="-122.257443197" visible="true"><tag k="addr:housenumber" v="20322" /><tag k="addr:postcode" v="98028" /><tag k="addr:city" v="Kenmore" /><tag k="addr:street" v="63rd Avenue Northeast" /></node>
<node id="-1000048" lat="47.775792119" lon="-122.259061037" visible="true"><tag k="addr:housenumber" v="20315" /><tag k="addr:postcode" v="98028" /><tag k="addr:city" v="Kenmore" /><tag k="addr:street" v="62nd Place Northeast" /></node>
<node id="-1000049" lat="47.775816946" lon="-122.258719708" visible="true"><tag k="addr:housenumber" v="20314" /><tag k="addr:postcode" v="98028" /><tag k="addr:city" v="Kenmore" /><tag k="addr:street" v="62nd Place Northeast" /></node>
<node id="-1000050" lat="47.77582494" lon="-122.260818426" visible="true"><tag k="addr:housenumber" v="20249" /><tag k="addr:postcode" v="98028" /><tag k="addr:city" v="Kenmore" /><tag k="addr:street" v="62nd Avenue Northeast" /></node>
<node id="-1000051" lat="47.775785219" lon="-122.263090701" visible="true"><tag k="addr:housenumber" v="6102" /><tag k="addr:postcode" v="98028" /><tag k="addr:city" v="Kenmore" /><tag k="addr:street" v="Northeast 203rd Street" /></node>
<node id="-1000052" lat="47.775785234" lon="-122.262828987" visible="true"><tag k="addr:housenumber" v="6108" /><tag k="addr:postcode" v="98028" /><tag k="addr:city" v="Kenmore" /><tag k="addr:street" v="Northeast 203rd Street" /></node>
<node id="-1000053" lat="47.775785414" lon="-122.262571568" visible="true"><tag k="addr:housenumber" v="6114" /><tag k="addr:postcode" v="98028" /><tag k="addr:city" v="Kenmore" /><tag k="addr:street" v="Northeast 203rd Street" /></node>
<node id="-1000054" lat="47.775785562" lon="-122.262326453" visible="true"><tag k="addr:housenumber" v="6120" /><tag k="addr:postcode" v="98028" /><tag k="addr:city" v="Kenmore" /><tag k="addr:street" v="Northeast 203rd Street" /></node>
<node id="-1000055" lat="47.77578728" lon="-122.262056671" visible="true"><tag k="addr:housenumber" v="6128" /><tag k="addr:postcode" v="98028" /><tag k="addr:city" v="Kenmore" /><tag k="addr:street" v="Northeast 203rd Street" /></node>
<node id="-1000056" lat="47.775872798" lon="-122.261709051" visible="true"><tag k="addr:housenumber" v="6130" /><tag k="addr:postcode" v="98028" /><tag k="addr:city" v="Kenmore" /><tag k="addr:street" v="Northeast 203rd Street" /></node>
<node id="-1000057" lat="47.775800359" lon="-122.258132042" visible="true"><tag k="addr:housenumber" v="20319" /><tag k="addr:postcode" v="98028" /><tag k="addr:city" v="Kenmore" /><tag k="addr:street" v="63rd Avenue Northeast" /></node>
<node id="-1000058" lat="47.775664666" lon="-122.258475389" visible="true"><tag k="addr:housenumber" v="20312" /><tag k="addr:postcode" v="98028" /><tag k="addr:city" v="Kenmore" /><tag k="addr:street" v="62nd Place Northeast" /></node>
<node id="-1000059" lat="47.775776605" lon="-122.257406529" visible="true"><tag k="addr:housenumber" v="20318" /><tag k="addr:postcode" v="98028" /><tag k="addr:city" v="Kenmore" /><tag k="addr:street" v="63rd Avenue Northeast" /></node>
<node id="-1000060" lat="47.7756854" lon="-122.261695692" visible="true"><tag k="addr:housenumber" v="6134" /><tag k="addr:postcode" v="98028" /><tag k="addr:city" v="Kenmore" /><tag k="addr:street" v="Northeast 203rd Street" /></node>
<node id="-1000061" lat="47.775530173" lon="-122.259074867" visible="true"><tag k="addr:housenumber" v="20311" /><tag k="addr:postcode" v="98028" /><tag k="addr:city" v="Kenmore" /><tag k="addr:street" v="62nd Place Northeast" /></node>
<node id="-1000062" lat="47.775635145" lon="-122.257387393" visible="true"><tag k="addr:housenumber" v="20308" /><tag k="addr:postcode" v="98028" /><tag k="addr:city" v="Kenmore" /><tag k="addr:street" v="63rd Avenue Northeast" /></node>
<node id="-1000063" lat="47.775497467" lon="-122.260839515" visible="true"><tag k="addr:housenumber" v="20237" /><tag k="addr:postcode" v="98028" /><tag k="addr:city" v="Kenmore" /><tag k="addr:street" v="62nd Avenue Northeast" /></node>
<node id="-1000064" lat="47.775435259" lon="-122.258045073" visible="true"><tag k="addr:housenumber" v="20303" /><tag k="addr:postcode" v="98028" /><tag k="addr:city" v="Kenmore" /><tag k="addr:street" v="63rd Avenue Northeast" /></node>
<node id="-1000065" lat="47.775480933" lon="-122.261724148" visible="true"><tag k="addr:housenumber" v="6135" /><tag k="addr:postcode" v="98028" /><tag k="addr:city" v="Kenmore" /><tag k="addr:street" v="Northeast 203rd Street" /></node>
<node id="-1000066" lat="47.775443399" lon="-122.257378385" visible="true"><tag k="addr:housenumber" v="20304" /><tag k="addr:postcode" v="98028" /><tag k="addr:city" v="Kenmore" /><tag k="addr:street" v="63rd Avenue Northeast" /></node>
<node id="-1000067" lat="47.77532018" lon="-122.263107637" visible="true"><tag k="addr:housenumber" v="6103" /><tag k="addr:postcode" v="98028" /><tag k="addr:city" v="Kenmore" /><tag k="addr:street" v="Northeast 203rd Street" /></node>
<node id="-1000068" lat="47.775320747" lon="-122.2628423" visible="true"><tag k="addr:housenumber" v="6109" /><tag k="addr:postcode" v="98028" /><tag k="addr:city" v="Kenmore" /><tag k="addr:street" v="Northeast 203rd Street" /></node>
<node id="-1000069" lat="47.775320685" lon="-122.262595453" visible="true"><tag k="addr:housenumber" v="6115" /><tag k="addr:postcode" v="98028" /><tag k="addr:city" v="Kenmore" /><tag k="addr:street" v="Northeast 203rd Street" /></node>
<node id="-1000070" lat="47.775320599" lon="-122.262347141" visible="true"><tag k="addr:housenumber" v="6121" /><tag k="addr:postcode" v="98028" /><tag k="addr:city" v="Kenmore" /><tag k="addr:street" v="Northeast 203rd Street" /></node>
<node id="-1000071" lat="47.775320517" lon="-122.262071149" visible="true"><tag k="addr:housenumber" v="6129" /><tag k="addr:postcode" v="98028" /><tag k="addr:city" v="Kenmore" /><tag k="addr:street" v="Northeast 203rd Street" /></node>
<node id="-1000072" lat="47.775342896" lon="-122.258445986" visible="true"><tag k="addr:housenumber" v="6254" /><tag k="addr:postcode" v="98028" /><tag k="addr:city" v="Kenmore" /><tag k="addr:street" v="Northeast 203rd Place" /></node>
<node id="-1000073" lat="47.775296188" lon="-122.261715739" visible="true"><tag k="addr:housenumber" v="6131" /><tag k="addr:postcode" v="98028" /><tag k="addr:city" v="Kenmore" /><tag k="addr:street" v="Northeast 203rd Street" /></node>
<node id="-1000074" lat="47.775228792" lon="-122.259056251" visible="true"><tag k="addr:housenumber" v="20305" /><tag k="addr:postcode" v="98028" /><tag k="addr:city" v="Kenmore" /><tag k="addr:street" v="62nd Place Northeast" /></node>
<node id="-1000075" lat="47.775085698" lon="-122.256830011" visible="true"><tag k="addr:housenumber" v="6408" /><tag k="addr:postcode" v="98028" /><tag k="addr:city" v="Kenmore" /><tag k="addr:street" v="Northeast 202nd Street" /></node>
<node id="-1000076" lat="47.775017402" lon="-122.255505327" visible="true"><tag k="addr:housenumber" v="6450" /><tag k="addr:postcode" v="98028" /><tag k="addr:city" v="Kenmore" /><tag k="addr:street" v="Northeast 202nd Street" /></node>
<node id="-1000077" lat="47.775096795" lon="-122.257361547" visible="true"><tag k="addr:housenumber" v="20206" /><tag k="addr:postcode" v="98028" /><tag k="addr:city" v="Kenmore" /><tag k="addr:street" v="63rd Avenue Northeast" /></node>
<node id="-1000078" lat="47.775016314" lon="-122.254658114" visible="true"><tag k="addr:housenumber" v="6506" /><tag k="addr:postcode" v="98028" /><tag k="addr:city" v="Kenmore" /><tag k="addr:street" v="Northeast 202nd Street" /></node>
<node id="-1000079" lat="47.775018016" lon="-122.254156888" visible="true"><tag k="addr:housenumber" v="6520" /><tag k="addr:postcode" v="98028" /><tag k="addr:city" v="Kenmore" /><tag k="addr:street" v="Northeast 202nd Street" /></node>
<node id="-1000080" lat="47.775023525" lon="-122.253714258" visible="true"><tag k="addr:housenumber" v="6528" /><tag k="addr:postcode" v="98028" /><tag k="addr:city" v="Kenmore" /><tag k="addr:street" v="Northeast 202nd Street" /></node>
<node id="-1000081" lat="47.775083388" lon="-122.253245396" visible="true"><tag k="addr:housenumber" v="20215" /><tag k="addr:postcode" v="98028" /><tag k="addr:city" v="Kenmore" /><tag k="addr:street" v="66th Avenue Northeast" /></node>
<node id="-1000082" lat="47.775017433" lon="-122.263052474" visible="true"><tag k="addr:housenumber" v="6102" /><tag k="addr:postcode" v="98028" /><tag k="addr:city" v="Kenmore" /><tag k="addr:street" v="Northeast 202nd Street" /></node>
<node id="-1000083" lat="47.775017509" lon="-122.262738821" visible="true"><tag k="addr:housenumber" v="6110" /><tag k="addr:postcode" v="98028" /><tag k="addr:city" v="Kenmore" /><tag k="addr:street" v="Northeast 202nd Street" /></node>
<node id="-1000084" lat="47.775017681" lon="-122.262442601" visible="true"><tag k="addr:housenumber" v="6118" /><tag k="addr:postcode" v="98028" /><tag k="addr:city" v="Kenmore" /><tag k="addr:street" v="Northeast 202nd Street" /></node>
<node id="-1000085" lat="47.775019742" lon="-122.262120238" visible="true"><tag k="addr:housenumber" v="6126" /><tag k="addr:postcode" v="98028" /><tag k="addr:city" v="Kenmore" /><tag k="addr:street" v="Northeast 202nd Street" /></node>
<node id="-1000086" lat="47.775009164" lon="-122.261790062" visible="true"><tag k="addr:housenumber" v="6132" /><tag k="addr:postcode" v="98028" /><tag k="addr:city" v="Kenmore" /><tag k="addr:street" v="Northeast 202nd Street" /></node>
<node id="-1000087" lat="47.774897623" lon="-122.259046212" visible="true"><tag k="addr:housenumber" v="20301" /><tag k="addr:postcode" v="98028" /><tag k="addr:city" v="Kenmore" /><tag k="addr:street" v="62nd Place Northeast" /></node>
<node id="-1000088" lat="47.774971226" lon="-122.257779261" visible="true"><tag k="addr:housenumber" v="6279" /><tag k="addr:postcode" v="98028" /><tag k="addr:city" v="Kenmore" /><tag k="addr:street" v="Northeast 203rd Place" /></node>
<node id="-1000089" lat="47.774946035" lon="-122.260773717" visible="true"><tag k="addr:housenumber" v="20219" /><tag k="addr:postcode" v="98028" /><tag k="addr:city" v="Kenmore" /><tag k="addr:street" v="62nd Avenue Northeast" /></node>
<node id="-1000090" lat="47.774942337" lon="-122.25812995" visible="true"><tag k="addr:housenumber" v="6267" /><tag k="addr:postcode" v="98028" /><tag k="addr:city" v="Kenmore" /><tag k="addr:street" v="Northeast 203rd Place" /></node>
<node id="-1000091" lat="47.774901371" lon="-122.258451814" visible="true"><tag k="addr:housenumber" v="6259" /><tag k="addr:postcode" v="98028" /><tag k="addr:city" v="Kenmore" /><tag k="addr:street" v="Northeast 203rd Place" /></node>
<node id="-1000092" lat="47.774833364" lon="-122.258928885" visible="true"><tag k="addr:housenumber" v="6251" /><tag k="addr:postcode" v="98028" /><tag k="addr:city" v="Kenmore" /><tag k="addr:street" v="Northeast 203rd Place" /></node>
<node id="-1000093" lat="47.774816322" lon="-122.261793456" visible="true"><tag k="addr:housenumber" v="20040" /><tag k="addr:postcode" v="98028" /><tag k="addr:city" v="Kenmore" /><tag k="addr:street" v="61st Court Northeast" /></node>
<node id="-1000094" lat="47.774525024" lon="-122.260386693" visible="true"><tag k="addr:housenumber" v="20106" /><tag k="addr:postcode" v="98028" /><tag k="addr:city" v="Kenmore" /><tag k="addr:street" v="62nd Avenue Northeast" /></node>
<node id="-1000095" lat="47.77464908" lon="-122.262916795" visible="true"><tag k="addr:housenumber" v="6105" /><tag k="addr:postcode" v="98028" /><tag k="addr:city" v="Kenmore" /><tag k="addr:street" v="Northeast 202nd Street" /></node>
<node id="-1000096" lat="47.774646095" lon="-122.262470924" visible="true"><tag k="addr:housenumber" v="20033" /><tag k="addr:postcode" v="98028" /><tag k="addr:city" v="Kenmore" /><tag k="addr:street" v="61st Court Northeast" /></node>
<node id="-1000097" lat="47.774649178" lon="-122.261808398" visible="true"><tag k="addr:housenumber" v="20034" /><tag k="addr:postcode" v="98028" /><tag k="addr:city" v="Kenmore" /><tag k="addr:street" v="61st Court Northeast" /></node>
<node id="-1000098" lat="47.774065165" lon="-122.256868783" visible="true"><tag k="addr:housenumber" v="6407" /><tag k="addr:postcode" v="98028" /><tag k="addr:city" v="Kenmore" /><tag k="addr:street" v="Northeast 202nd Street" /></node>
<node id="-1000099" lat="47.774054199" lon="-122.257718812" visible="true"><tag k="addr:housenumber" v="6257" /><tag k="addr:postcode" v="98028" /><tag k="addr:city" v="Kenmore" /><tag k="addr:street" v="Northeast 202nd Street" /></node>
<node id="-1000100" lat="47.774284636" lon="-122.258082049" visible="true"><tag k="addr:housenumber" v="6245" /><tag k="addr:postcode" v="98028" /><tag k="addr:city" v="Kenmore" /><tag k="addr:street" v="Northeast 202nd Street" /></node>
<node id="-1000101" lat="47.774484919" lon="-122.26180424" visible="true"><tag k="addr:housenumber" v="20028" /><tag k="addr:postcode" v="98028" /><tag k="addr:city" v="Kenmore" /><tag k="addr:street" v="61st Court Northeast" /></node>
<node id="-1000102" lat="47.774447815" lon="-122.262889933" visible="true"><tag k="addr:housenumber" v="20026" /><tag k="addr:postcode" v="98028" /><tag k="addr:city" v="Kenmore" /><tag k="addr:street" v="61st Avenue Northeast" /></node>
<node id="-1000103" lat="47.77444113" lon="-122.262454884" visible="true"><tag k="addr:housenumber" v="20027" /><tag k="addr:postcode" v="98028" /><tag k="addr:city" v="Kenmore" /><tag k="addr:street" v="61st Court Northeast" /></node>
<node id="-1000104" lat="47.774301332" lon="-122.258516028" visible="true"><tag k="addr:housenumber" v="6235" /><tag k="addr:postcode" v="98028" /><tag k="addr:city" v="Kenmore" /><tag k="addr:street" v="Northeast 202nd Street" /></node>
<node id="-1000105" lat="47.774024766" lon="-122.255982697" visible="true"><tag k="addr:housenumber" v="6415" /><tag k="addr:postcode" v="98028" /><tag k="addr:city" v="Kenmore" /><tag k="addr:street" v="Northeast 202nd Street" /></node>
<node id="-1000106" lat="47.774334066" lon="-122.259691946" visible="true"><tag k="addr:housenumber" v="6203" /><tag k="addr:postcode" v="98028" /><tag k="addr:city" v="Kenmore" /><tag k="addr:street" v="Northeast 202nd Street" /></node>
<node id="-1000107" lat="47.774319068" lon="-122.25564752" visible="true"><tag k="addr:housenumber" v="6435" /><tag k="addr:postcode" v="98028" /><tag k="addr:city" v="Kenmore" /><tag k="addr:street" v="Northeast 202nd Street" /></node>
<node id="-1000108" lat="47.773989232" lon="-122.258601637" visible="true"><tag k="addr:housenumber" v="6231" /><tag k="addr:postcode" v="98028" /><tag k="addr:city" v="Kenmore" /><tag k="addr:street" v="Northeast 202nd Street" /></node>
<node id="-1000109" lat="47.774158523" lon="-122.259232509" visible="true"><tag k="addr:housenumber" v="6219" /><tag k="addr:postcode" v="98028" /><tag k="addr:city" v="Kenmore" /><tag k="addr:street" v="Northeast 202nd Street" /></node>
<node id="-1000110" lat="47.77395881" lon="-122.252855225" visible="true"><tag k="addr:housenumber" v="6609" /><tag k="addr:postcode" v="98028" /><tag k="addr:city" v="Kenmore" /><tag k="addr:street" v="Northeast 202nd Street" /></node>
<node id="-1000111" lat="47.774317351" lon="-122.261798344" visible="true"><tag k="addr:housenumber" v="20022" /><tag k="addr:postcode" v="98028" /><tag k="addr:city" v="Kenmore" /><tag k="addr:street" v="61st Court Northeast" /></node>
<node id="-1000112" lat="47.773955676" lon="-122.251578646" visible="true"><tag k="addr:housenumber" v="6635" /><tag k="addr:postcode" v="98028" /><tag k="addr:city" v="Kenmore" /><tag k="addr:street" v="Northeast 202nd Street" /></node>
<node id="-1000113" lat="47.773953996" lon="-122.250936866" visible="true"><tag k="addr:housenumber" v="6645" /><tag k="addr:postcode" v="98028" /><tag k="addr:city" v="Kenmore" /><tag k="addr:street" v="Northeast 202nd Street" /></node>
<node id="-1000114" lat="47.774252995" lon="-122.262858613" visible="true"><tag k="addr:housenumber" v="20020" /><tag k="addr:postcode" v="98028" /><tag k="addr:city" v="Kenmore" /><tag k="addr:street" v="61st Avenue Northeast" /></node>
<node id="-1000115" lat="47.774237739" lon="-122.26243903" visible="true"><tag k="addr:housenumber" v="20019" /><tag k="addr:postcode" v="98028" /><tag k="addr:city" v="Kenmore" /><tag k="addr:street" v="61st Court Northeast" /></node>
<node id="-1000116" lat="47.774168266" lon="-122.250293013" visible="true"><tag k="addr:housenumber" v="6725" /><tag k="addr:postcode" v="98028" /><tag k="addr:city" v="Kenmore" /><tag k="addr:street" v="Northeast 202nd Street" /></node>
<node id="-1000117" lat="47.774146246" lon="-122.261792331" visible="true"><tag k="addr:housenumber" v="20016" /><tag k="addr:postcode" v="98028" /><tag k="addr:city" v="Kenmore" /><tag k="addr:street" v="61st Court Northeast" /></node>
<node id="-1000118" lat="47.774056067" lon="-122.262828109" visible="true"><tag k="addr:housenumber" v="20012" /><tag k="addr:postcode" v="98028" /><tag k="addr:city" v="Kenmore" /><tag k="addr:street" v="61st Avenue Northeast" /></node>
<node id="-1000119" lat="47.774032297" lon="-122.261013857" visible="true"><tag k="addr:housenumber" v="20020" /><tag k="addr:postcode" v="98028" /><tag k="addr:city" v="Kenmore" /><tag k="addr:street" v="61st Place Northeast" /></node>
<node id="-1000120" lat="47.774028237" lon="-122.262422947" visible="true"><tag k="addr:housenumber" v="20011" /><tag k="addr:postcode" v="98028" /><tag k="addr:city" v="Kenmore" /><tag k="addr:street" v="61st Court Northeast" /></node>
<node id="-1000121" lat="47.773954246" lon="-122.2597561" visible="true"><tag k="addr:housenumber" v="6209" /><tag k="addr:postcode" v="98028" /><tag k="addr:city" v="Kenmore" /><tag k="addr:street" v="Northeast 202nd Street" /></node>
<node id="-1000122" lat="47.773975142" lon="-122.261786337" visible="true"><tag k="addr:housenumber" v="20010" /><tag k="addr:postcode" v="98028" /><tag k="addr:city" v="Kenmore" /><tag k="addr:street" v="61st Court Northeast" /></node>
<node id="-1000123" lat="47.773830818" lon="-122.262792961" visible="true"><tag k="addr:housenumber" v="6106" /><tag k="addr:postcode" v="98028" /><tag k="addr:city" v="Kenmore" /><tag k="addr:street" v="Northeast 200th Street" /></node>
<node id="-1000124" lat="47.773812488" lon="-122.262406427" visible="true"><tag k="addr:housenumber" v="20005" /><tag k="addr:postcode" v="98028" /><tag k="addr:city" v="Kenmore" /><tag k="addr:street" v="61st Court Northeast" /></node>
<node id="-1000125" lat="47.773692327" lon="-122.258087215" visible="true"><tag k="addr:housenumber" v="6249" /><tag k="addr:postcode" v="98028" /><tag k="addr:city" v="Kenmore" /><tag k="addr:street" v="Northeast 202nd Street" /></node>
<node id="-1000126" lat="47.773794935" lon="-122.261780277" visible="true"><tag k="addr:housenumber" v="20004" /><tag k="addr:postcode" v="98028" /><tag k="addr:city" v="Kenmore" /><tag k="addr:street" v="61st Court Northeast" /></node>
<node id="-1000127" lat="47.773804362" lon="-122.260881002" visible="true"><tag k="addr:housenumber" v="20012" /><tag k="addr:postcode" v="98028" /><tag k="addr:city" v="Kenmore" /><tag k="addr:street" v="61st Place Northeast" /></node>
<node id="-1000128" lat="47.773704407" lon="-122.250026244" visible="true"><tag k="addr:housenumber" v="20007" /><tag k="addr:postcode" v="98028" /><tag k="addr:city" v="Kenmore" /><tag k="addr:street" v="68th Avenue Northeast" /></node>
<node id="-1000129" lat="47.773630252" lon="-122.259657868" visible="true"><tag k="addr:housenumber" v="19828" /><tag k="addr:postcode" v="98028" /><tag k="addr:city" v="Kenmore" /><tag k="addr:street" v="62nd Avenue Northeast" /></node>
<node id="-1000130" lat="47.773627376" lon="-122.259136436" visible="true"><tag k="addr:housenumber" v="6229" /><tag k="addr:postcode" v="98028" /><tag k="addr:city" v="Kenmore" /><tag k="addr:street" v="Northeast 202nd Street" /></node>
<node id="-1000131" lat="47.773613657" lon="-122.260873598" visible="true"><tag k="addr:housenumber" v="20004" /><tag k="addr:postcode" v="98028" /><tag k="addr:city" v="Kenmore" /><tag k="addr:street" v="61st Place Northeast" /></node>
<node id="-1000132" lat="47.773457124" lon="-122.260286931" visible="true"><tag k="addr:housenumber" v="19825" /><tag k="addr:postcode" v="98028" /><tag k="addr:city" v="Kenmore" /><tag k="addr:street" v="62nd Avenue Northeast" /></node>
<node id="-1000133" lat="47.773417621" lon="-122.260865986" visible="true"><tag k="addr:housenumber" v="19746" /><tag k="addr:postcode" v="98028" /><tag k="addr:city" v="Kenmore" /><tag k="addr:street" v="61st Place Northeast" /></node>
<node id="-1000134" lat="47.773272978" lon="-122.259707456" visible="true"><tag k="addr:housenumber" v="19820" /><tag k="addr:postcode" v="98028" /><tag k="addr:city" v="Kenmore" /><tag k="addr:street" v="62nd Avenue Northeast" /></node>
<node id="-1000135" lat="47.773047316" lon="-122.259147581" visible="true"><tag k="addr:housenumber" v="6216" /><tag k="addr:postcode" v="98028" /><tag k="addr:city" v="Kenmore" /><tag k="addr:street" v="Northeast 198th Street" /></node>
<node id="-1000136" lat="47.773170728" lon="-122.258799827" visible="true"><tag k="addr:housenumber" v="19815" /><tag k="addr:postcode" v="98028" /><tag k="addr:city" v="Kenmore" /><tag k="addr:street" v="62nd Court Northeast" /></node>
<node id="-1000137" lat="47.773301967" lon="-122.258505939" visible="true"><tag k="addr:housenumber" v="19820" /><tag k="addr:postcode" v="98028" /><tag k="addr:city" v="Kenmore" /><tag k="addr:street" v="62nd Court Northeast" /></node>
<node id="-1000138" lat="47.773087389" lon="-122.258244356" visible="true"><tag k="addr:housenumber" v="19816" /><tag k="addr:postcode" v="98028" /><tag k="addr:city" v="Kenmore" /><tag k="addr:street" v="62nd Court Northeast" /></node>
<node id="-1000139" lat="47.773275299" lon="-122.257527444" visible="true"><tag k="addr:housenumber" v="6308" /><tag k="addr:postcode" v="98028" /><tag k="addr:city" v="Kenmore" /><tag k="addr:street" v="Northeast 198th Street" /></node>
<node id="-1000140" lat="47.773100751" lon="-122.25713295" visible="true"><tag k="addr:housenumber" v="6322" /><tag k="addr:postcode" v="98028" /><tag k="addr:city" v="Kenmore" /><tag k="addr:street" v="Northeast 198th Street" /></node>
<node id="-1000141" lat="47.773267085" lon="-122.256720779" visible="true"><tag k="addr:housenumber" v="19819" /><tag k="addr:postcode" v="98028" /><tag k="addr:city" v="Kenmore" /><tag k="addr:street" v="64th Avenue Northeast" /></node>
<node id="-1000142" lat="47.773282042" lon="-122.256319526" visible="true"><tag k="addr:housenumber" v="19823" /><tag k="addr:postcode" v="98028" /><tag k="addr:city" v="Kenmore" /><tag k="addr:street" v="64th Avenue Northeast" /></node>
<node id="-1000143" lat="47.773231706" lon="-122.255951257" visible="true"><tag k="addr:housenumber" v="19820" /><tag k="addr:postcode" v="98028" /><tag k="addr:city" v="Kenmore" /><tag k="addr:street" v="64th Avenue Northeast" /></node>
<node id="-1000144" lat="47.773028578" lon="-122.25548338" visible="true"><tag k="addr:housenumber" v="6422" /><tag k="addr:postcode" v="98028" /><tag k="addr:city" v="Kenmore" /><tag k="addr:street" v="Northeast 198th Street" /></node>
<node id="-1000145" lat="47.773029305" lon="-122.255079419" visible="true"><tag k="addr:housenumber" v="6424" /><tag k="addr:postcode" v="98028" /><tag k="addr:city" v="Kenmore" /><tag k="addr:street" v="Northeast 198th Street" /></node>
<node id="-1000146" lat="47.772758425" lon="-122.254670945" visible="true"><tag k="addr:housenumber" v="6448" /><tag k="addr:postcode" v="98028" /><tag k="addr:city" v="Kenmore" /><tag k="addr:street" v="Northeast 198th Street" /></node>
<node id="-1000147" lat="47.773024696" lon="-122.254101938" visible="true"><tag k="addr:housenumber" v="6454" /><tag k="addr:postcode" v="98028" /><tag k="addr:city" v="Kenmore" /><tag k="addr:street" v="Northeast 198th Street" /></node>
<node id="-1000148" lat="47.773269706" lon="-122.253861392" visible="true"><tag k="addr:housenumber" v="6458" /><tag k="addr:postcode" v="98028" /><tag k="addr:city" v="Kenmore" /><tag k="addr:street" v="Northeast 198th Street" /></node>
<node id="-1000149" lat="47.773211487" lon="-122.253356305" visible="true"><tag k="addr:housenumber" v="6506" /><tag k="addr:postcode" v="98028" /><tag k="addr:city" v="Kenmore" /><tag k="addr:street" v="Northeast 198th Street" /></node>
<node id="-1000150" lat="47.773177586" lon="-122.260927816" visible="true"><tag k="addr:housenumber" v="19736" /><tag k="addr:postcode" v="98028" /><tag k="addr:city" v="Kenmore" /><tag k="addr:street" v="61st Place Northeast" /></node>
<node id="-1000151" lat="47.77319229" lon="-122.260359241" visible="true"><tag k="addr:housenumber" v="19819" /><tag k="addr:postcode" v="98028" /><tag k="addr:city" v="Kenmore" /><tag k="addr:street" v="62nd Avenue Northeast" /></node>
<node id="-1000152" lat="47.773207746" lon="-122.252746611" visible="true"><tag k="addr:housenumber" v="6508" /><tag k="addr:postcode" v="98028" /><tag k="addr:city" v="Kenmore" /><tag k="addr:street" v="Northeast 198th Street" /></node>
<node id="-1000153" lat="47.773012377" lon="-122.252184674" visible="true"><tag k="addr:housenumber" v="6526" /><tag k="addr:postcode" v="98028" /><tag k="addr:city" v="Kenmore" /><tag k="addr:street" v="Northeast 198th Street" /></node>
<node id="-1000154" lat="47.772920129" lon="-122.251415262" visible="true"><tag k="addr:housenumber" v="6616" /><tag k="addr:postcode" v="98028" /><tag k="addr:city" v="Kenmore" /><tag k="addr:street" v="Northeast 198th Street" /></node>
<node id="-1000155" lat="47.772824365" lon="-122.251023941" visible="true"><tag k="addr:housenumber" v="6626" /><tag k="addr:postcode" v="98028" /><tag k="addr:city" v="Kenmore" /><tag k="addr:street" v="Northeast 198th Street" /></node>
<node id="-1000156" lat="47.772755146" lon="-122.25058571" visible="true"><tag k="addr:housenumber" v="6636" /><tag k="addr:postcode" v="98028" /><tag k="addr:city" v="Kenmore" /><tag k="addr:street" v="Northeast 198th Street" /></node>
<node id="-1000157" lat="47.772829472" lon="-122.250144456" visible="true"><tag k="addr:housenumber" v="6640" /><tag k="addr:postcode" v="98028" /><tag k="addr:city" v="Kenmore" /><tag k="addr:street" v="Northeast 198th Street" /></node>
<node id="-1000158" lat="47.773307258" lon="-122.249831586" visible="true"><tag k="addr:housenumber" v="6712" /><tag k="addr:postcode" v="98028" /><tag k="addr:city" v="Kenmore" /><tag k="addr:street" v="Northeast 198th Street" /></node>
<node id="-1000159" lat="47.77320768" lon="-122.251778264" visible="true"><tag k="addr:housenumber" v="6534" /><tag k="addr:postcode" v="98028" /><tag k="addr:city" v="Kenmore" /><tag k="addr:street" v="Northeast 198th Street" /></node>
<node id="-1000160" lat="47.773074795" lon="-122.256723902" visible="true"><tag k="addr:housenumber" v="19815" /><tag k="addr:postcode" v="98028" /><tag k="addr:city" v="Kenmore" /><tag k="addr:street" v="64th Avenue Northeast" /></node>
<node id="-1000161" lat="47.773016599" lon="-122.255979102" visible="true"><tag k="addr:housenumber" v="19812" /><tag k="addr:postcode" v="98028" /><tag k="addr:city" v="Kenmore" /><tag k="addr:street" v="64th Avenue Northeast" /></node>
<node id="-1000162" lat="47.772756456" lon="-122.25377839" visible="true"><tag k="addr:housenumber" v="6460" /><tag k="addr:postcode" v="98028" /><tag k="addr:city" v="Kenmore" /><tag k="addr:street" v="Northeast 198th Street" /></node>
<node id="-1000163" lat="47.772878613" lon="-122.25796324" visible="true"><tag k="addr:housenumber" v="6246" /><tag k="addr:postcode" v="98028" /><tag k="addr:city" v="Kenmore" /><tag k="addr:street" v="Northeast 198th Street" /></node>
<node id="-1000164" lat="47.772876838" lon="-122.257527628" visible="true"><tag k="addr:housenumber" v="6304" /><tag k="addr:postcode" v="98028" /><tag k="addr:city" v="Kenmore" /><tag k="addr:street" v="Northeast 198th Street" /></node>
<node id="-1000165" lat="47.772807412" lon="-122.254351821" visible="true"><tag k="addr:housenumber" v="6452" /><tag k="addr:postcode" v="98028" /><tag k="addr:city" v="Kenmore" /><tag k="addr:street" v="Northeast 198th Street" /></node>
<node id="-1000166" lat="47.772942897" lon="-122.260362589" visible="true"><tag k="addr:housenumber" v="19811" /><tag k="addr:postcode" v="98028" /><tag k="addr:city" v="Kenmore" /><tag k="addr:street" v="62nd Avenue Northeast" /></node>
<node id="-1000167" lat="47.772990816" lon="-122.24975136" visible="true"><tag k="addr:housenumber" v="6702" /><tag k="addr:postcode" v="98028" /><tag k="addr:city" v="Kenmore" /><tag k="addr:street" v="Northeast 198th Street" /></node>
<node id="-1000168" lat="47.772794428" lon="-122.259474797" visible="true"><tag k="addr:housenumber" v="6206" /><tag k="addr:postcode" v="98028" /><tag k="addr:city" v="Kenmore" /><tag k="addr:street" v="Northeast 198th Street" /></node>
<node id="-1000169" lat="47.772902121" lon="-122.260972379" visible="true"><tag k="addr:housenumber" v="19724" /><tag k="addr:postcode" v="98028" /><tag k="addr:city" v="Kenmore" /><tag k="addr:street" v="61st Place Northeast" /></node>
<node id="-1000170" lat="47.772903113" lon="-122.258720007" visible="true"><tag k="addr:housenumber" v="6226" /><tag k="addr:postcode" v="98028" /><tag k="addr:city" v="Kenmore" /><tag k="addr:street" v="Northeast 198th Street" /></node>
<node id="-1000171" lat="47.772851168" lon="-122.256367233" visible="true"><tag k="addr:housenumber" v="19811" /><tag k="addr:postcode" v="98028" /><tag k="addr:city" v="Kenmore" /><tag k="addr:street" v="64th Avenue Northeast" /></node>
<node id="-1000172" lat="47.772826438" lon="-122.25828584" visible="true"><tag k="addr:housenumber" v="6236" /><tag k="addr:postcode" v="98028" /><tag k="addr:city" v="Kenmore" /><tag k="addr:street" v="Northeast 198th Street" /></node>
<node id="-1000173" lat="47.772985405" lon="-122.251777762" visible="true"><tag k="addr:housenumber" v="6532" /><tag k="addr:postcode" v="98028" /><tag k="addr:city" v="Kenmore" /><tag k="addr:street" v="Northeast 198th Street" /></node>
<node id="-1000174" lat="47.772801924" lon="-122.257164219" visible="true"><tag k="addr:housenumber" v="6318" /><tag k="addr:postcode" v="98028" /><tag k="addr:city" v="Kenmore" /><tag k="addr:street" v="Northeast 198th Street" /></node>
<node id="-1000175" lat="47.772763622" lon="-122.253528892" visible="true"><tag k="addr:housenumber" v="6500" /><tag k="addr:postcode" v="98028" /><tag k="addr:city" v="Kenmore" /><tag k="addr:street" v="Northeast 198th Street" /></node>
<node id="-1000176" lat="47.772817311" lon="-122.253209316" visible="true"><tag k="addr:housenumber" v="6504" /><tag k="addr:postcode" v="98028" /><tag k="addr:city" v="Kenmore" /><tag k="addr:street" v="Northeast 198th Street" /></node>
<node id="-1000177" lat="47.772726289" lon="-122.252919578" visible="true"><tag k="addr:housenumber" v="6510" /><tag k="addr:postcode" v="98028" /><tag k="addr:city" v="Kenmore" /><tag k="addr:street" v="Northeast 198th Street" /></node>
<node id="-1000178" lat="47.772813565" lon="-122.252584556" visible="true"><tag k="addr:housenumber" v="6516" /><tag k="addr:postcode" v="98028" /><tag k="addr:city" v="Kenmore" /><tag k="addr:street" v="Northeast 198th Street" /></node>
<node id="-1000179" lat="47.772744726" lon="-122.255535045" visible="true"><tag k="addr:housenumber" v="6420" /><tag k="addr:postcode" v="98028" /><tag k="addr:city" v="Kenmore" /><tag k="addr:street" v="Northeast 198th Street" /></node>
<node id="-1000180" lat="47.772742308" lon="-122.2550634" visible="true"><tag k="addr:housenumber" v="6426" /><tag k="addr:postcode" v="98028" /><tag k="addr:city" v="Kenmore" /><tag k="addr:street" v="Northeast 198th Street" /></node>
<node id="-1000181" lat="47.772769691" lon="-122.256721326" visible="true"><tag k="addr:housenumber" v="6326" /><tag k="addr:postcode" v="98028" /><tag k="addr:city" v="Kenmore" /><tag k="addr:street" v="Northeast 198th Street" /></node>
<node id="-1000182" lat="47.772767387" lon="-122.255898785" visible="true"><tag k="addr:housenumber" v="19804" /><tag k="addr:postcode" v="98028" /><tag k="addr:city" v="Kenmore" /><tag k="addr:street" v="64th Avenue Northeast" /></node>
<node id="-1000183" lat="47.772688924" lon="-122.260364835" visible="true"><tag k="addr:housenumber" v="19803" /><tag k="addr:postcode" v="98028" /><tag k="addr:city" v="Kenmore" /><tag k="addr:street" v="62nd Avenue Northeast" /></node>
<node id="-1000184" lat="47.772753974" lon="-122.251815708" visible="true"><tag k="addr:housenumber" v="6542" /><tag k="addr:postcode" v="98028" /><tag k="addr:city" v="Kenmore" /><tag k="addr:street" v="Northeast 198th Street" /></node>
<node id="-1000185" lat="47.77252087" lon="-122.261141035" visible="true"><tag k="addr:housenumber" v="19716" /><tag k="addr:postcode" v="98028" /><tag k="addr:city" v="Kenmore" /><tag k="addr:street" v="61st Place Northeast" /></node>
<node id="-1000186" lat="47.7727076" lon="-122.257357701" visible="true"><tag k="addr:housenumber" v="6308" /><tag k="addr:postcode" v="98028" /><tag k="addr:city" v="Kenmore" /><tag k="addr:street" v="Northeast 198th Street" /></node>
<node id="-1000187" lat="47.772445161" lon="-122.260297507" visible="true"><tag k="addr:housenumber" v="19717" /><tag k="addr:postcode" v="98028" /><tag k="addr:city" v="Kenmore" /><tag k="addr:street" v="62nd Avenue Northeast" /></node>
<node id="-1000188" lat="47.772260233" lon="-122.261269368" visible="true"><tag k="addr:housenumber" v="6104" /><tag k="addr:postcode" v="98028" /><tag k="addr:city" v="Kenmore" /><tag k="addr:street" v="Northeast 197th Street" /></node>
<node id="-1000189" lat="47.772206732" lon="-122.260886271" visible="true"><tag k="addr:housenumber" v="6118" /><tag k="addr:postcode" v="98028" /><tag k="addr:city" v="Kenmore" /><tag k="addr:street" v="Northeast 197th Street" /></node>
<node id="-1000190" lat="47.772160559" lon="-122.260401508" visible="true"><tag k="addr:housenumber" v="6130" /><tag k="addr:postcode" v="98028" /><tag k="addr:city" v="Kenmore" /><tag k="addr:street" v="Northeast 197th Street" /></node>
</osm>