<?xml version="1.0"?>
<osm version="0.6" upload="false" generator="uvmogr2osm">
<node id="-1" lat="47.744979094" lon="-122.232853431" visible="true"><tag k="addr:housenumber" v="16024"/><tag k="addr:postcode" v="98028"/><tag k="addr:city" v="Kenmore"/><tag k="addr:street" v="81st Place Northeast"/></node>
<node id="-2" lat="47.746957405" lon="-122.231200389" visible="true"><tag k="addr:housenumber" v="16323"/><tag k="addr:postcode" v="98028"/><tag k="addr:city" v="Kenmore"/><tag k="addr:street" v="Simonds Road Northeast"/></node>
<node id="-3" lat="47.734852343" lon="-122.232399164" visible="true"><tag k="addr:housenumber" v="14706"/><tag k="addr:postcode" v="98028"/><tag k="addr:city" v="Kenmore"/><tag k="addr:street" v="81st Avenue Northeast"/></node>
<node id="-4" lat="47.734920715" lon="-122.230791394" visible="true"><tag k="addr:housenumber" v="8303"/><tag k="addr:postcode" v="98028"/><tag k="addr:city" v="Kenmore"/><tag k="addr:street" v="Northeast 147th Place"/></node>
<node id="-5" lat="47.734916044" lon="-122.230387058" visible="true"><tag k="addr:housenumber" v="8309"/><tag k="addr:postcode" v="98028"/><tag k="addr:city" v="Kenmore"/><tag k="addr:street" v="Northeast 147th Place"/></node>
<node id="-6" lat="47.750323291" lon="-122.233177278" visible="true"><tag k="addr:housenumber" v="8019"/><tag k="addr:postcode" v="98028"/><tag k="addr:city" v="Kenmore"/><tag k="addr:street" v="Northeast 169th Street"/></node>
<node id="-7" lat="47.750187558" lon="-122.233384665" visible="true"><tag k="addr:housenumber" v="8015"/><tag k="addr:postcode" v="98028"/><tag k="addr:city" v="Kenmore"/><tag k="addr:street" v="Northeast 169th Street"/></node>
<node id="-8" lat="47.750016954" lon="-122.23364506" visible="true"><tag k="addr:housenumber" v="8007"/><tag k="addr:postcode" v="98028"/><tag k="addr:city" v="Kenmore"/><tag k="addr:street" v="Northeast 169th Street"/></node>
<node id="-9" lat="47.749809057" lon="-122.233338127" visible="true"><tag k="addr:housenumber" v="16652"/><tag k="addr:postcode" v="98028"/><tag k="addr:city" v="Kenmore"/><tag k="addr:street" v="Simonds Road Northeast"/></node>
<node id="-10" lat="47.747560654" lon="-122.235338852" visible="true"><tag k="addr:housenumber" v="16424"/><tag k="addr:postcode" v="98028"/><tag k="addr:city" v="Kenmore"/><tag k="addr:street" v="81st Place Northeast"/></node>
<node id="-11" lat="47.747647853" lon="-122.234845878" visible="true"><tag k="addr:housenumber" v="8125"/><tag k="addr:postcode" v="98028"/><tag k="addr:city" v="Kenmore"/><tag k="addr:street" v="Northeast 165th Street"/></node>
<node id="-12" lat="47.747643576" lon="-122.234478652" visible="true"><tag k="addr:housenumber" v="8135"/><tag k="addr:postcode" v="98028"/><tag k="addr:city" v="Kenmore"/><tag k="addr:street" v="Northeast 165th Street"/></node>
<node id="-13" lat="47.747286669" lon="-122.234187509" visible="true"><tag k="addr:housenumber" v="8139"/><tag k="addr:postcode" v="98028"/><tag k="addr:city" v="Kenmore"/><tag k="addr:street" v="Northeast 165th Street"/></node>
<node id="-14" lat="47.747577538" lon="-122.234170351" visible="true"><tag k="addr:housenumber" v="8141"/><tag k="addr:postcode" v="98028"/><tag k="addr:city" v="Kenmore"/><tag k="addr:street" v="Northeast 165th Street"/></node>
<node id="-15" lat="47.747653009" lon="-122.233547268" visible="true"><tag k="addr:housenumber" v="8157"/><tag k="addr:postcode" v="98028"/><tag k="addr:city" v="Kenmore"/><tag k="addr:street" v="Northeast 165th Street"/></node>
<node id="-16" lat="47.747232546" lon="-122.233349769" visible="true"><tag k="addr:housenumber" v="8167"/><tag k="addr:postcode" v="98028"/><tag k="addr:city" v="Kenmore"/><tag k="addr:street" v="Northeast 165th Street"/></node>
<node id="-17" lat="47.747420705" lon="-122.233545255" visible="true"><tag k="addr:housenumber" v="8163"/><tag k="addr:postcode" v="98028"/><tag k="addr:city" v="Kenmore"/><tag k="addr:street" v="Northeast 165th Street"/></node>
<node id="-18" lat="47.747350726" lon="-122.235110177" visible="true"><tag k="addr:housenumber" v="16410"/><tag k="addr:postcode" v="98028"/><tag k="addr:city" v="Kenmore"/><tag k="addr:street" v="81st Place Northeast"/></node>
<node id="-19" lat="47.747408357" lon="-122.234547463" visible="true"><tag k="addr:housenumber" v="16404"/><tag k="addr:postcode" v="98028"/><tag k="addr:city" v="Kenmore"/><tag k="addr:street" v="81st Place Northeast"/></node>
<node id="-20" lat="47.746924685" lon="-122.234295388" visible="true"><tag k="addr:housenumber" v="16304"/><tag k="addr:postcode" v="98028"/><tag k="addr:city" v="Kenmore"/><tag k="addr:street" v="81st Place Northeast"/></node>
<node id="-21" lat="47.747119351" lon="-122.235074679" visible="true"><tag k="addr:housenumber" v="16320"/><tag k="addr:postcode" v="98028"/><tag k="addr:city" v="Kenmore"/><tag k="addr:street" v="81st Place Northeast"/></node>
<node id="-22" lat="47.74648083" lon="-122.234503489" visible="true"><tag k="addr:housenumber" v="16226"/><tag k="addr:postcode" v="98028"/><tag k="addr:city" v="Kenmore"/><tag k="addr:street" v="81st Place Northeast"/></node>
<node id="-23" lat="47.746237319" lon="-122.234425692" visible="true"><tag k="addr:housenumber" v="16206"/><tag k="addr:postcode" v="98028"/><tag k="addr:city" v="Kenmore"/><tag k="addr:street" v="81st Place Northeast"/></node>
<node id="-24" lat="47.746231157" lon="-122.233383375" visible="true"><tag k="addr:housenumber" v="8136"/><tag k="addr:postcode" v="98028"/><tag k="addr:city" v="Kenmore"/><tag k="addr:street" v="Northeast 161st Place"/></node>
<node id="-25" lat="47.746022514" lon="-122.233965572" visible="true"><tag k="addr:housenumber" v="16200"/><tag k="addr:postcode" v="98028"/><tag k="addr:city" v="Kenmore"/><tag k="addr:street" v="81st Place Northeast"/></node>
<node id="-26" lat="47.746042781" lon="-122.233252588" visible="true"><tag k="addr:housenumber" v="8134"/><tag k="addr:postcode" v="98028"/><tag k="addr:city" v="Kenmore"/><tag k="addr:street" v="Northeast 161st Place"/></node>
<node id="-27" lat="47.745973193" lon="-122.233441252" visible="true"><tag k="addr:housenumber" v="8128"/><tag k="addr:postcode" v="98028"/><tag k="addr:city" v="Kenmore"/><tag k="addr:street" v="Northeast 161st Place"/></node>
<node id="-28" lat="47.7458965" lon="-122.233665824" visible="true"><tag k="addr:housenumber" v="8122"/><tag k="addr:postcode" v="98028"/><tag k="addr:city" v="Kenmore"/><tag k="addr:street" v="Northeast 161st Place"/></node>
<node id="-29" lat="47.745820622" lon="-122.233884381" visible="true"><tag k="addr:housenumber" v="8116"/><tag k="addr:postcode" v="98028"/><tag k="addr:city" v="Kenmore"/><tag k="addr:street" v="Northeast 161st Place"/></node>
<node id="-30" lat="47.745749033" lon="-122.234120859" visible="true"><tag k="addr:housenumber" v="8110"/><tag k="addr:postcode" v="98028"/><tag k="addr:city" v="Kenmore"/><tag k="addr:street" v="Northeast 161st Place"/></node>
<node id="-31" lat="47.745635149" lon="-122.233223807" visible="true"><tag k="addr:housenumber" v="8129"/><tag k="addr:postcode" v="98028"/><tag k="addr:city" v="Kenmore"/><tag k="addr:street" v="Northeast 161st Place"/></node>
<node id="-32" lat="47.745568646" lon="-122.233448205" visible="true"><tag k="addr:housenumber" v="8121"/><tag k="addr:postcode" v="98028"/><tag k="addr:city" v="Kenmore"/><tag k="addr:street" v="Northeast 161st Place"/></node>
<node id="-33" lat="47.745492639" lon="-122.233667205" visible="true"><tag k="addr:housenumber" v="8115"/><tag k="addr:postcode" v="98028"/><tag k="addr:city" v="Kenmore"/><tag k="addr:street" v="Northeast 161st Place"/></node>
<node id="-34" lat="47.745450106" lon="-122.233127775" visible="true"><tag k="addr:housenumber" v="16103"/><tag k="addr:postcode" v="98028"/><tag k="addr:city" v="Kenmore"/><tag k="addr:street" v="82nd Place Northeast"/></node>
<node id="-35" lat="47.745415462" lon="-122.233873122" visible="true"><tag k="addr:housenumber" v="8109"/><tag k="addr:postcode" v="98028"/><tag k="addr:city" v="Kenmore"/><tag k="addr:street" v="Northeast 161st Place"/></node>
<node id="-36" lat="47.745273312" lon="-122.23364712" visible="true"><tag k="addr:housenumber" v="16104"/><tag k="addr:postcode" v="98028"/><tag k="addr:city" v="Kenmore"/><tag k="addr:street" v="81st Place Northeast"/></node>
<node id="-37" lat="47.745047215" lon="-122.233536937" visible="true"><tag k="addr:housenumber" v="16032"/><tag k="addr:postcode" v="98028"/><tag k="addr:city" v="Kenmore"/><tag k="addr:street" v="81st Place Northeast"/></node>
<node id="-38" lat="47.744823359" lon="-122.233303257" visible="true"><tag k="addr:housenumber" v="16022"/><tag k="addr:postcode" v="98028"/><tag k="addr:city" v="Kenmore"/><tag k="addr:street" v="81st Place Northeast"/></node>
<node id="-39" lat="47.744695727" lon="-122.232824765" visible="true"><tag k="addr:housenumber" v="16004"/><tag k="addr:postcode" v="98028"/><tag k="addr:city" v="Kenmore"/><tag k="addr:street" v="81st Place Northeast"/></node>
<node id="-40" lat="47.73633511" lon="-122.232614281" visible="true"><tag k="addr:housenumber" v="8108"/><tag k="addr:postcode" v="98028"/><tag k="addr:city" v="Kenmore"/><tag k="addr:street" v="Northeast 149th Street"/></node>
<node id="-41" lat="47.736328408" lon="-122.232282947" visible="true"><tag k="addr:housenumber" v="14904"/><tag k="addr:postcode" v="98028"/><tag k="addr:city" v="Bothell"/><tag k="addr:street" v="81st Avenue Northeast"/></node>
<node id="-42" lat="47.736325032" lon="-122.231899834" visible="true"><tag k="addr:housenumber" v="8128"/><tag k="addr:postcode" v="98028"/><tag k="addr:city" v="Bothell"/><tag k="addr:street" v="Northeast 149th Street"/></node>
<node id="-43" lat="47.73636607" lon="-122.231186764" visible="true"><tag k="addr:housenumber" v="8145"/><tag k="addr:postcode" v="98028"/><tag k="addr:city" v="Kenmore"/><tag k="addr:street" v="Northeast 149th Street"/></node>
<node id="-44" lat="47.736242449" lon="-122.231171466" visible="true"><tag k="addr:housenumber" v="8143"/><tag k="addr:postcode" v="98028"/><tag k="addr:city" v="Kenmore"/><tag k="addr:street" v="Northeast 149th Street"/></node>
<node id="-45" lat="47.736105179" lon="-122.231171759" visible="true"><tag k="addr:housenumber" v="8141"/><tag k="addr:postcode" v="98028"/><tag k="addr:city" v="Kenmore"/><tag k="addr:street" v="Northeast 149th Street"/></node>
<node id="-46" lat="47.735954456" lon="-122.23117169" visible="true"><tag k="addr:housenumber" v="8139"/><tag k="addr:postcode" v="98028"/><tag k="addr:city" v="Kenmore"/><tag k="addr:street" v="Northeast 149th Street"/></node>
<node id="-47" lat="47.735987725" lon="-122.231531666" visible="true"><tag k="addr:housenumber" v="8133"/><tag k="addr:postcode" v="98028"/><tag k="addr:city" v="Kenmore"/><tag k="addr:street" v="Northeast 149th Street"/></node>
<node id="-48" lat="47.735990612" lon="-122.231735223" visible="true"><tag k="addr:housenumber" v="8129"/><tag k="addr:postcode" v="98028"/><tag k="addr:city" v="Kenmore"/><tag k="addr:street" v="Northeast 149th Street"/></node>
<node id="-49" lat="47.735990907" lon="-122.23193073" visible="true"><tag k="addr:housenumber" v="8125"/><tag k="addr:postcode" v="98028"/><tag k="addr:city" v="Kenmore"/><tag k="addr:street" v="Northeast 149th Street"/></node>
<node id="-50" lat="47.735993794" lon="-122.232134287" visible="true"><tag k="addr:housenumber" v="8119"/><tag k="addr:postcode" v="98028"/><tag k="addr:city" v="Kenmore"/><tag k="addr:street" v="Northeast 149th Street"/></node>
<node id="-51" lat="47.735999469" lon="-122.232329939" visible="true"><tag k="addr:housenumber" v="8113"/><tag k="addr:postcode" v="98028"/><tag k="addr:city" v="Kenmore"/><tag k="addr:street" v="Northeast 149th Street"/></node>
<node id="-52" lat="47.736002208" lon="-122.232545461" visible="true"><tag k="addr:housenumber" v="8111"/><tag k="addr:postcode" v="98028"/><tag k="addr:city" v="Kenmore"/><tag k="addr:street" v="Northeast 149th Street"/></node>
<node id="-53" lat="47.735811805" lon="-122.231171838" visible="true"><tag k="addr:housenumber" v="8137"/><tag k="addr:postcode" v="98028"/><tag k="addr:city" v="Kenmore"/><tag k="addr:street" v="Northeast 149th Street"/></node>
<node id="-54" lat="47.735676785" lon="-122.2312081" visible="true"><tag k="addr:housenumber" v="8135"/><tag k="addr:postcode" v="98028"/><tag k="addr:city" v="Kenmore"/><tag k="addr:street" v="Northeast 149th Street"/></node>
<node id="-55" lat="47.736546641" lon="-122.23248433" visible="true"><tag k="addr:housenumber" v="14916"/><tag k="addr:postcode" v="98028"/><tag k="addr:city" v="Kenmore"/><tag k="addr:street" v="81st Avenue Northeast"/></node>
<node id="-56" lat="47.736770157" lon="-122.232474395" visible="true"><tag k="addr:housenumber" v="8105"/><tag k="addr:postcode" v="98028"/><tag k="addr:city" v="Kenmore"/><tag k="addr:street" v="Northeast 150th Street"/></node>
<node id="-57" lat="47.736765803" lon="-122.23217105" visible="true"><tag k="addr:housenumber" v="8107"/><tag k="addr:postcode" v="98028"/><tag k="addr:city" v="Kenmore"/><tag k="addr:street" v="Northeast 150th Street"/></node>
<node id="-58" lat="47.736542482" lon="-122.232165032" visible="true"><tag k="addr:housenumber" v="8111"/><tag k="addr:postcode" v="98028"/><tag k="addr:city" v="Kenmore"/><tag k="addr:street" v="Northeast 150th Street"/></node>
<node id="-59" lat="47.736536122" lon="-122.231805776" visible="true"><tag k="addr:housenumber" v="8115"/><tag k="addr:postcode" v="98028"/><tag k="addr:city" v="Kenmore"/><tag k="addr:street" v="Northeast 150th Street"/></node>
<node id="-60" lat="47.736765068" lon="-122.231791995" visible="true"><tag k="addr:housenumber" v="8119"/><tag k="addr:postcode" v="98028"/><tag k="addr:city" v="Kenmore"/><tag k="addr:street" v="Northeast 150th Street"/></node>
<node id="-61" lat="47.736760761" lon="-122.231484661" visible="true"><tag k="addr:housenumber" v="8123"/><tag k="addr:postcode" v="98028"/><tag k="addr:city" v="Kenmore"/><tag k="addr:street" v="Northeast 150th Street"/></node>
<node id="-62" lat="47.736534847" lon="-122.231470597" visible="true"><tag k="addr:housenumber" v="8127"/><tag k="addr:postcode" v="98028"/><tag k="addr:city" v="Kenmore"/><tag k="addr:street" v="Northeast 150th Street"/></node>
<node id="-63" lat="47.736531077" lon="-122.231119391" visible="true"><tag k="addr:housenumber" v="8131"/><tag k="addr:postcode" v="98028"/><tag k="addr:city" v="Kenmore"/><tag k="addr:street" v="Northeast 150th Street"/></node>
<node id="-64" lat="47.73675474" lon="-122.231097485" visible="true"><tag k="addr:housenumber" v="8135"/><tag k="addr:postcode" v="98028"/><tag k="addr:city" v="Bothell"/><tag k="addr:street" v="150th Street"/></node>
<node id="-65" lat="47.748506331" lon="-122.230482887" visible="true"><tag k="addr:housenumber" v="16524"/><tag k="addr:postcode" v="98028"/><tag k="addr:city" v="Kenmore"/><tag k="addr:street" v="82nd Place Northeast"/></node>
<node id="-66" lat="47.748384281" lon="-122.230488424" visible="true"><tag k="addr:housenumber" v="16520"/><tag k="addr:postcode" v="98028"/><tag k="addr:city" v="Kenmore"/><tag k="addr:street" v="82nd Place Northeast"/></node>
<node id="-67" lat="47.748233191" lon="-122.230435831" visible="true"><tag k="addr:housenumber" v="16516"/><tag k="addr:postcode" v="98028"/><tag k="addr:city" v="Kenmore"/><tag k="addr:street" v="82nd Place Northeast"/></node>
<node id="-68" lat="47.748075936" lon="-122.230400719" visible="true"><tag k="addr:housenumber" v="16512"/><tag k="addr:postcode" v="98028"/><tag k="addr:city" v="Kenmore"/><tag k="addr:street" v="82nd Place Northeast"/></node>
<node id="-69" lat="47.747922794" lon="-122.230515701" visible="true"><tag k="addr:housenumber" v="16509"/><tag k="addr:postcode" v="98028"/><tag k="addr:city" v="Kenmore"/><tag k="addr:street" v="82nd Place Northeast"/></node>
<node id="-70" lat="47.747926042" lon="-122.230736355" visible="true"><tag k="addr:housenumber" v="16505"/><tag k="addr:postcode" v="98028"/><tag k="addr:city" v="Kenmore"/><tag k="addr:street" v="82nd Place Northeast"/></node>
<node id="-71" lat="47.747925397" lon="-122.231031896" visible="true"><tag k="addr:housenumber" v="16504"/><tag k="addr:postcode" v="98028"/><tag k="addr:city" v="Kenmore"/><tag k="addr:street" v="Simonds Road Northeast"/></node>
<node id="-72" lat="47.747000618" lon="-122.229021929" visible="true"><tag k="addr:housenumber" v="8321"/><tag k="addr:postcode" v="98028"/><tag k="addr:city" v="Kenmore"/><tag k="addr:street" v="Northeast 163rd Place"/></node>
<node id="-73" lat="47.747003564" lon="-122.229170226" visible="true"><tag k="addr:housenumber" v="8315"/><tag k="addr:postcode" v="98028"/><tag k="addr:city" v="Kenmore"/><tag k="addr:street" v="Northeast 163rd Place"/></node>
<node id="-74" lat="47.747004173" lon="-122.229314931" visible="true"><tag k="addr:housenumber" v="8313"/><tag k="addr:postcode" v="98028"/><tag k="addr:city" v="Kenmore"/><tag k="addr:street" v="Northeast 163rd Place"/></node>
<node id="-75" lat="47.746998363" lon="-122.228865711" visible="true"><tag k="addr:housenumber" v="8323"/><tag k="addr:postcode" v="98028"/><tag k="addr:city" v="Kenmore"/><tag k="addr:street" v="Northeast 163rd Place"/></node>
</osm>