<?xml version="1.0"?>
<osm version="0.6" upload="false" generator="uvmogr2osm">
<node id="-1" lat="47.789791555" lon="-122.28025406" visible="true"><tag k="addr:housenumber" v="23000"/><tag k="addr:postcode" v="98036"/><tag k="addr:city" v="Brier"/><tag k="addr:street" v="35th Avenue West"/></node>
<node id="-2" lat="47.778565718" lon="-122.272848477" visible="true"><tag k="addr:housenumber" v="24224"/><tag k="addr:postcode" v="98036"/><tag k="addr:city" v="Brier"/><tag k="addr:street" v="Brier Road"/></node>
<node id="-3" lat="47.777584155" lon="-122.27848677" visible="true"><tag k="addr:housenumber" v="24210"/><tag k="addr:postcode" v="98036"/><tag k="addr:city" v="Brier"/><tag k="addr:street" v="34th Avenue West"/></node>
<node id="-4" lat="47.777803362" lon="-122.275679902" visible="true"><tag k="addr:housenumber" v="3169"/><tag k="addr:postcode" v="98036"/><tag k="addr:city" v="Brier"/><tag k="addr:street" v="243rd Street Southwest"/></node>
<node id="-5" lat="47.777783094" lon="-122.274842377" visible="true"><tag k="addr:housenumber" v="3129"/><tag k="addr:postcode" v="98036"/><tag k="addr:city" v="Brier"/><tag k="addr:street" v="243rd Street Southwest"/></node>
<node id="-6" lat="47.778168463" lon="-122.273148644" visible="true"><tag k="addr:housenumber" v="24174"/><tag k="addr:postcode" v="98036"/><tag k="addr:city" v="Brier"/><tag k="addr:street" v="Brier Road"/></node>
<node id="-7" lat="47.777822851" lon="-122.275276708" visible="true"><tag k="addr:housenumber" v="3149"/><tag k="addr:postcode" v="98036"/><tag k="addr:city" v="Brier"/><tag k="addr:street" v="243rd Street Southwest"/></node>
<node id="-8" lat="47.777773594" lon="-122.272552929" visible="true"><tag k="addr:housenumber" v="2937"/><tag k="addr:postcode" v="98036"/><tag k="addr:city" v="Brier"/><tag k="addr:street" v="243rd Place Southwest"/></node>
<node id="-9" lat="47.778375951" lon="-122.275175133" visible="true"><tag k="addr:housenumber" v="24258"/><tag k="addr:postcode" v="98036"/><tag k="addr:city" v="Brier"/><tag k="addr:street" v="31st Avenue West"/></node>
<node id="-10" lat="47.779004168" lon="-122.279053084" visible="true"><tag k="addr:housenumber" v="24200"/><tag k="addr:postcode" v="98036"/><tag k="addr:city" v="Brier"/><tag k="addr:street" v="34th Avenue West"/></node>
<node id="-11" lat="47.778652715" lon="-122.2779541" visible="true"><tag k="addr:housenumber" v="24228"/><tag k="addr:postcode" v="98036"/><tag k="addr:city" v="Brier"/><tag k="addr:street" v="33rd Court West"/></node>
<node id="-12" lat="47.778347091" lon="-122.277891688" visible="true"><tag k="addr:housenumber" v="24258"/><tag k="addr:postcode" v="98036"/><tag k="addr:city" v="Brier"/><tag k="addr:street" v="33rd Court West"/></node>
<node id="-13" lat="47.778475896" lon="-122.280040312" visible="true"><tag k="addr:housenumber" v="3406"/><tag k="addr:postcode" v="98036"/><tag k="addr:city" v="Brier"/><tag k="addr:street" v="Alaska Road"/></node>
<node id="-14" lat="47.778707484" lon="-122.275519954" visible="true"><tag k="addr:housenumber" v="3124"/><tag k="addr:postcode" v="98036"/><tag k="addr:city" v="Brier"/><tag k="addr:street" v="Alaska Road"/></node>
<node id="-15" lat="47.777359969" lon="-122.277188937" visible="true"><tag k="addr:housenumber" v="24395"/><tag k="addr:postcode" v="98036"/><tag k="addr:city" v="Brier"/><tag k="addr:street" v="33rd Court West"/></node>
<node id="-16" lat="47.779078567" lon="-122.279944006" visible="true"><tag k="addr:housenumber" v="3500"/><tag k="addr:postcode" v="98036"/><tag k="addr:city" v="Brier"/><tag k="addr:street" v="Alaska Road"/></node>
<node id="-17" lat="47.778036646" lon="-122.274685693" visible="true"><tag k="addr:housenumber" v="24328"/><tag k="addr:postcode" v="98036"/><tag k="addr:city" v="Brier"/><tag k="addr:street" v="31st Avenue West"/></node>
<node id="-18" lat="47.77871958" lon="-122.275159261" visible="true"><tag k="addr:housenumber" v="3112"/><tag k="addr:postcode" v="98036"/><tag k="addr:city" v="Brier"/><tag k="addr:street" v="Alaska Road"/></node>
<node id="-19" lat="47.778153918" lon="-122.275169978" visible="true"><tag k="addr:housenumber" v="24300"/><tag k="addr:postcode" v="98036"/><tag k="addr:city" v="Brier"/><tag k="addr:street" v="31st Avenue West"/></node>
<node id="-20" lat="47.779358646" lon="-122.279046693" visible="true"><tag k="addr:housenumber" v="24186"/><tag k="addr:postcode" v="98036"/><tag k="addr:city" v="Brier"/><tag k="addr:street" v="34th Avenue West"/></node>
<node id="-21" lat="47.778613835" lon="-122.273164059" visible="true"><tag k="addr:housenumber" v="24154"/><tag k="addr:postcode" v="98036"/><tag k="addr:city" v="Brier"/><tag k="addr:street" v="Brier Road"/></node>
<node id="-22" lat="47.779167554" lon="-122.27838439" visible="true"><tag k="addr:housenumber" v="24189"/><tag k="addr:postcode" v="98036"/><tag k="addr:city" v="Brier"/><tag k="addr:street" v="34th Avenue West"/></node>
<node id="-23" lat="47.777343218" lon="-122.277646101" visible="true"><tag k="addr:housenumber" v="24390"/><tag k="addr:postcode" v="98036"/><tag k="addr:city" v="Brier"/><tag k="addr:street" v="33rd Court West"/></node>
<node id="-24" lat="47.777699288" lon="-122.276502046" visible="true"><tag k="addr:housenumber" v="24358"/><tag k="addr:postcode" v="98036"/><tag k="addr:city" v="Brier"/><tag k="addr:street" v="32nd Avenue West"/></node>
</osm>