<?xml version="1.0"?>
<osm version="0.6" upload="false" generator="uvmogr2osm">
<node id="-1" lat="47.837844695" lon="-122.256241392" visible="true"><tag k="addr:housenumber" v="17708"/><tag k="addr:postcode" v="98037"/><tag k="addr:city" v="Lynnwood"/><tag k="addr:street" v="16th Place West"/></node>
<node id="-2" lat="47.836394824" lon="-122.257158933" visible="true"><tag k="addr:housenumber" v="1723"/><tag k="addr:postcode" v="98037"/><tag k="addr:city" v="Lynnwood"/><tag k="addr:street" v="Maple Road"/></node>
<node id="-3" lat="47.838695505" lon="-122.253971877" visible="true"><tag k="addr:housenumber" v="17609"/><tag k="addr:postcode" v="98037"/><tag k="addr:city" v="Lynnwood"/><tag k="addr:street" v="15th Place West"/></node>
<node id="-4" lat="47.838546424" lon="-122.25614765" visible="true"><tag k="addr:housenumber" v="17622"/><tag k="addr:postcode" v="98037"/><tag k="addr:city" v="Lynnwood"/><tag k="addr:street" v="16th Place West"/></node>
<node id="-5" lat="47.838573715" lon="-122.255386822" visible="true"><tag k="addr:housenumber" v="17619"/><tag k="addr:postcode" v="98037"/><tag k="addr:city" v="Lynnwood"/><tag k="addr:street" v="16th Place West"/></node>
<node id="-6" lat="47.838926892" lon="-122.246587417" visible="true"><tag k="addr:housenumber" v="17530"/><tag k="addr:postcode" v="98037"/><tag k="addr:city" v="Lynnwood"/><tag k="addr:street" v="Larch Way"/></node>
<node id="-7" lat="47.837922544" lon="-122.247428489" visible="true"><tag k="addr:housenumber" v="17725"/><tag k="addr:postcode" v="98037"/><tag k="addr:city" v="Lynnwood"/><tag k="addr:street" v="11th Place West"/></node>
<node id="-8" lat="47.837732504" lon="-122.247441628" visible="true"><tag k="addr:housenumber" v="17727"/><tag k="addr:postcode" v="98037"/><tag k="addr:city" v="Lynnwood"/><tag k="addr:street" v="11th Place West"/></node>
<node id="-9" lat="47.839041655" lon="-122.249978642" visible="true"><tag k="addr:housenumber" v="1215"/><tag k="addr:postcode" v="98037"/><tag k="addr:city" v="Lynnwood"/><tag k="addr:street" v="175th Place Southwest"/></node>
<node id="-10" lat="47.838995801" lon="-122.251441458" visible="true"><tag k="addr:housenumber" v="1324"/><tag k="addr:postcode" v="98037"/><tag k="addr:city" v="Lynnwood"/><tag k="addr:street" v="175th Place Southwest"/></node>
<node id="-11" lat="47.838944676" lon="-122.250410405" visible="true"><tag k="addr:housenumber" v="1218"/><tag k="addr:postcode" v="98037"/><tag k="addr:city" v="Lynnwood"/><tag k="addr:street" v="175th Place Southwest"/></node>
<node id="-12" lat="47.839068676" lon="-122.249807991" visible="true"><tag k="addr:housenumber" v="1209"/><tag k="addr:postcode" v="98037"/><tag k="addr:city" v="Lynnwood"/><tag k="addr:street" v="175th Place Southwest"/></node>
<node id="-13" lat="47.838980751" lon="-122.250831168" visible="true"><tag k="addr:housenumber" v="1304"/><tag k="addr:postcode" v="98037"/><tag k="addr:city" v="Lynnwood"/><tag k="addr:street" v="175th Place Southwest"/></node>
<node id="-14" lat="47.838966544" lon="-122.250581714" visible="true"><tag k="addr:housenumber" v="1228"/><tag k="addr:postcode" v="98037"/><tag k="addr:city" v="Lynnwood"/><tag k="addr:street" v="175th Place Southwest"/></node>
<node id="-15" lat="47.839071198" lon="-122.249604428" visible="true"><tag k="addr:housenumber" v="1205"/><tag k="addr:postcode" v="98037"/><tag k="addr:city" v="Lynnwood"/><tag k="addr:street" v="175th Place Southwest"/></node>
<node id="-16" lat="47.838990789" lon="-122.251237689" visible="true"><tag k="addr:housenumber" v="1316"/><tag k="addr:postcode" v="98037"/><tag k="addr:city" v="Lynnwood"/><tag k="addr:street" v="175th Place Southwest"/></node>
<node id="-17" lat="47.838985764" lon="-122.251034938" visible="true"><tag k="addr:housenumber" v="1310"/><tag k="addr:postcode" v="98037"/><tag k="addr:city" v="Lynnwood"/><tag k="addr:street" v="175th Place Southwest"/></node>
<node id="-18" lat="47.837679113" lon="-122.250626587" visible="true"><tag k="addr:housenumber" v="17713"/><tag k="addr:postcode" v="98037"/><tag k="addr:city" v="Lynnwood"/><tag k="addr:street" v="13th Avenue West"/></node>
<node id="-19" lat="47.839041404" lon="-122.253699332" visible="true"><tag k="addr:housenumber" v="17531"/><tag k="addr:postcode" v="98037"/><tag k="addr:city" v="Lynnwood"/><tag k="addr:street" v="15th Place West"/></node>
<node id="-20" lat="47.837993611" lon="-122.254391448" visible="true"><tag k="addr:housenumber" v="17630"/><tag k="addr:postcode" v="98037"/><tag k="addr:city" v="Lynnwood"/><tag k="addr:street" v="15th Place West"/></node>
<node id="-21" lat="47.83835453" lon="-122.254068753" visible="true"><tag k="addr:housenumber" v="17623"/><tag k="addr:postcode" v="98037"/><tag k="addr:city" v="Lynnwood"/><tag k="addr:street" v="15th Place West"/></node>
<node id="-22" lat="47.838044617" lon="-122.253946222" visible="true"><tag k="addr:housenumber" v="17703"/><tag k="addr:postcode" v="98037"/><tag k="addr:city" v="Lynnwood"/><tag k="addr:street" v="15th Place West"/></node>
<node id="-23" lat="47.83898423" lon="-122.254438645" visible="true"><tag k="addr:housenumber" v="17530"/><tag k="addr:postcode" v="98037"/><tag k="addr:city" v="Lynnwood"/><tag k="addr:street" v="15th Place West"/></node>
<node id="-24" lat="47.838733692" lon="-122.254686311" visible="true"><tag k="addr:housenumber" v="17608"/><tag k="addr:postcode" v="98037"/><tag k="addr:city" v="Lynnwood"/><tag k="addr:street" v="15th Place West"/></node>
<node id="-25" lat="47.8391676" lon="-122.254171825" visible="true"><tag k="addr:housenumber" v="17524"/><tag k="addr:postcode" v="98037"/><tag k="addr:city" v="Lynnwood"/><tag k="addr:street" v="15th Place West"/></node>
<node id="-26" lat="47.837434613" lon="-122.254494727" visible="true"><tag k="addr:housenumber" v="1517"/><tag k="addr:postcode" v="98037"/><tag k="addr:city" v="Lynnwood"/><tag k="addr:street" v="Maple Road"/></node>
<node id="-27" lat="47.837465056" lon="-122.255338517" visible="true"><tag k="addr:housenumber" v="17721"/><tag k="addr:postcode" v="98037"/><tag k="addr:city" v="Lynnwood"/><tag k="addr:street" v="16th Place West"/></node>
<node id="-28" lat="47.838376468" lon="-122.25458318" visible="true"><tag k="addr:housenumber" v="17620"/><tag k="addr:postcode" v="98037"/><tag k="addr:city" v="Lynnwood"/><tag k="addr:street" v="15th Place West"/></node>
<node id="-29" lat="47.837335034" lon="-122.247432815" visible="true"><tag k="addr:housenumber" v="17731"/><tag k="addr:postcode" v="98037"/><tag k="addr:city" v="Lynnwood"/><tag k="addr:street" v="11th Place West"/></node>
<node id="-30" lat="47.83751561" lon="-122.248129054" visible="true"><tag k="addr:housenumber" v="17720"/><tag k="addr:postcode" v="98037"/><tag k="addr:city" v="Lynnwood"/><tag k="addr:street" v="11th Place West"/></node>
<node id="-31" lat="47.837540621" lon="-122.247437409" visible="true"><tag k="addr:housenumber" v="17729"/><tag k="addr:postcode" v="98037"/><tag k="addr:city" v="Lynnwood"/><tag k="addr:street" v="11th Place West"/></node>
<node id="-32" lat="47.83733571" lon="-122.248153667" visible="true"><tag k="addr:housenumber" v="17732"/><tag k="addr:postcode" v="98037"/><tag k="addr:city" v="Lynnwood"/><tag k="addr:street" v="11th Place West"/></node>
<node id="-33" lat="47.837406935" lon="-122.248712528" visible="true"><tag k="addr:housenumber" v="17702"/><tag k="addr:postcode" v="98037"/><tag k="addr:city" v="Lynnwood"/><tag k="addr:street" v="11th Place West"/></node>
<node id="-34" lat="47.839143179" lon="-122.249438059" visible="true"><tag k="addr:housenumber" v="1201"/><tag k="addr:postcode" v="98037"/><tag k="addr:city" v="Lynnwood"/><tag k="addr:street" v="175th Place Southwest"/></node>
<node id="-35" lat="47.83739533" lon="-122.248487205" visible="true"><tag k="addr:housenumber" v="17708"/><tag k="addr:postcode" v="98037"/><tag k="addr:city" v="Lynnwood"/><tag k="addr:street" v="11th Place West"/></node>
<node id="-36" lat="47.837896497" lon="-122.248265253" visible="true"><tag k="addr:housenumber" v="17719"/><tag k="addr:postcode" v="98037"/><tag k="addr:city" v="Lynnwood"/><tag k="addr:street" v="11th Place West"/></node>
<node id="-37" lat="47.837888459" lon="-122.24800405" visible="true"><tag k="addr:housenumber" v="17721"/><tag k="addr:postcode" v="98037"/><tag k="addr:city" v="Lynnwood"/><tag k="addr:street" v="11th Place West"/></node>
<node id="-38" lat="47.837890757" lon="-122.248507412" visible="true"><tag k="addr:housenumber" v="17713"/><tag k="addr:postcode" v="98037"/><tag k="addr:city" v="Lynnwood"/><tag k="addr:street" v="11th Place West"/></node>
<node id="-39" lat="47.837811056" lon="-122.248577748" visible="true"><tag k="addr:housenumber" v="17707"/><tag k="addr:postcode" v="98037"/><tag k="addr:city" v="Lynnwood"/><tag k="addr:street" v="11th Place West"/></node>
<node id="-40" lat="47.83890119" lon="-122.249844816" visible="true"><tag k="addr:housenumber" v="1208"/><tag k="addr:postcode" v="98037"/><tag k="addr:city" v="Lynnwood"/><tag k="addr:street" v="175th Place Southwest"/></node>
<node id="-41" lat="47.838904424" lon="-122.249639238" visible="true"><tag k="addr:housenumber" v="1204"/><tag k="addr:postcode" v="98037"/><tag k="addr:city" v="Lynnwood"/><tag k="addr:street" v="175th Place Southwest"/></node>
<node id="-42" lat="47.837693471" lon="-122.248576686" visible="true"><tag k="addr:housenumber" v="17701"/><tag k="addr:postcode" v="98037"/><tag k="addr:city" v="Lynnwood"/><tag k="addr:street" v="11th Place West"/></node>
<node id="-43" lat="47.838906378" lon="-122.249481476" visible="true"><tag k="addr:housenumber" v="1202"/><tag k="addr:postcode" v="98037"/><tag k="addr:city" v="Lynnwood"/><tag k="addr:street" v="175th Place Southwest"/></node>
<node id="-44" lat="47.837094485" lon="-122.258056349" visible="true"><tag k="addr:housenumber" v="17725"/><tag k="addr:postcode" v="98037"/><tag k="addr:city" v="Lynnwood"/><tag k="addr:street" v="17th Avenue West"/></node>
<node id="-45" lat="47.838472384" lon="-122.250207432" visible="true"><tag k="addr:housenumber" v="17612"/><tag k="addr:postcode" v="98037"/><tag k="addr:city" v="Lynnwood"/><tag k="addr:street" v="12th Place West"/></node>
<node id="-46" lat="47.83832927" lon="-122.249107314" visible="true"><tag k="addr:housenumber" v="17613"/><tag k="addr:postcode" v="98037"/><tag k="addr:city" v="Lynnwood"/><tag k="addr:street" v="12th Avenue West"/></node>
<node id="-47" lat="47.838609446" lon="-122.250210162" visible="true"><tag k="addr:housenumber" v="17606"/><tag k="addr:postcode" v="98037"/><tag k="addr:city" v="Lynnwood"/><tag k="addr:street" v="12th Place West"/></node>
<node id="-48" lat="47.838745798" lon="-122.250214909" visible="true"><tag k="addr:housenumber" v="17602"/><tag k="addr:postcode" v="98037"/><tag k="addr:city" v="Lynnwood"/><tag k="addr:street" v="12th Place West"/></node>
<node id="-49" lat="47.837508354" lon="-122.249108636" visible="true"><tag k="addr:housenumber" v="17725"/><tag k="addr:postcode" v="98037"/><tag k="addr:city" v="Lynnwood"/><tag k="addr:street" v="12th Avenue West"/></node>
<node id="-50" lat="47.838554821" lon="-122.257045211" visible="true"><tag k="addr:housenumber" v="17623"/><tag k="addr:postcode" v="98037"/><tag k="addr:city" v="Lynnwood"/><tag k="addr:street" v="17th Avenue West"/></node>
<node id="-51" lat="47.837367144" lon="-122.249465308" visible="true"><tag k="addr:housenumber" v="17728"/><tag k="addr:postcode" v="98037"/><tag k="addr:city" v="Lynnwood"/><tag k="addr:street" v="12th Avenue West"/></node>
<node id="-52" lat="47.837561358" lon="-122.249582496" visible="true"><tag k="addr:housenumber" v="17724"/><tag k="addr:postcode" v="98037"/><tag k="addr:city" v="Lynnwood"/><tag k="addr:street" v="12th Place West"/></node>
<node id="-53" lat="47.837354898" lon="-122.256478624" visible="true"><tag k="addr:housenumber" v="17716"/><tag k="addr:postcode" v="98037"/><tag k="addr:city" v="Lynnwood"/><tag k="addr:street" v="16th Place West"/></node>
<node id="-54" lat="47.836920097" lon="-122.257583444" visible="true"><tag k="addr:housenumber" v="17731"/><tag k="addr:postcode" v="98037"/><tag k="addr:city" v="Lynnwood"/><tag k="addr:street" v="17th Avenue West"/></node>
<node id="-55" lat="47.837570333" lon="-122.249798586" visible="true"><tag k="addr:housenumber" v="17720"/><tag k="addr:postcode" v="98037"/><tag k="addr:city" v="Lynnwood"/><tag k="addr:street" v="12th Place West"/></node>
<node id="-56" lat="47.83818363" lon="-122.249870674" visible="true"><tag k="addr:housenumber" v="17625"/><tag k="addr:postcode" v="98037"/><tag k="addr:city" v="Lynnwood"/><tag k="addr:street" v="12th Place West"/></node>
<node id="-57" lat="47.83805512" lon="-122.249103894" visible="true"><tag k="addr:housenumber" v="17631"/><tag k="addr:postcode" v="98037"/><tag k="addr:city" v="Lynnwood"/><tag k="addr:street" v="12th Avenue West"/></node>
<node id="-58" lat="47.837920615" lon="-122.255453287" visible="true"><tag k="addr:housenumber" v="17705"/><tag k="addr:postcode" v="98037"/><tag k="addr:city" v="Lynnwood"/><tag k="addr:street" v="16th Place West"/></node>
<node id="-59" lat="47.838048119" lon="-122.249410841" visible="true"><tag k="addr:housenumber" v="17630"/><tag k="addr:postcode" v="98037"/><tag k="addr:city" v="Lynnwood"/><tag k="addr:street" v="12th Avenue West"/></node>
<node id="-60" lat="47.837795112" lon="-122.250153614" visible="true"><tag k="addr:housenumber" v="17708"/><tag k="addr:postcode" v="98037"/><tag k="addr:city" v="Lynnwood"/><tag k="addr:street" v="12th Place West"/></node>
<node id="-61" lat="47.838046567" lon="-122.249867944" visible="true"><tag k="addr:housenumber" v="17633"/><tag k="addr:postcode" v="98037"/><tag k="addr:city" v="Lynnwood"/><tag k="addr:street" v="12th Place West"/></node>
<node id="-62" lat="47.838147015" lon="-122.257407551" visible="true"><tag k="addr:housenumber" v="17631"/><tag k="addr:postcode" v="98037"/><tag k="addr:city" v="Lynnwood"/><tag k="addr:street" v="17th Avenue West"/></node>
<node id="-63" lat="47.838335322" lon="-122.250204701" visible="true"><tag k="addr:housenumber" v="17616"/><tag k="addr:postcode" v="98037"/><tag k="addr:city" v="Lynnwood"/><tag k="addr:street" v="12th Place West"/></node>
<node id="-64" lat="47.838061197" lon="-122.25019924" visible="true"><tag k="addr:housenumber" v="17632"/><tag k="addr:postcode" v="98037"/><tag k="addr:city" v="Lynnwood"/><tag k="addr:street" v="12th Place West"/></node>
<node id="-65" lat="47.837930652" lon="-122.25016852" visible="true"><tag k="addr:housenumber" v="17704"/><tag k="addr:postcode" v="98037"/><tag k="addr:city" v="Lynnwood"/><tag k="addr:street" v="12th Place West"/></node>
<node id="-66" lat="47.837784202" lon="-122.249085631" visible="true"><tag k="addr:housenumber" v="17711"/><tag k="addr:postcode" v="98037"/><tag k="addr:city" v="Lynnwood"/><tag k="addr:street" v="12th Avenue West"/></node>
<node id="-67" lat="47.83819826" lon="-122.250201971" visible="true"><tag k="addr:housenumber" v="17624"/><tag k="addr:postcode" v="98037"/><tag k="addr:city" v="Lynnwood"/><tag k="addr:street" v="12th Place West"/></node>
<node id="-68" lat="47.83832073" lon="-122.24987035" visible="true"><tag k="addr:housenumber" v="17617"/><tag k="addr:postcode" v="98037"/><tag k="addr:city" v="Lynnwood"/><tag k="addr:street" v="12th Place West"/></node>
<node id="-69" lat="47.837921252" lon="-122.249089376" visible="true"><tag k="addr:housenumber" v="17707"/><tag k="addr:postcode" v="98037"/><tag k="addr:city" v="Lynnwood"/><tag k="addr:street" v="12th Avenue West"/></node>
<node id="-70" lat="47.838185182" lon="-122.249413569" visible="true"><tag k="addr:housenumber" v="17622"/><tag k="addr:postcode" v="98037"/><tag k="addr:city" v="Lynnwood"/><tag k="addr:street" v="12th Avenue West"/></node>
<node id="-71" lat="47.837923827" lon="-122.24987115" visible="true"><tag k="addr:housenumber" v="17705"/><tag k="addr:postcode" v="98037"/><tag k="addr:city" v="Lynnwood"/><tag k="addr:street" v="12th Place West"/></node>
<node id="-72" lat="47.837912933" lon="-122.249410426" visible="true"><tag k="addr:housenumber" v="17706"/><tag k="addr:postcode" v="98037"/><tag k="addr:city" v="Lynnwood"/><tag k="addr:street" v="12th Avenue West"/></node>
<node id="-73" lat="47.838192171" lon="-122.24910764" visible="true"><tag k="addr:housenumber" v="17623"/><tag k="addr:postcode" v="98037"/><tag k="addr:city" v="Lynnwood"/><tag k="addr:street" v="12th Avenue West"/></node>
<node id="-74" lat="47.838321521" lon="-122.249419332" visible="true"><tag k="addr:housenumber" v="17614"/><tag k="addr:postcode" v="98037"/><tag k="addr:city" v="Lynnwood"/><tag k="addr:street" v="12th Avenue West"/></node>
<node id="-75" lat="47.837664096" lon="-122.257795534" visible="true"><tag k="addr:housenumber" v="17701"/><tag k="addr:postcode" v="98037"/><tag k="addr:city" v="Lynnwood"/><tag k="addr:street" v="17th Avenue West"/></node>
<node id="-76" lat="47.837230081" lon="-122.24946258" visible="true"><tag k="addr:housenumber" v="17732"/><tag k="addr:postcode" v="98037"/><tag k="addr:city" v="Lynnwood"/><tag k="addr:street" v="12th Avenue West"/></node>
<node id="-77" lat="47.837667731" lon="-122.250144021" visible="true"><tag k="addr:housenumber" v="17714"/><tag k="addr:postcode" v="98037"/><tag k="addr:city" v="Lynnwood"/><tag k="addr:street" v="12th Place West"/></node>
<node id="-78" lat="47.837645681" lon="-122.24908999" visible="true"><tag k="addr:housenumber" v="17719"/><tag k="addr:postcode" v="98037"/><tag k="addr:city" v="Lynnwood"/><tag k="addr:street" v="12th Avenue West"/></node>
<node id="-79" lat="47.837611974" lon="-122.256440323" visible="true"><tag k="addr:housenumber" v="17712"/><tag k="addr:postcode" v="98037"/><tag k="addr:city" v="Lynnwood"/><tag k="addr:street" v="16th Place West"/></node>
<node id="-80" lat="47.837104066" lon="-122.255733933" visible="true"><tag k="addr:housenumber" v="17732"/><tag k="addr:postcode" v="98037"/><tag k="addr:city" v="Lynnwood"/><tag k="addr:street" v="16th Place West"/></node>
<node id="-81" lat="47.838459699" lon="-122.25353066" visible="true"><tag k="addr:housenumber" v="17614"/><tag k="addr:postcode" v="98037"/><tag k="addr:city" v="Lynnwood"/><tag k="addr:street" v="14th Place West"/></node>
<node id="-82" lat="47.837760864" lon="-122.25300549" visible="true"><tag k="addr:housenumber" v="17711"/><tag k="addr:postcode" v="98037"/><tag k="addr:city" v="Lynnwood"/><tag k="addr:street" v="14th Place West"/></node>
<node id="-83" lat="47.838049248" lon="-122.25351839" visible="true"><tag k="addr:housenumber" v="17630"/><tag k="addr:postcode" v="98037"/><tag k="addr:city" v="Lynnwood"/><tag k="addr:street" v="14th Place West"/></node>
<node id="-84" lat="47.838040394" lon="-122.253017223" visible="true"><tag k="addr:housenumber" v="17631"/><tag k="addr:postcode" v="98037"/><tag k="addr:city" v="Lynnwood"/><tag k="addr:street" v="14th Place West"/></node>
<node id="-85" lat="47.837316879" lon="-122.251608672" visible="true"><tag k="addr:housenumber" v="1319"/><tag k="addr:postcode" v="98037"/><tag k="addr:city" v="Lynnwood"/><tag k="addr:street" v="178th Street Southwest"/></node>
<node id="-86" lat="47.838313846" lon="-122.253021662" visible="true"><tag k="addr:housenumber" v="17621"/><tag k="addr:postcode" v="98037"/><tag k="addr:city" v="Lynnwood"/><tag k="addr:street" v="14th Place West"/></node>
<node id="-87" lat="47.838262458" lon="-122.252357442" visible="true"><tag k="addr:housenumber" v="17622"/><tag k="addr:postcode" v="98037"/><tag k="addr:city" v="Lynnwood"/><tag k="addr:street" v="14th Avenue West"/></node>
<node id="-88" lat="47.837279829" lon="-122.252384488" visible="true"><tag k="addr:housenumber" v="1413"/><tag k="addr:postcode" v="98037"/><tag k="addr:city" v="Lynnwood"/><tag k="addr:street" v="178th Street Southwest"/></node>
<node id="-89" lat="47.837521944" lon="-122.246564363" visible="true"><tag k="addr:housenumber" v="17710"/><tag k="addr:postcode" v="98037"/><tag k="addr:city" v="Lynnwood"/><tag k="addr:street" v="Larch Way"/></node>
<node id="-90" lat="47.838177457" lon="-122.253019961" visible="true"><tag k="addr:housenumber" v="17627"/><tag k="addr:postcode" v="98037"/><tag k="addr:city" v="Lynnwood"/><tag k="addr:street" v="14th Place West"/></node>
<node id="-91" lat="47.837903332" lon="-122.253014485" visible="true"><tag k="addr:housenumber" v="17705"/><tag k="addr:postcode" v="98037"/><tag k="addr:city" v="Lynnwood"/><tag k="addr:street" v="14th Place West"/></node>
<node id="-92" lat="47.838323373" lon="-122.253523869" visible="true"><tag k="addr:housenumber" v="17620"/><tag k="addr:postcode" v="98037"/><tag k="addr:city" v="Lynnwood"/><tag k="addr:street" v="14th Place West"/></node>
<node id="-93" lat="47.838783109" lon="-122.253210662" visible="true"><tag k="addr:housenumber" v="17607"/><tag k="addr:postcode" v="98037"/><tag k="addr:city" v="Lynnwood"/><tag k="addr:street" v="14th Place West"/></node>
<node id="-94" lat="47.838598792" lon="-122.253535491" visible="true"><tag k="addr:housenumber" v="17610"/><tag k="addr:postcode" v="98037"/><tag k="addr:city" v="Lynnwood"/><tag k="addr:street" v="14th Place West"/></node>
<node id="-95" lat="47.837921868" lon="-122.252405128" visible="true"><tag k="addr:housenumber" v="17704"/><tag k="addr:postcode" v="98037"/><tag k="addr:city" v="Lynnwood"/><tag k="addr:street" v="14th Avenue West"/></node>
<node id="-96" lat="47.837865528" lon="-122.251752995" visible="true"><tag k="addr:housenumber" v="17707"/><tag k="addr:postcode" v="98037"/><tag k="addr:city" v="Lynnwood"/><tag k="addr:street" v="14th Avenue West"/></node>
<node id="-97" lat="47.838186311" lon="-122.253521129" visible="true"><tag k="addr:housenumber" v="17626"/><tag k="addr:postcode" v="98037"/><tag k="addr:city" v="Lynnwood"/><tag k="addr:street" v="14th Place West"/></node>
<node id="-98" lat="47.838305744" lon="-122.246484948" visible="true"><tag k="addr:housenumber" v="17614"/><tag k="addr:postcode" v="98037"/><tag k="addr:city" v="Lynnwood"/><tag k="addr:street" v="Larch Way"/></node>
<node id="-99" lat="47.838238947" lon="-122.251711294" visible="true"><tag k="addr:housenumber" v="17617"/><tag k="addr:postcode" v="98037"/><tag k="addr:city" v="Lynnwood"/><tag k="addr:street" v="14th Avenue West"/></node>
<node id="-100" lat="47.83860961" lon="-122.246468801" visible="true"><tag k="addr:housenumber" v="17604"/><tag k="addr:postcode" v="98037"/><tag k="addr:city" v="Lynnwood"/><tag k="addr:street" v="Larch Way"/></node>
<node id="-101" lat="47.837912186" lon="-122.253515651" visible="true"><tag k="addr:housenumber" v="17704"/><tag k="addr:postcode" v="98037"/><tag k="addr:city" v="Lynnwood"/><tag k="addr:street" v="14th Place West"/></node>
<node id="-102" lat="47.838760561" lon="-122.252984015" visible="true"><tag k="addr:housenumber" v="17609"/><tag k="addr:postcode" v="98037"/><tag k="addr:city" v="Lynnwood"/><tag k="addr:street" v="14th Place West"/></node>
<node id="-103" lat="47.838287557" lon="-122.247438113" visible="true"><tag k="addr:housenumber" v="1028"/><tag k="addr:postcode" v="98037"/><tag k="addr:city" v="Lynnwood"/><tag k="addr:street" v="176th Place Southwest"/></node>
<node id="-104" lat="47.838584084" lon="-122.24743037" visible="true"><tag k="addr:housenumber" v="1031"/><tag k="addr:postcode" v="98037"/><tag k="addr:city" v="Lynnwood"/><tag k="addr:street" v="176th Place Southwest"/></node>
<node id="-105" lat="47.838202739" lon="-122.247571097" visible="true"><tag k="addr:housenumber" v="1032"/><tag k="addr:postcode" v="98037"/><tag k="addr:city" v="Lynnwood"/><tag k="addr:street" v="176th Place Southwest"/></node>
<node id="-106" lat="47.838310394" lon="-122.248269883" visible="true"><tag k="addr:housenumber" v="1116"/><tag k="addr:postcode" v="98037"/><tag k="addr:city" v="Lynnwood"/><tag k="addr:street" v="176th Place Southwest"/></node>
<node id="-107" lat="47.838154367" lon="-122.247768654" visible="true"><tag k="addr:housenumber" v="1104"/><tag k="addr:postcode" v="98037"/><tag k="addr:city" v="Lynnwood"/><tag k="addr:street" v="176th Place Southwest"/></node>
<node id="-108" lat="47.838310387" lon="-122.248073606" visible="true"><tag k="addr:housenumber" v="1110"/><tag k="addr:postcode" v="98037"/><tag k="addr:city" v="Lynnwood"/><tag k="addr:street" v="176th Place Southwest"/></node>
<node id="-109" lat="47.838455228" lon="-122.247435337" visible="true"><tag k="addr:housenumber" v="1027"/><tag k="addr:postcode" v="98037"/><tag k="addr:city" v="Lynnwood"/><tag k="addr:street" v="176th Place Southwest"/></node>
<node id="-110" lat="47.838595234" lon="-122.247969615" visible="true"><tag k="addr:housenumber" v="1109"/><tag k="addr:postcode" v="98037"/><tag k="addr:city" v="Lynnwood"/><tag k="addr:street" v="176th Place Southwest"/></node>
<node id="-111" lat="47.837136114" lon="-122.248944502" visible="true"><tag k="addr:housenumber" v="1127"/><tag k="addr:postcode" v="98037"/><tag k="addr:city" v="Lynnwood"/><tag k="addr:street" v="178th Street Southwest"/></node>
<node id="-112" lat="47.838623564" lon="-122.248246759" visible="true"><tag k="addr:housenumber" v="1115"/><tag k="addr:postcode" v="98037"/><tag k="addr:city" v="Lynnwood"/><tag k="addr:street" v="176th Place Southwest"/></node>
<node id="-113" lat="47.83831942" lon="-122.248758838" visible="true"><tag k="addr:housenumber" v="1128"/><tag k="addr:postcode" v="98037"/><tag k="addr:city" v="Lynnwood"/><tag k="addr:street" v="176th Place Southwest"/></node>
<node id="-114" lat="47.838607745" lon="-122.247678766" visible="true"><tag k="addr:housenumber" v="1103"/><tag k="addr:postcode" v="98037"/><tag k="addr:city" v="Lynnwood"/><tag k="addr:street" v="176th Place Southwest"/></node>
<node id="-115" lat="47.838314907" lon="-122.248514361" visible="true"><tag k="addr:housenumber" v="1122"/><tag k="addr:postcode" v="98037"/><tag k="addr:city" v="Lynnwood"/><tag k="addr:street" v="176th Place Southwest"/></node>
<node id="-116" lat="47.837692838" lon="-122.250993831" visible="true"><tag k="addr:housenumber" v="17712"/><tag k="addr:postcode" v="98037"/><tag k="addr:city" v="Lynnwood"/><tag k="addr:street" v="13th Avenue West"/></node>
<node id="-117" lat="47.837542071" lon="-122.250990723" visible="true"><tag k="addr:housenumber" v="17718"/><tag k="addr:postcode" v="98037"/><tag k="addr:city" v="Lynnwood"/><tag k="addr:street" v="13th Avenue West"/></node>
<node id="-118" lat="47.838131415" lon="-122.250635906" visible="true"><tag k="addr:housenumber" v="17625"/><tag k="addr:postcode" v="98037"/><tag k="addr:city" v="Lynnwood"/><tag k="addr:street" v="13th Avenue West"/></node>
<node id="-119" lat="47.838625803" lon="-122.251028524" visible="true"><tag k="addr:housenumber" v="17608"/><tag k="addr:postcode" v="98037"/><tag k="addr:city" v="Lynnwood"/><tag k="addr:street" v="13th Avenue West"/></node>
<node id="-120" lat="47.838311777" lon="-122.250969419" visible="true"><tag k="addr:housenumber" v="17618"/><tag k="addr:postcode" v="98037"/><tag k="addr:city" v="Lynnwood"/><tag k="addr:street" v="13th Avenue West"/></node>
<node id="-121" lat="47.838665323" lon="-122.250826653" visible="true"><tag k="addr:housenumber" v="17606"/><tag k="addr:postcode" v="98037"/><tag k="addr:city" v="Lynnwood"/><tag k="addr:street" v="13th Avenue West"/></node>
<node id="-122" lat="47.838487784" lon="-122.250982381" visible="true"><tag k="addr:housenumber" v="17612"/><tag k="addr:postcode" v="98037"/><tag k="addr:city" v="Lynnwood"/><tag k="addr:street" v="13th Avenue West"/></node>
<node id="-123" lat="47.838929126" lon="-122.251811304" visible="true"><tag k="addr:housenumber" v="17529"/><tag k="addr:postcode" v="98037"/><tag k="addr:city" v="Lynnwood"/><tag k="addr:street" v="14th Avenue West"/></node>
<node id="-124" lat="47.837843605" lon="-122.250996938" visible="true"><tag k="addr:housenumber" v="17706"/><tag k="addr:postcode" v="98037"/><tag k="addr:city" v="Lynnwood"/><tag k="addr:street" v="13th Avenue West"/></node>
<node id="-125" lat="47.837829881" lon="-122.250629694" visible="true"><tag k="addr:housenumber" v="17709"/><tag k="addr:postcode" v="98037"/><tag k="addr:city" v="Lynnwood"/><tag k="addr:street" v="13th Avenue West"/></node>
<node id="-126" lat="47.838664499" lon="-122.250579899" visible="true"><tag k="addr:housenumber" v="17609"/><tag k="addr:postcode" v="98037"/><tag k="addr:city" v="Lynnwood"/><tag k="addr:street" v="13th Avenue West"/></node>
<node id="-127" lat="47.837994372" lon="-122.251000046" visible="true"><tag k="addr:housenumber" v="17632"/><tag k="addr:postcode" v="98037"/><tag k="addr:city" v="Lynnwood"/><tag k="addr:street" v="13th Avenue West"/></node>
<node id="-128" lat="47.838280849" lon="-122.250635922" visible="true"><tag k="addr:housenumber" v="17619"/><tag k="addr:postcode" v="98037"/><tag k="addr:city" v="Lynnwood"/><tag k="addr:street" v="13th Avenue West"/></node>
<node id="-129" lat="47.838151992" lon="-122.251003341" visible="true"><tag k="addr:housenumber" v="17624"/><tag k="addr:postcode" v="98037"/><tag k="addr:city" v="Lynnwood"/><tag k="addr:street" v="13th Avenue West"/></node>
<node id="-130" lat="47.837528346" lon="-122.250623481" visible="true"><tag k="addr:housenumber" v="17719"/><tag k="addr:postcode" v="98037"/><tag k="addr:city" v="Lynnwood"/><tag k="addr:street" v="13th Avenue West"/></node>
<node id="-131" lat="47.837980647" lon="-122.2506328" visible="true"><tag k="addr:housenumber" v="17633"/><tag k="addr:postcode" v="98037"/><tag k="addr:city" v="Lynnwood"/><tag k="addr:street" v="13th Avenue West"/></node>
<node id="-132" lat="47.837123086" lon="-122.24703743" visible="true"><tag k="addr:housenumber" v="1011"/><tag k="addr:postcode" v="98037"/><tag k="addr:city" v="Lynnwood"/><tag k="addr:street" v="178th Street Southwest"/></node>
<node id="-133" lat="47.838604468" lon="-122.246940065" visible="true"><tag k="addr:housenumber" v="17606"/><tag k="addr:postcode" v="98037"/><tag k="addr:city" v="Lynnwood"/><tag k="addr:street" v="Larch Way"/></node>
<node id="-134" lat="47.837895013" lon="-122.246717078" visible="true"><tag k="addr:housenumber" v="17630"/><tag k="addr:postcode" v="98037"/><tag k="addr:city" v="Lynnwood"/><tag k="addr:street" v="Larch Way"/></node>
<node id="-135" lat="47.837477827" lon="-122.24686147" visible="true"><tag k="addr:housenumber" v="17716"/><tag k="addr:postcode" v="98037"/><tag k="addr:city" v="Lynnwood"/><tag k="addr:street" v="Larch Way"/></node>
<node id="-136" lat="47.838089051" lon="-122.246713209" visible="true"><tag k="addr:housenumber" v="17624"/><tag k="addr:postcode" v="98037"/><tag k="addr:city" v="Lynnwood"/><tag k="addr:street" v="Larch Way"/></node>
<node id="-137" lat="47.838643053" lon="-122.25173763" visible="true"><tag k="addr:housenumber" v="17605"/><tag k="addr:postcode" v="98037"/><tag k="addr:city" v="Lynnwood"/><tag k="addr:street" v="14th Avenue West"/></node>
<node id="-138" lat="47.838330231" lon="-122.246943782" visible="true"><tag k="addr:housenumber" v="17608"/><tag k="addr:postcode" v="98037"/><tag k="addr:city" v="Lynnwood"/><tag k="addr:street" v="Larch Way"/></node>
<node id="-139" lat="47.837103483" lon="-122.247421405" visible="true"><tag k="addr:housenumber" v="1015"/><tag k="addr:postcode" v="98037"/><tag k="addr:city" v="Lynnwood"/><tag k="addr:street" v="178th Street Southwest"/></node>
<node id="-140" lat="47.837707129" lon="-122.246722134" visible="true"><tag k="addr:housenumber" v="17704"/><tag k="addr:postcode" v="98037"/><tag k="addr:city" v="Lynnwood"/><tag k="addr:street" v="Larch Way"/></node>
<node id="-141" lat="47.838662706" lon="-122.252363314" visible="true"><tag k="addr:housenumber" v="17606"/><tag k="addr:postcode" v="98037"/><tag k="addr:city" v="Lynnwood"/><tag k="addr:street" v="14th Avenue West"/></node>
<node id="-142" lat="47.8386146" lon="-122.249001418" visible="true"><tag k="addr:housenumber" v="1129"/><tag k="addr:postcode" v="98037"/><tag k="addr:city" v="Lynnwood"/><tag k="addr:street" v="176th Place Southwest"/></node>
<node id="-143" lat="47.838610747" lon="-122.248758992" visible="true"><tag k="addr:housenumber" v="1127"/><tag k="addr:postcode" v="98037"/><tag k="addr:city" v="Lynnwood"/><tag k="addr:street" v="176th Place Southwest"/></node>
<node id="-144" lat="47.8385906" lon="-122.249610634" visible="true"><tag k="addr:housenumber" v="1207"/><tag k="addr:postcode" v="98037"/><tag k="addr:city" v="Lynnwood"/><tag k="addr:street" v="176th Place Southwest"/></node>
<node id="-145" lat="47.838598642" lon="-122.249404169" visible="true"><tag k="addr:housenumber" v="1203"/><tag k="addr:postcode" v="98037"/><tag k="addr:city" v="Lynnwood"/><tag k="addr:street" v="176th Place Southwest"/></node>
<node id="-146" lat="47.838606016" lon="-122.248476835" visible="true"><tag k="addr:housenumber" v="1121"/><tag k="addr:postcode" v="98037"/><tag k="addr:city" v="Lynnwood"/><tag k="addr:street" v="176th Place Southwest"/></node>
<node id="-147" lat="47.838987205" lon="-122.252237467" visible="true"><tag k="addr:housenumber" v="17528"/><tag k="addr:postcode" v="98037"/><tag k="addr:city" v="Lynnwood"/><tag k="addr:street" v="14th Avenue West"/></node>
<node id="-148" lat="47.839022109" lon="-122.252904411" visible="true"><tag k="addr:housenumber" v="17526"/><tag k="addr:postcode" v="98037"/><tag k="addr:city" v="Lynnwood"/><tag k="addr:street" v="14th Avenue West"/></node>
<node id="-149" lat="47.838590163" lon="-122.249756557" visible="true"><tag k="addr:housenumber" v="1211"/><tag k="addr:postcode" v="98037"/><tag k="addr:city" v="Lynnwood"/><tag k="addr:street" v="176th Place Southwest"/></node>
<node id="-150" lat="47.838615504" lon="-122.249205072" visible="true"><tag k="addr:housenumber" v="1133"/><tag k="addr:postcode" v="98037"/><tag k="addr:city" v="Lynnwood"/><tag k="addr:street" v="176th Place Southwest"/></node>
<node id="-151" lat="47.837642831" lon="-122.253420594" visible="true"><tag k="addr:housenumber" v="17716"/><tag k="addr:postcode" v="98037"/><tag k="addr:city" v="Lynnwood"/><tag k="addr:street" v="14th Place West"/></node>
<node id="-152" lat="47.837780961" lon="-122.253447798" visible="true"><tag k="addr:housenumber" v="17710"/><tag k="addr:postcode" v="98037"/><tag k="addr:city" v="Lynnwood"/><tag k="addr:street" v="14th Place West"/></node>
<node id="-153" lat="47.837218525" lon="-122.250253684" visible="true"><tag k="addr:housenumber" v="1219"/><tag k="addr:postcode" v="98037"/><tag k="addr:city" v="Lynnwood"/><tag k="addr:street" v="178th Street Southwest"/></node>
<node id="-154" lat="47.837203511" lon="-122.246411595" visible="true"><tag k="addr:housenumber" v="17720"/><tag k="addr:postcode" v="98037"/><tag k="addr:city" v="Lynnwood"/><tag k="addr:street" v="Larch Way"/></node>
<node id="-155" lat="47.837552583" lon="-122.253309746" visible="true"><tag k="addr:housenumber" v="17720"/><tag k="addr:postcode" v="98037"/><tag k="addr:city" v="Lynnwood"/><tag k="addr:street" v="14th Place West"/></node>
</osm>