<osm generator="uvmogr2osm" upload="false" version="0.6">
<node id="-2" lat="47.826053242" lon="-122.247145537" visible="true" />
<node id="-3" lat="47.826092585" lon="-122.247143764" visible="true" />
<node id="-4" lat="47.826091688" lon="-122.247099904" visible="true" />
<node id="-5" lat="47.826052344" lon="-122.247101677" visible="true" />
<way id="-1" visible="true"><nd ref="-2" /><nd ref="-3" /><nd ref="-4" /><nd ref="-5" /><nd ref="-2" /><tag k="building" v="semidetached_house" /></way>
<node id="-1000001" lat="47.837541555" lon="-122.241254338" visible="true"><tag k="addr:housenumber" v="17712" /><tag k="addr:postcode" v="98012" /><tag k="addr:city" v="Bothell" /><tag k="addr:street" v="6th Avenue West" /></node>
<node id="-1000002" lat="47.837582781" lon="-122.242402098" visible="true"><tag k="addr:housenumber" v="17709" /><tag k="addr:postcode" v="98012" /><tag k="addr:city" v="Bothell" /><tag k="addr:street" v="7th Avenue West" /></node>
<node id="-1000003" lat="47.837244699" lon="-122.242450597" visible="true"><tag k="addr:housenumber" v="17719" /><tag k="addr:postcode" v="98012" /><tag k="addr:city" v="Bothell" /><tag k="addr:street" v="7th Avenue West" /></node>
<node id="-1000004" lat="47.829342177" lon="-122.23822094" visible="true"><tag k="addr:housenumber" v="18602" /><tag k="addr:postcode" v="98012" /><tag k="addr:city" v="Bothell" /><tag k="addr:street" v="North Road" /></node>
<node id="-1000005" lat="47.838495521" lon="-122.243273909" visible="true"><tag k="addr:housenumber" v="17606" /><tag k="addr:postcode" v="98012" /><tag k="addr:city" v="Bothell" /><tag k="addr:street" v="7th Avenue West" /></node>
<node id="-1000006" lat="47.837255758" lon="-122.241528592" visible="true"><tag k="addr:housenumber" v="17722" /><tag k="addr:postcode" v="98012" /><tag k="addr:city" v="Bothell" /><tag k="addr:street" v="6th Avenue West" /></node>
<node id="-1000007" lat="47.83783243" lon="-122.243336069" visible="true"><tag k="addr:housenumber" v="17630" /><tag k="addr:postcode" v="98012" /><tag k="addr:city" v="Bothell" /><tag k="addr:street" v="7th Avenue West" /></node>
<node id="-1000008" lat="47.838828025" lon="-122.243165192" visible="true"><tag k="addr:housenumber" v="17522" /><tag k="addr:postcode" v="98012" /><tag k="addr:city" v="Bothell" /><tag k="addr:street" v="7th Avenue West" /></node>
<node id="-1000009" lat="47.831103434" lon="-122.237976528" visible="true"><tag k="addr:housenumber" v="18406" /><tag k="addr:postcode" v="98012" /><tag k="addr:city" v="Bothell" /><tag k="addr:street" v="North Road" /></node>
<node id="-1000010" lat="47.835916022" lon="-122.24116435" visible="true"><tag k="addr:housenumber" v="17831" /><tag k="addr:postcode" v="98012" /><tag k="addr:city" v="Bothell" /><tag k="addr:street" v="6th Avenue West" /></node>
<node id="-1000011" lat="47.833835474" lon="-122.237552769" visible="true"><tag k="addr:housenumber" v="311" /><tag k="addr:postcode" v="98012" /><tag k="addr:city" v="Bothell" /><tag k="addr:street" v="181st Place Southwest" /></node>
<node id="-1000012" lat="47.830241467" lon="-122.242062586" visible="true"><tag k="addr:housenumber" v="704" /><tag k="addr:postcode" v="98012" /><tag k="addr:city" v="Bothell" /><tag k="addr:street" v="184th Street Southwest" /></node>
<node id="-1000013" lat="47.831631434" lon="-122.242681233" visible="true"><tag k="addr:housenumber" v="703" /><tag k="addr:postcode" v="98012" /><tag k="addr:city" v="Bothell" /><tag k="addr:street" v="184th Street Southwest" /></node>
<node id="-1000014" lat="47.83475105" lon="-122.237403493" visible="true"><tag k="addr:housenumber" v="311" /><tag k="addr:postcode" v="98012" /><tag k="addr:city" v="Bothell" /><tag k="addr:street" v="180th Place Southwest" /></node>
<node id="-1000015" lat="47.83109234" lon="-122.23832133" visible="true"><tag k="addr:housenumber" v="328" /><tag k="addr:postcode" v="98012" /><tag k="addr:city" v="Bothell" /><tag k="addr:street" v="184th Street Southwest" /></node>
<node id="-1000016" lat="47.836250663" lon="-122.243433746" visible="true"><tag k="addr:housenumber" v="17826" /><tag k="addr:postcode" v="98012" /><tag k="addr:city" v="Bothell" /><tag k="addr:street" v="7th Avenue West" /></node>
<node id="-1000017" lat="47.833836781" lon="-122.237836841" visible="true"><tag k="addr:housenumber" v="317" /><tag k="addr:postcode" v="98012" /><tag k="addr:city" v="Bothell" /><tag k="addr:street" v="181st Place Southwest" /></node>
<node id="-1000018" lat="47.83782687" lon="-122.241074756" visible="true"><tag k="addr:housenumber" v="17628" /><tag k="addr:postcode" v="98012" /><tag k="addr:city" v="Bothell" /><tag k="addr:street" v="6th Avenue West" /></node>
<node id="-1000019" lat="47.837560363" lon="-122.243237938" visible="true"><tag k="addr:housenumber" v="17708" /><tag k="addr:postcode" v="98012" /><tag k="addr:city" v="Bothell" /><tag k="addr:street" v="7th Avenue West" /></node>
<node id="-1000020" lat="47.834211557" lon="-122.237684111" visible="true"><tag k="addr:housenumber" v="316" /><tag k="addr:postcode" v="98012" /><tag k="addr:city" v="Bothell" /><tag k="addr:street" v="180th Place Southwest" /></node>
<node id="-1000021" lat="47.833927104" lon="-122.237040851" visible="true"><tag k="addr:housenumber" v="18028" /><tag k="addr:postcode" v="98012" /><tag k="addr:city" v="Bothell" /><tag k="addr:street" v="North Road" /></node>
<node id="-1000022" lat="47.833401322" lon="-122.238353403" visible="true"><tag k="addr:housenumber" v="326" /><tag k="addr:postcode" v="98012" /><tag k="addr:city" v="Bothell" /><tag k="addr:street" v="181st Place Southwest" /></node>
<node id="-1000023" lat="47.836234905" lon="-122.237085336" visible="true"><tag k="addr:housenumber" v="17826" /><tag k="addr:postcode" v="98012" /><tag k="addr:city" v="Bothell" /><tag k="addr:street" v="North Road" /></node>
<node id="-1000024" lat="47.834568146" lon="-122.237027959" visible="true"><tag k="addr:housenumber" v="307" /><tag k="addr:postcode" v="98012" /><tag k="addr:city" v="Bothell" /><tag k="addr:street" v="180th Place Southwest" /></node>
<node id="-1000025" lat="47.827412776" lon="-122.238370179" visible="true"><tag k="addr:housenumber" v="18804" /><tag k="addr:postcode" v="98012" /><tag k="addr:city" v="Bothell" /><tag k="addr:street" v="North Road" /></node>
<node id="-1000026" lat="47.8333285" lon="-122.237250921" visible="true"><tag k="addr:housenumber" v="18124" /><tag k="addr:postcode" v="98012" /><tag k="addr:city" v="Bothell" /><tag k="addr:street" v="North Road" /></node>
<node id="-1000027" lat="47.833885567" lon="-122.238161906" visible="true"><tag k="addr:housenumber" v="325" /><tag k="addr:postcode" v="98012" /><tag k="addr:city" v="Bothell" /><tag k="addr:street" v="181st Place Southwest" /></node>
<node id="-1000028" lat="47.833315318" lon="-122.237542744" visible="true"><tag k="addr:housenumber" v="312" /><tag k="addr:postcode" v="98012" /><tag k="addr:city" v="Bothell" /><tag k="addr:street" v="181st Place Southwest" /></node>
<node id="-1000029" lat="47.833722156" lon="-122.238350904" visible="true"><tag k="addr:housenumber" v="327" /><tag k="addr:postcode" v="98012" /><tag k="addr:city" v="Bothell" /><tag k="addr:street" v="181st Place Southwest" /></node>
<node id="-1000030" lat="47.83629478" lon="-122.23801785" visible="true"><tag k="addr:housenumber" v="320" /><tag k="addr:postcode" v="98012" /><tag k="addr:city" v="Bothell" /><tag k="addr:street" v="178th Place Southwest" /></node>
<node id="-1000031" lat="47.830850234" lon="-122.238078098" visible="true"><tag k="addr:housenumber" v="18414" /><tag k="addr:postcode" v="98012" /><tag k="addr:city" v="Bothell" /><tag k="addr:street" v="North Road" /></node>
<node id="-1000032" lat="47.836257118" lon="-122.24096389" visible="true"><tag k="addr:housenumber" v="17821" /><tag k="addr:postcode" v="98012" /><tag k="addr:city" v="Bothell" /><tag k="addr:street" v="6th Avenue West" /></node>
<node id="-1000033" lat="47.835796974" lon="-122.243234406" visible="true"><tag k="addr:housenumber" v="17904" /><tag k="addr:postcode" v="98012" /><tag k="addr:city" v="Bothell" /><tag k="addr:street" v="7th Avenue West" /></node>
<node id="-1000034" lat="47.836308923" lon="-122.23770364" visible="true"><tag k="addr:housenumber" v="312" /><tag k="addr:postcode" v="98012" /><tag k="addr:city" v="Bothell" /><tag k="addr:street" v="178th Place Southwest" /></node>
<node id="-1000035" lat="47.830805095" lon="-122.24230774" visible="true"><tag k="addr:housenumber" v="710" /><tag k="addr:postcode" v="98012" /><tag k="addr:city" v="Bothell" /><tag k="addr:street" v="184th Street Southwest" /></node>
<node id="-1000036" lat="47.834148382" lon="-122.236896513" visible="true"><tag k="addr:housenumber" v="18026" /><tag k="addr:postcode" v="98012" /><tag k="addr:city" v="Bothell" /><tag k="addr:street" v="North Road" /></node>
<node id="-1000037" lat="47.836742941" lon="-122.238288845" visible="true"><tag k="addr:housenumber" v="329" /><tag k="addr:postcode" v="98012" /><tag k="addr:city" v="Bothell" /><tag k="addr:street" v="178th Place Southwest" /></node>
<node id="-1000038" lat="47.8333091" lon="-122.237825591" visible="true"><tag k="addr:housenumber" v="316" /><tag k="addr:postcode" v="98012" /><tag k="addr:city" v="Bothell" /><tag k="addr:street" v="181st Place Southwest" /></node>
<node id="-1000039" lat="47.836312052" lon="-122.237393203" visible="true"><tag k="addr:housenumber" v="308" /><tag k="addr:postcode" v="98012" /><tag k="addr:city" v="Bothell" /><tag k="addr:street" v="178th Place Southwest" /></node>
<node id="-1000040" lat="47.834747983" lon="-122.237708832" visible="true"><tag k="addr:housenumber" v="317" /><tag k="addr:postcode" v="98012" /><tag k="addr:city" v="Bothell" /><tag k="addr:street" v="180th Place Southwest" /></node>
<node id="-1000041" lat="47.838200716" lon="-122.243259324" visible="true"><tag k="addr:housenumber" v="17620" /><tag k="addr:postcode" v="98012" /><tag k="addr:city" v="Bothell" /><tag k="addr:street" v="7th Avenue West" /></node>
<node id="-1000042" lat="47.834205537" lon="-122.238006673" visible="true"><tag k="addr:housenumber" v="320" /><tag k="addr:postcode" v="98012" /><tag k="addr:city" v="Bothell" /><tag k="addr:street" v="180th Place Southwest" /></node>
<node id="-1000043" lat="47.835190362" lon="-122.243033852" visible="true"><tag k="addr:housenumber" v="17923" /><tag k="addr:postcode" v="98012" /><tag k="addr:city" v="Bothell" /><tag k="addr:street" v="7th Avenue West" /></node>
<node id="-1000044" lat="47.831046644" lon="-122.240944271" visible="true"><tag k="addr:housenumber" v="524" /><tag k="addr:postcode" v="98012" /><tag k="addr:city" v="Bothell" /><tag k="addr:street" v="184th Street Southwest" /></node>
<node id="-1000045" lat="47.831151304" lon="-122.242286531" visible="true"><tag k="addr:housenumber" v="714" /><tag k="addr:postcode" v="98012" /><tag k="addr:city" v="Bothell" /><tag k="addr:street" v="184th Street Southwest" /></node>
<node id="-1000046" lat="47.834761608" lon="-122.238329208" visible="true"><tag k="addr:housenumber" v="327" /><tag k="addr:postcode" v="98012" /><tag k="addr:city" v="Bothell" /><tag k="addr:street" v="180th Place Southwest" /></node>
<node id="-1000047" lat="47.83474701" lon="-122.238011172" visible="true"><tag k="addr:housenumber" v="325" /><tag k="addr:postcode" v="98012" /><tag k="addr:city" v="Bothell" /><tag k="addr:street" v="180th Place Southwest" /></node>
<node id="-1000048" lat="47.836096392" lon="-122.242102848" visible="true"><tag k="addr:housenumber" v="17830" /><tag k="addr:postcode" v="98012" /><tag k="addr:city" v="Bothell" /><tag k="addr:street" v="6th Avenue West" /></node>
<node id="-1000049" lat="47.834289069" lon="-122.237363655" visible="true"><tag k="addr:housenumber" v="310" /><tag k="addr:postcode" v="98012" /><tag k="addr:city" v="Bothell" /><tag k="addr:street" v="180th Place Southwest" /></node>
<node id="-1000050" lat="47.831088814" lon="-122.241550904" visible="true"><tag k="addr:housenumber" v="618" /><tag k="addr:postcode" v="98012" /><tag k="addr:city" v="Bothell" /><tag k="addr:street" v="184th Street Southwest" /></node>
<node id="-1000051" lat="47.834865005" lon="-122.236999352" visible="true"><tag k="addr:housenumber" v="18000" /><tag k="addr:postcode" v="98012" /><tag k="addr:city" v="Bothell" /><tag k="addr:street" v="North Road" /></node>
<node id="-1000052" lat="47.837093799" lon="-122.239454085" visible="true"><tag k="addr:housenumber" v="17724" /><tag k="addr:postcode" v="98012" /><tag k="addr:city" v="Bothell" /><tag k="addr:street" v="4th Place West" /></node>
<node id="-1000053" lat="47.836951072" lon="-122.242573469" visible="true"><tag k="addr:housenumber" v="17731" /><tag k="addr:postcode" v="98012" /><tag k="addr:city" v="Bothell" /><tag k="addr:street" v="7th Avenue West" /></node>
<node id="-1000054" lat="47.83675512" lon="-122.237633614" visible="true"><tag k="addr:housenumber" v="311" /><tag k="addr:postcode" v="98012" /><tag k="addr:city" v="Bothell" /><tag k="addr:street" v="178th Place Southwest" /></node>
<node id="-1000055" lat="47.838176212" lon="-122.241206425" visible="true"><tag k="addr:housenumber" v="17614" /><tag k="addr:postcode" v="98012" /><tag k="addr:city" v="Bothell" /><tag k="addr:street" v="5th Avenue West" /></node>
<node id="-1000056" lat="47.830736193" lon="-122.241143895" visible="true"><tag k="addr:housenumber" v="524" /><tag k="addr:postcode" v="98012" /><tag k="addr:unit" v="B" /><tag k="addr:city" v="Bothell" /><tag k="addr:street" v="184th Street Southwest" /></node>
<node id="-1000057" lat="47.835320471" lon="-122.237030017" visible="true"><tag k="addr:housenumber" v="17922" /><tag k="addr:postcode" v="98012" /><tag k="addr:city" v="Bothell" /><tag k="addr:street" v="North Road" /></node>
<node id="-1000058" lat="47.835607411" lon="-122.242103353" visible="true"><tag k="addr:housenumber" v="17915" /><tag k="addr:postcode" v="98012" /><tag k="addr:city" v="Bothell" /><tag k="addr:street" v="6th Avenue West" /></node>
<node id="-1000059" lat="47.834184377" lon="-122.238333916" visible="true"><tag k="addr:housenumber" v="324" /><tag k="addr:postcode" v="98012" /><tag k="addr:city" v="Bothell" /><tag k="addr:street" v="180th Place Southwest" /></node>
<node id="-1000060" lat="47.836930426" lon="-122.243409372" visible="true"><tag k="addr:housenumber" v="17732" /><tag k="addr:postcode" v="98012" /><tag k="addr:city" v="Bothell" /><tag k="addr:street" v="7th Avenue West" /></node>
<node id="-1000061" lat="47.836250565" lon="-122.242669825" visible="true"><tag k="addr:housenumber" v="17825" /><tag k="addr:postcode" v="98012" /><tag k="addr:city" v="Bothell" /><tag k="addr:street" v="7th Avenue West" /></node>
<node id="-1000062" lat="47.830470073" lon="-122.242268903" visible="true"><tag k="addr:housenumber" v="708" /><tag k="addr:postcode" v="98012" /><tag k="addr:city" v="Bothell" /><tag k="addr:street" v="184th Street Southwest" /></node>
<node id="-1000063" lat="47.835213909" lon="-122.243465029" visible="true"><tag k="addr:housenumber" v="17926" /><tag k="addr:postcode" v="98012" /><tag k="addr:city" v="Bothell" /><tag k="addr:street" v="7th Avenue West" /></node>
<node id="-1000064" lat="47.836550192" lon="-122.243423459" visible="true"><tag k="addr:housenumber" v="17812" /><tag k="addr:postcode" v="98012" /><tag k="addr:city" v="Bothell" /><tag k="addr:street" v="7th Avenue West" /></node>
<node id="-1000065" lat="47.835499745" lon="-122.241402469" visible="true"><tag k="addr:housenumber" v="17909" /><tag k="addr:postcode" v="98012" /><tag k="addr:city" v="Bothell" /><tag k="addr:street" v="6th Avenue West" /></node>
<node id="-1000066" lat="47.836272148" lon="-122.23834981" visible="true"><tag k="addr:housenumber" v="330" /><tag k="addr:postcode" v="98012" /><tag k="addr:city" v="Bothell" /><tag k="addr:street" v="178th Place Southwest" /></node>
<node id="-1000067" lat="47.836601401" lon="-122.242635225" visible="true"><tag k="addr:housenumber" v="17811" /><tag k="addr:postcode" v="98012" /><tag k="addr:city" v="Bothell" /><tag k="addr:street" v="7th Avenue West" /></node>
<node id="-1000068" lat="47.835722371" lon="-122.237459341" visible="true"><tag k="addr:housenumber" v="17910" /><tag k="addr:postcode" v="98012" /><tag k="addr:city" v="Bothell" /><tag k="addr:street" v="North Road" /></node>
<node id="-1000069" lat="47.838209359" lon="-122.242521521" visible="true"><tag k="addr:housenumber" v="17619" /><tag k="addr:postcode" v="98012" /><tag k="addr:city" v="Bothell" /><tag k="addr:street" v="7th Avenue West" /></node>
<node id="-1000070" lat="47.837014348" lon="-122.240592488" visible="true"><tag k="addr:housenumber" v="17725" /><tag k="addr:postcode" v="98012" /><tag k="addr:city" v="Bothell" /><tag k="addr:street" v="6th Avenue West" /></node>
<node id="-1000071" lat="47.836485136" lon="-122.241874164" visible="true"><tag k="addr:housenumber" v="17816" /><tag k="addr:postcode" v="98012" /><tag k="addr:city" v="Bothell" /><tag k="addr:street" v="6th Avenue West" /></node>
<node id="-1000072" lat="47.838462296" lon="-122.241050957" visible="true"><tag k="addr:housenumber" v="17606" /><tag k="addr:postcode" v="98012" /><tag k="addr:city" v="Bothell" /><tag k="addr:street" v="5th Avenue West" /></node>
<node id="-1000073" lat="47.835679792" lon="-122.237019391" visible="true"><tag k="addr:housenumber" v="17914" /><tag k="addr:postcode" v="98012" /><tag k="addr:city" v="Bothell" /><tag k="addr:street" v="North Road" /></node>
<node id="-1000074" lat="47.835575967" lon="-122.242806563" visible="true"><tag k="addr:housenumber" v="17917" /><tag k="addr:postcode" v="98012" /><tag k="addr:city" v="Bothell" /><tag k="addr:street" v="7th Avenue West" /></node>
<node id="-1000075" lat="47.836879142" lon="-122.241718924" visible="true"><tag k="addr:housenumber" v="17804" /><tag k="addr:postcode" v="98012" /><tag k="addr:city" v="Bothell" /><tag k="addr:street" v="6th Avenue West" /></node>
<node id="-1000076" lat="47.830955271" lon="-122.251250279" visible="true"><tag k="addr:housenumber" v="18421" /><tag k="addr:postcode" v="98037" /><tag k="addr:city" v="Lynnwood" /><tag k="addr:street" v="Larch Way" /></node>
<node id="-1000077" lat="47.836600541" lon="-122.240797087" visible="true"><tag k="addr:housenumber" v="17807" /><tag k="addr:postcode" v="98012" /><tag k="addr:city" v="Bothell" /><tag k="addr:street" v="6th Avenue West" /></node>
<node id="-1000078" lat="47.8371599" lon="-122.243335978" visible="true"><tag k="addr:housenumber" v="17722" /><tag k="addr:postcode" v="98012" /><tag k="addr:city" v="Bothell" /><tag k="addr:street" v="7th Avenue West" /></node>
<node id="-1000079" lat="47.831054226" lon="-122.250782218" visible="true"><tag k="addr:housenumber" v="18418" /><tag k="addr:postcode" v="98037" /><tag k="addr:city" v="Lynnwood" /><tag k="addr:street" v="12th Avenue West" /></node>
<node id="-1000080" lat="47.83373918" lon="-122.23718875" visible="true"><tag k="addr:housenumber" v="307" /><tag k="addr:postcode" v="98012" /><tag k="addr:city" v="Bothell" /><tag k="addr:street" v="181st Place Southwest" /></node>
<node id="-1000081" lat="47.836748683" lon="-122.237264883" visible="true"><tag k="addr:housenumber" v="303" /><tag k="addr:postcode" v="98012" /><tag k="addr:city" v="Bothell" /><tag k="addr:street" v="178th Place Southwest" /></node>
<node id="-1000082" lat="47.83734622" lon="-122.239663497" visible="true"><tag k="addr:housenumber" v="17714" /><tag k="addr:postcode" v="98012" /><tag k="addr:city" v="Bothell" /><tag k="addr:street" v="4th Place West" /></node>
<node id="-1000083" lat="47.831635561" lon="-122.241689634" visible="true"><tag k="addr:housenumber" v="621" /><tag k="addr:postcode" v="98012" /><tag k="addr:city" v="Bothell" /><tag k="addr:street" v="184th Street Southwest" /></node>
<node id="-1000084" lat="47.835571185" lon="-122.243577015" visible="true"><tag k="addr:housenumber" v="17914" /><tag k="addr:postcode" v="98012" /><tag k="addr:city" v="Bothell" /><tag k="addr:street" v="7th Avenue West" /></node>
<node id="-1000085" lat="47.831628772" lon="-122.241350453" visible="true"><tag k="addr:housenumber" v="617" /><tag k="addr:postcode" v="98012" /><tag k="addr:city" v="Bothell" /><tag k="addr:street" v="184th Street Southwest" /></node>
<node id="-1000086" lat="47.838596015" lon="-122.242375695" visible="true"><tag k="addr:housenumber" v="17607" /><tag k="addr:postcode" v="98012" /><tag k="addr:city" v="Bothell" /><tag k="addr:street" v="7th Avenue West" /></node>
<node id="-1000087" lat="47.831570937" lon="-122.247092258" visible="true"><tag k="addr:housenumber" v="18319" /><tag k="addr:postcode" v="98037" /><tag k="addr:city" v="Lynnwood" /><tag k="addr:street" v="Larch Way" /></node>
<node id="-1000088" lat="47.837064215" lon="-122.245515431" visible="true"><tag k="addr:housenumber" v="910" /><tag k="addr:postcode" v="98037" /><tag k="addr:city" v="Lynnwood" /><tag k="addr:street" v="177th Place Southwest" /></node>
<node id="-1000089" lat="47.831634182" lon="-122.242035705" visible="true"><tag k="addr:housenumber" v="625" /><tag k="addr:postcode" v="98012" /><tag k="addr:city" v="Bothell" /><tag k="addr:street" v="184th Street Southwest" /></node>
<node id="-1000090" lat="47.836762692" lon="-122.237965723" visible="true"><tag k="addr:housenumber" v="321" /><tag k="addr:postcode" v="98012" /><tag k="addr:city" v="Bothell" /><tag k="addr:street" v="178th Place Southwest" /></node>
<node id="-1000091" lat="47.831624516" lon="-122.240972654" visible="true"><tag k="addr:housenumber" v="525" /><tag k="addr:postcode" v="98012" /><tag k="addr:city" v="Bothell" /><tag k="addr:street" v="184th Street Southwest" /></node>
<node id="-1000092" lat="47.831342649" lon="-122.249917109" visible="true"><tag k="addr:housenumber" v="18404" /><tag k="addr:postcode" v="98037" /><tag k="addr:city" v="Lynnwood" /><tag k="addr:street" v="12th Avenue West" /></node>
<node id="-1000093" lat="47.837068768" lon="-122.245165322" visible="true"><tag k="addr:housenumber" v="904" /><tag k="addr:postcode" v="98037" /><tag k="addr:city" v="Lynnwood" /><tag k="addr:street" v="177th Place Southwest" /></node>
<node id="-1000094" lat="47.838910119" lon="-122.242356974" visible="true"><tag k="addr:housenumber" v="17521" /><tag k="addr:postcode" v="98012" /><tag k="addr:city" v="Bothell" /><tag k="addr:street" v="7th Avenue West" /></node>
<node id="-1000095" lat="47.837877352" lon="-122.242509775" visible="true"><tag k="addr:housenumber" v="17631" /><tag k="addr:postcode" v="98012" /><tag k="addr:city" v="Bothell" /><tag k="addr:street" v="7th Avenue West" /></node>
<node id="-1000096" lat="47.826416265" lon="-122.253039586" visible="true"><tag k="addr:housenumber" v="18919" /><tag k="addr:postcode" v="98037" /><tag k="addr:city" v="Lynnwood" /><tag k="addr:street" v="Larch Way" /></node>
<node id="-1000097" lat="47.833265253" lon="-122.238158321" visible="true"><tag k="addr:housenumber" v="324" /><tag k="addr:postcode" v="98012" /><tag k="addr:city" v="Bothell" /><tag k="addr:street" v="181st Place Southwest" /></node>
<node id="-1000098" lat="47.827469073" lon="-122.247863908" visible="true"><tag k="addr:housenumber" v="1033" /><tag k="addr:postcode" v="98036" /><tag k="addr:city" v="Lynnwood" /><tag k="addr:street" v="188th Place Southwest" /></node>
<node id="-1000099" lat="47.825469054" lon="-122.238847798" visible="true"><tag k="addr:housenumber" v="19024" /><tag k="addr:postcode" v="98036" /><tag k="addr:city" v="Lynnwood" /><tag k="addr:street" v="North Road" /></node>
<node id="-1000100" lat="47.827314697" lon="-122.253117631" visible="true"><tag k="addr:housenumber" v="18823" /><tag k="addr:postcode" v="98037" /><tag k="addr:city" v="Lynnwood" /><tag k="addr:street" v="Larch Way" /></node>
<node id="-1000101" lat="47.828848128" lon="-122.251966267" visible="true"><tag k="addr:housenumber" v="18705" /><tag k="addr:postcode" v="98037" /><tag k="addr:city" v="Lynnwood" /><tag k="addr:street" v="Larch Way" /></node>
<node id="-1000102" lat="47.830463834" lon="-122.251466898" visible="true"><tag k="addr:housenumber" v="18431" /><tag k="addr:postcode" v="98037" /><tag k="addr:city" v="Lynnwood" /><tag k="addr:street" v="Larch Way" /></node>
<node id="-1000103" lat="47.830696383" lon="-122.251397931" visible="true"><tag k="addr:housenumber" v="18427" /><tag k="addr:postcode" v="98037" /><tag k="addr:city" v="Lynnwood" /><tag k="addr:street" v="Larch Way" /></node>
<node id="-1000104" lat="47.828202227" lon="-122.248054939" visible="true"><tag k="addr:housenumber" v="1110" /><tag k="addr:postcode" v="98036" /><tag k="addr:city" v="Lynnwood" /><tag k="addr:street" v="187th Place Southwest" /></node>
<node id="-1000105" lat="47.827895891" lon="-122.251908641" visible="true"><tag k="addr:housenumber" v="18805" /><tag k="addr:postcode" v="98037" /><tag k="addr:city" v="Lynnwood" /><tag k="addr:street" v="Larch Way" /></node>
<node id="-1000106" lat="47.830690818" lon="-122.249826219" visible="true"><tag k="addr:housenumber" v="18423" /><tag k="addr:postcode" v="98037" /><tag k="addr:city" v="Lynnwood" /><tag k="addr:street" v="12th Avenue West" /></node>
<node id="-1000107" lat="47.831024525" lon="-122.246544934" visible="true"><tag k="addr:housenumber" v="929" /><tag k="addr:postcode" v="98037" /><tag k="addr:city" v="Lynnwood" /><tag k="addr:street" v="185th Street Southwest" /></node>
<node id="-1000108" lat="47.829687434" lon="-122.247741233" visible="true"><tag k="addr:housenumber" v="18519" /><tag k="addr:postcode" v="98037" /><tag k="addr:city" v="Lynnwood" /><tag k="addr:street" v="11th Avenue West" /></node>
<node id="-1000109" lat="47.829663997" lon="-122.244425051" visible="true"><tag k="addr:housenumber" v="18525" /><tag k="addr:postcode" v="98037" /><tag k="addr:city" v="Lynnwood" /><tag k="addr:street" v="9th Avenue West" /></node>
<node id="-1000110" lat="47.830390116" lon="-122.248637129" visible="true"><tag k="addr:housenumber" v="18520" /><tag k="addr:postcode" v="98037" /><tag k="addr:city" v="Lynnwood" /><tag k="addr:street" v="11th Avenue West" /></node>
<node id="-1000111" lat="47.829835106" lon="-122.248670946" visible="true"><tag k="addr:housenumber" v="18530" /><tag k="addr:postcode" v="98037" /><tag k="addr:city" v="Lynnwood" /><tag k="addr:street" v="11th Avenue West" /></node>
<node id="-1000112" lat="47.829092255" lon="-122.251989183" visible="true"><tag k="addr:housenumber" v="18707" /><tag k="addr:postcode" v="98037" /><tag k="addr:city" v="Lynnwood" /><tag k="addr:street" v="Larch Way" /></node>
<node id="-1000113" lat="47.82935794" lon="-122.251895282" visible="true"><tag k="addr:housenumber" v="18617" /><tag k="addr:postcode" v="98037" /><tag k="addr:city" v="Lynnwood" /><tag k="addr:street" v="Larch Way" /></node>
<node id="-1000114" lat="47.83124707" lon="-122.250254397" visible="true"><tag k="addr:housenumber" v="18408" /><tag k="addr:postcode" v="98037" /><tag k="addr:city" v="Lynnwood" /><tag k="addr:street" v="12th Avenue West" /></node>
<node id="-1000115" lat="47.830597664" lon="-122.250668155" visible="true"><tag k="addr:housenumber" v="18430" /><tag k="addr:postcode" v="98037" /><tag k="addr:city" v="Lynnwood" /><tag k="addr:street" v="12th Avenue West" /></node>
<node id="-1000116" lat="47.831268172" lon="-122.247561047" visible="true"><tag k="addr:housenumber" v="18411" /><tag k="addr:postcode" v="98037" /><tag k="addr:city" v="Lynnwood" /><tag k="addr:street" v="11th Avenue West" /></node>
<node id="-1000117" lat="47.831354211" lon="-122.248444537" visible="true"><tag k="addr:housenumber" v="18406" /><tag k="addr:postcode" v="98037" /><tag k="addr:city" v="Lynnwood" /><tag k="addr:street" v="11th Avenue West" /></node>
<node id="-1000118" lat="47.830117708" lon="-122.249731827" visible="true"><tag k="addr:housenumber" v="18531" /><tag k="addr:postcode" v="98037" /><tag k="addr:city" v="Lynnwood" /><tag k="addr:street" v="Larch Way" /></node>
<node id="-1000119" lat="47.830533792" lon="-122.248227213" visible="true"><tag k="addr:housenumber" v="18516" /><tag k="addr:postcode" v="98037" /><tag k="addr:city" v="Lynnwood" /><tag k="addr:street" v="11th Avenue West" /></node>
<node id="-1000120" lat="47.831248606" lon="-122.249048893" visible="true"><tag k="addr:housenumber" v="18333" /><tag k="addr:postcode" v="98037" /><tag k="addr:city" v="Lynnwood" /><tag k="addr:street" v="12th Avenue West" /></node>
<node id="-1000121" lat="47.831071985" lon="-122.245163895" visible="true"><tag k="addr:housenumber" v="18412" /><tag k="addr:postcode" v="98037" /><tag k="addr:city" v="Lynnwood" /><tag k="addr:street" v="9th Avenue West" /></node>
<node id="-1000122" lat="47.829876097" lon="-122.245510082" visible="true"><tag k="addr:housenumber" v="18524" /><tag k="addr:postcode" v="98037" /><tag k="addr:city" v="Lynnwood" /><tag k="addr:street" v="9th Avenue West" /></node>
<node id="-1000123" lat="47.830157318" lon="-122.244720694" visible="true"><tag k="addr:housenumber" v="18511" /><tag k="addr:postcode" v="98037" /><tag k="addr:city" v="Lynnwood" /><tag k="addr:street" v="9th Avenue West" /></node>
<node id="-1000124" lat="47.830321804" lon="-122.246250007" visible="true"><tag k="addr:housenumber" v="920" /><tag k="addr:postcode" v="98037" /><tag k="addr:city" v="Lynnwood" /><tag k="addr:street" v="185th Street Southwest" /></node>
<node id="-1000125" lat="47.8304178" lon="-122.244720663" visible="true"><tag k="addr:housenumber" v="18503" /><tag k="addr:postcode" v="98037" /><tag k="addr:city" v="Lynnwood" /><tag k="addr:street" v="9th Avenue West" /></node>
<node id="-1000126" lat="47.830803372" lon="-122.245715597" visible="true"><tag k="addr:housenumber" v="907" /><tag k="addr:postcode" v="98037" /><tag k="addr:city" v="Lynnwood" /><tag k="addr:street" v="185th Street Southwest" /></node>
<node id="-1000127" lat="47.83084749" lon="-122.250612325" visible="true"><tag k="addr:housenumber" v="18424" /><tag k="addr:postcode" v="98037" /><tag k="addr:city" v="Lynnwood" /><tag k="addr:street" v="12th Avenue West" /></node>
<node id="-1000128" lat="47.829525998" lon="-122.251296904" visible="true"><tag k="addr:housenumber" v="18615" /><tag k="addr:postcode" v="98037" /><tag k="addr:city" v="Lynnwood" /><tag k="addr:street" v="Larch Way" /></node>
<node id="-1000129" lat="47.830022626" lon="-122.247350967" visible="true"><tag k="addr:housenumber" v="18513" /><tag k="addr:postcode" v="98037" /><tag k="addr:city" v="Lynnwood" /><tag k="addr:street" v="11th Avenue West" /></node>
<node id="-1000130" lat="47.829460244" lon="-122.244777601" visible="true"><tag k="addr:housenumber" v="18531" /><tag k="addr:postcode" v="98037" /><tag k="addr:city" v="Lynnwood" /><tag k="addr:street" v="9th Avenue West" /></node>
<node id="-1000131" lat="47.829096416" lon="-122.252949691" visible="true"><tag k="addr:housenumber" v="18701" /><tag k="addr:postcode" v="98037" /><tag k="addr:city" v="Lynnwood" /><tag k="addr:street" v="Larch Way" /></node>
<node id="-1000132" lat="47.828467205" lon="-122.24760418" visible="true"><tag k="addr:housenumber" v="1030" /><tag k="addr:postcode" v="98036" /><tag k="addr:city" v="Lynnwood" /><tag k="addr:street" v="187th Place Southwest" /></node>
<node id="-1000133" lat="47.831986584" lon="-122.245911342" visible="true"><tag k="addr:housenumber" v="18311" /><tag k="addr:postcode" v="98037" /><tag k="addr:city" v="Lynnwood" /><tag k="addr:street" v="Larch Way" /></node>
<node id="-1000134" lat="47.829070226" lon="-122.245384767" visible="true"><tag k="addr:housenumber" v="921" /><tag k="addr:postcode" v="98036" /><tag k="addr:city" v="Lynnwood" /><tag k="addr:street" v="187th Place Southwest" /></node>
<node id="-1000135" lat="47.831030363" lon="-122.249598533" visible="true"><tag k="addr:housenumber" v="18403" /><tag k="addr:postcode" v="98037" /><tag k="addr:city" v="Lynnwood" /><tag k="addr:street" v="12th Avenue West" /></node>
<node id="-1000136" lat="47.829073777" lon="-122.24727344" visible="true"><tag k="addr:housenumber" v="1017" /><tag k="addr:postcode" v="98036" /><tag k="addr:city" v="Lynnwood" /><tag k="addr:street" v="187th Place Southwest" /></node>
<node id="-1000137" lat="47.828683188" lon="-122.247133247" visible="true"><tag k="addr:housenumber" v="1018" /><tag k="addr:postcode" v="98036" /><tag k="addr:city" v="Lynnwood" /><tag k="addr:street" v="187th Place Southwest" /></node>
<node id="-1000138" lat="47.828437793" lon="-122.246135152" visible="true"><tag k="addr:housenumber" v="18714" /><tag k="addr:postcode" v="98036" /><tag k="addr:city" v="Lynnwood" /><tag k="addr:street" v="10th Place West" /></node>
<node id="-1000139" lat="47.829537972" lon="-122.249729552" visible="true"><tag k="addr:housenumber" v="18609" /><tag k="addr:postcode" v="98037" /><tag k="addr:city" v="Lynnwood" /><tag k="addr:street" v="Larch Way" /></node>
<node id="-1000140" lat="47.829167362" lon="-122.24693048" visible="true"><tag k="addr:housenumber" v="1005" /><tag k="addr:postcode" v="98036" /><tag k="addr:city" v="Lynnwood" /><tag k="addr:street" v="187th Place Southwest" /></node>
<node id="-1000141" lat="47.827188707" lon="-122.248611557" visible="true"><tag k="addr:housenumber" v="1112" /><tag k="addr:postcode" v="98036" /><tag k="addr:city" v="Lynnwood" /><tag k="addr:street" v="188th Place Southwest" /></node>
<node id="-1000142" lat="47.827037221" lon="-122.247656254" visible="true"><tag k="addr:housenumber" v="1030" /><tag k="addr:postcode" v="98036" /><tag k="addr:city" v="Lynnwood" /><tag k="addr:street" v="188th Place Southwest" /></node>
<node id="-1000143" lat="47.827015825" lon="-122.249120885" visible="true"><tag k="addr:housenumber" v="1116" /><tag k="addr:postcode" v="98036" /><tag k="addr:city" v="Lynnwood" /><tag k="addr:street" v="188th Place Southwest" /></node>
<node id="-1000144" lat="47.829667859" lon="-122.245216009" visible="true"><tag k="addr:housenumber" v="18530" /><tag k="addr:postcode" v="98037" /><tag k="addr:city" v="Lynnwood" /><tag k="addr:street" v="9th Avenue West" /></node>
<node id="-1000145" lat="47.82791592" lon="-122.2470492" visible="true"><tag k="addr:housenumber" v="18804" /><tag k="addr:postcode" v="98036" /><tag k="addr:city" v="Lynnwood" /><tag k="addr:street" v="10th Place West" /></node>
<node id="-1000146" lat="47.830911406" lon="-122.249904754" visible="true"><tag k="addr:housenumber" v="18411" /><tag k="addr:postcode" v="98037" /><tag k="addr:city" v="Lynnwood" /><tag k="addr:street" v="12th Avenue West" /></node>
<node id="-1000147" lat="47.830550391" lon="-122.250334543" visible="true"><tag k="addr:housenumber" v="18433" /><tag k="addr:postcode" v="98037" /><tag k="addr:city" v="Lynnwood" /><tag k="addr:street" v="12th Avenue West" /></node>
<node id="-1000148" lat="47.830675743" lon="-122.244704276" visible="true"><tag k="addr:housenumber" v="18427" /><tag k="addr:postcode" v="98037" /><tag k="addr:city" v="Lynnwood" /><tag k="addr:street" v="9th Avenue West" /></node>
<node id="-1000149" lat="47.82990221" lon="-122.244674044" visible="true"><tag k="addr:housenumber" v="18517" /><tag k="addr:postcode" v="98037" /><tag k="addr:city" v="Lynnwood" /><tag k="addr:street" v="9th Avenue West" /></node>
<node id="-1000150" lat="47.82706905" lon="-122.248255069" visible="true"><tag k="addr:housenumber" v="1106" /><tag k="addr:postcode" v="98036" /><tag k="addr:city" v="Lynnwood" /><tag k="addr:street" v="188th Place Southwest" /></node>
<node id="-1000151" lat="47.831076707" lon="-122.248329078" visible="true"><tag k="addr:housenumber" v="18418" /><tag k="addr:postcode" v="98037" /><tag k="addr:city" v="Lynnwood" /><tag k="addr:street" v="11th Avenue West" /></node>
<node id="-1000152" lat="47.830257769" lon="-122.245841828" visible="true"><tag k="addr:housenumber" v="908" /><tag k="addr:postcode" v="98037" /><tag k="addr:city" v="Lynnwood" /><tag k="addr:street" v="185th Street Southwest" /></node>
<node id="-1000153" lat="47.8301533" lon="-122.246985061" visible="true"><tag k="addr:housenumber" v="18507" /><tag k="addr:postcode" v="98037" /><tag k="addr:city" v="Lynnwood" /><tag k="addr:street" v="11th Avenue West" /></node>
<node id="-1000154" lat="47.830946675" lon="-122.244481022" visible="true"><tag k="addr:housenumber" v="18415" /><tag k="addr:postcode" v="98037" /><tag k="addr:city" v="Lynnwood" /><tag k="addr:street" v="9th Avenue West" /></node>
<node id="-1000155" lat="47.8292143" lon="-122.246394557" visible="true"><tag k="addr:housenumber" v="1001" /><tag k="addr:postcode" v="98036" /><tag k="addr:city" v="Lynnwood" /><tag k="addr:street" v="187th Place Southwest" /></node>
<node id="-1000156" lat="47.830883332" lon="-122.246115559" visible="true"><tag k="addr:housenumber" v="919" /><tag k="addr:postcode" v="98037" /><tag k="addr:city" v="Lynnwood" /><tag k="addr:street" v="185th Street Southwest" /></node>
<node id="-1000157" lat="47.830398457" lon="-122.246809418" visible="true"><tag k="addr:housenumber" v="18501" /><tag k="addr:postcode" v="98037" /><tag k="addr:city" v="Lynnwood" /><tag k="addr:street" v="11th Avenue West" /></node>
<node id="-1000158" lat="47.828821933" lon="-122.246667585" visible="true"><tag k="addr:housenumber" v="1006" /><tag k="addr:postcode" v="98036" /><tag k="addr:city" v="Lynnwood" /><tag k="addr:street" v="187th Place Southwest" /></node>
<node id="-1000159" lat="47.827409296" lon="-122.248889962" visible="true"><tag k="addr:housenumber" v="1120" /><tag k="addr:postcode" v="98036" /><tag k="addr:city" v="Lynnwood" /><tag k="addr:street" v="188th Place Southwest" /></node>
<node id="-1000160" lat="47.828436558" lon="-122.249139543" visible="true"><tag k="addr:housenumber" v="1131" /><tag k="addr:postcode" v="98036" /><tag k="addr:city" v="Lynnwood" /><tag k="addr:street" v="187th Place Southwest" /></node>
<node id="-1000161" lat="47.831132982" lon="-122.244727023" visible="true"><tag k="addr:housenumber" v="18411" /><tag k="addr:postcode" v="98037" /><tag k="addr:city" v="Lynnwood" /><tag k="addr:street" v="9th Avenue West" /></node>
<node id="-1000162" lat="47.830103086" lon="-122.251567758" visible="true"><tag k="addr:housenumber" v="18519" /><tag k="addr:postcode" v="98037" /><tag k="addr:city" v="Lynnwood" /><tag k="addr:street" v="Larch Way" /></node>
<node id="-1000163" lat="47.827670373" lon="-122.247427167" visible="true"><tag k="addr:housenumber" v="18816" /><tag k="addr:postcode" v="98036" /><tag k="addr:city" v="Lynnwood" /><tag k="addr:street" v="10th Place West" /></node>
<node id="-1000164" lat="47.830555153" lon="-122.250017963" visible="true"><tag k="addr:housenumber" v="18429" /><tag k="addr:postcode" v="98037" /><tag k="addr:city" v="Lynnwood" /><tag k="addr:street" v="12th Avenue West" /></node>
<node id="-1000165" lat="47.828893798" lon="-122.247821367" visible="true"><tag k="addr:housenumber" v="1029" /><tag k="addr:postcode" v="98036" /><tag k="addr:city" v="Lynnwood" /><tag k="addr:street" v="187th Place Southwest" /></node>
<node id="-1000166" lat="47.829691459" lon="-122.248345115" visible="true"><tag k="addr:housenumber" v="18529" /><tag k="addr:postcode" v="98037" /><tag k="addr:city" v="Lynnwood" /><tag k="addr:street" v="11th Avenue West" /></node>
<node id="-1000167" lat="47.837084543" lon="-122.245737935" visible="true"><tag k="addr:housenumber" v="914" /><tag k="addr:postcode" v="98037" /><tag k="addr:city" v="Lynnwood" /><tag k="addr:street" v="177th Place Southwest" /></node>
<node id="-1000168" lat="47.82917321" lon="-122.245920167" visible="true"><tag k="addr:housenumber" v="929" /><tag k="addr:postcode" v="98036" /><tag k="addr:city" v="Lynnwood" /><tag k="addr:street" v="187th Place Southwest" /></node>
<node id="-1000169" lat="47.82766653" lon="-122.248239065" visible="true"><tag k="addr:housenumber" v="1115" /><tag k="addr:postcode" v="98036" /><tag k="addr:city" v="Lynnwood" /><tag k="addr:street" v="188th Place Southwest" /></node>
<node id="-1000170" lat="47.83706594" lon="-122.245320338" visible="true"><tag k="addr:housenumber" v="908" /><tag k="addr:postcode" v="98037" /><tag k="addr:city" v="Lynnwood" /><tag k="addr:street" v="177th Place Southwest" /></node>
<node id="-1000171" lat="47.82870228" lon="-122.248399766" visible="true"><tag k="addr:housenumber" v="1109" /><tag k="addr:postcode" v="98036" /><tag k="addr:city" v="Lynnwood" /><tag k="addr:street" v="187th Place Southwest" /></node>
<node id="-1000172" lat="47.827624394" lon="-122.248869202" visible="true"><tag k="addr:housenumber" v="1128" /><tag k="addr:postcode" v="98036" /><tag k="addr:city" v="Lynnwood" /><tag k="addr:street" v="188th Place Southwest" /></node>
<node id="-1000173" lat="47.828160849" lon="-122.246588647" visible="true"><tag k="addr:housenumber" v="18732" /><tag k="addr:postcode" v="98036" /><tag k="addr:city" v="Lynnwood" /><tag k="addr:street" v="10th Place West" /></node>
<node id="-1000174" lat="47.837246049" lon="-122.244908835" visible="true"><tag k="addr:housenumber" v="831" /><tag k="addr:postcode" v="98037" /><tag k="addr:city" v="Lynnwood" /><tag k="addr:street" v="177th Place Southwest" /></node>
<node id="-1000175" lat="47.83726163" lon="-122.245256778" visible="true"><tag k="addr:housenumber" v="907" /><tag k="addr:postcode" v="98037" /><tag k="addr:city" v="Lynnwood" /><tag k="addr:street" v="177th Place Southwest" /></node>
<node id="-1000176" lat="47.828725707" lon="-122.245870785" visible="true"><tag k="addr:housenumber" v="18702" /><tag k="addr:postcode" v="98036" /><tag k="addr:city" v="Lynnwood" /><tag k="addr:street" v="10th Place West" /></node>
<node id="-1000177" lat="47.826238966" lon="-122.247121837" visible="true"><tag k="addr:housenumber" v="18931" /><tag k="addr:postcode" v="98036" /><tag k="addr:city" v="Lynnwood" /><tag k="addr:street" v="10th Place West" /></node>
<node id="-1000178" lat="47.828730828" lon="-122.24523917" visible="true"><tag k="addr:housenumber" v="920" /><tag k="addr:postcode" v="98036" /><tag k="addr:city" v="Lynnwood" /><tag k="addr:street" v="187th Place Southwest" /></node>
<node id="-1000179" lat="47.83069553" lon="-122.247574881" visible="true"><tag k="addr:housenumber" v="18430" /><tag k="addr:postcode" v="98037" /><tag k="addr:city" v="Lynnwood" /><tag k="addr:street" v="11th Avenue West" /></node>
<node id="-1000180" lat="47.830871518" lon="-122.248126208" visible="true"><tag k="addr:housenumber" v="18424" /><tag k="addr:postcode" v="98037" /><tag k="addr:city" v="Lynnwood" /><tag k="addr:street" v="11th Avenue West" /></node>
<node id="-1000181" lat="47.829556665" lon="-122.250752675" visible="true"><tag k="addr:housenumber" v="18613" /><tag k="addr:postcode" v="98037" /><tag k="addr:city" v="Lynnwood" /><tag k="addr:street" v="Larch Way" /></node>
<node id="-1000182" lat="47.837257497" lon="-122.245073404" visible="true"><tag k="addr:housenumber" v="903" /><tag k="addr:postcode" v="98037" /><tag k="addr:city" v="Lynnwood" /><tag k="addr:street" v="177th Place Southwest" /></node>
<node id="-1000183" lat="47.830091818" lon="-122.248698658" visible="true"><tag k="addr:housenumber" v="18524" /><tag k="addr:postcode" v="98037" /><tag k="addr:city" v="Lynnwood" /><tag k="addr:street" v="11th Avenue West" /></node>
<node id="-1000184" lat="47.831013683" lon="-122.24702587" visible="true"><tag k="addr:housenumber" v="18429" /><tag k="addr:postcode" v="98037" /><tag k="addr:city" v="Lynnwood" /><tag k="addr:street" v="11th Avenue West" /></node>
<node id="-1000185" lat="47.83726831" lon="-122.245418842" visible="true"><tag k="addr:housenumber" v="909" /><tag k="addr:postcode" v="98037" /><tag k="addr:city" v="Lynnwood" /><tag k="addr:street" v="177th Place Southwest" /></node>
<node id="-1000186" lat="47.837263722" lon="-122.2456237" visible="true"><tag k="addr:housenumber" v="913" /><tag k="addr:postcode" v="98037" /><tag k="addr:city" v="Lynnwood" /><tag k="addr:street" v="177th Place Southwest" /></node>
<node id="-1000187" lat="47.831061071" lon="-122.250414566" visible="true"><tag k="addr:housenumber" v="18412" /><tag k="addr:postcode" v="98037" /><tag k="addr:city" v="Lynnwood" /><tag k="addr:street" v="12th Avenue West" /></node>
<node id="-1000188" lat="47.836062479" lon="-122.244684844" visible="true"><tag k="addr:housenumber" v="814" /><tag k="addr:postcode" v="98037" /><tag k="addr:city" v="Lynnwood" /><tag k="addr:street" v="178th Place Southwest" /></node>
<node id="-1000189" lat="47.831071925" lon="-122.239585652" visible="true"><tag k="addr:housenumber" v="420" /><tag k="addr:postcode" v="98012" /><tag k="addr:city" v="Bothell" /><tag k="addr:street" v="184th Street Southwest" /></node>
<node id="-1000190" lat="47.837260164" lon="-122.245726773" visible="true"><tag k="addr:housenumber" v="923" /><tag k="addr:postcode" v="98037" /><tag k="addr:city" v="Lynnwood" /><tag k="addr:street" v="177th Place Southwest" /></node>
<node id="-1000191" lat="47.831181309" lon="-122.249218418" visible="true"><tag k="addr:housenumber" v="18401" /><tag k="addr:postcode" v="98037" /><tag k="addr:city" v="Lynnwood" /><tag k="addr:street" v="12th Avenue West" /></node>
<node id="-1000192" lat="47.827812596" lon="-122.248631057" visible="true"><tag k="addr:housenumber" v="1127" /><tag k="addr:postcode" v="98036" /><tag k="addr:city" v="Lynnwood" /><tag k="addr:street" v="188th Place Southwest" /></node>
<node id="-1000193" lat="47.831634215" lon="-122.242366559" visible="true"><tag k="addr:housenumber" v="631" /><tag k="addr:postcode" v="98012" /><tag k="addr:city" v="Bothell" /><tag k="addr:street" v="184th Street Southwest" /></node>
<node id="-1000194" lat="47.831565091" lon="-122.24652269" visible="true"><tag k="addr:housenumber" v="18315" /><tag k="addr:postcode" v="98037" /><tag k="addr:city" v="Lynnwood" /><tag k="addr:street" v="Larch Way" /></node>
<node id="-1000195" lat="47.828617696" lon="-122.238151971" visible="true"><tag k="addr:housenumber" v="18706" /><tag k="addr:postcode" v="98012" /><tag k="addr:city" v="Bothell" /><tag k="addr:street" v="North Road" /></node>
<node id="-1000196" lat="47.836476207" lon="-122.244265116" visible="true"><tag k="addr:housenumber" v="807" /><tag k="addr:postcode" v="98037" /><tag k="addr:city" v="Lynnwood" /><tag k="addr:street" v="178th Place Southwest" /></node>
<node id="-1000197" lat="47.836456197" lon="-122.24518856" visible="true"><tag k="addr:housenumber" v="829" /><tag k="addr:postcode" v="98037" /><tag k="addr:city" v="Lynnwood" /><tag k="addr:street" v="178th Place Southwest" /></node>
<node id="-1000198" lat="47.826631107" lon="-122.252698438" visible="true"><tag k="addr:housenumber" v="18911" /><tag k="addr:postcode" v="98037" /><tag k="addr:city" v="Lynnwood" /><tag k="addr:street" v="Larch Way" /></node>
<node id="-1000199" lat="47.827410816" lon="-122.247000018" visible="true"><tag k="addr:housenumber" v="18815" /><tag k="addr:postcode" v="98036" /><tag k="addr:city" v="Lynnwood" /><tag k="addr:street" v="10th Place West" /></node>
<node id="-1000200" lat="47.828084514" lon="-122.245815528" visible="true"><tag k="addr:housenumber" v="18725" /><tag k="addr:postcode" v="98036" /><tag k="addr:city" v="Lynnwood" /><tag k="addr:street" v="10th Place West" /></node>
<node id="-1000201" lat="47.827955649" lon="-122.246172993" visible="true"><tag k="addr:housenumber" v="18731" /><tag k="addr:postcode" v="98036" /><tag k="addr:city" v="Lynnwood" /><tag k="addr:street" v="10th Place West" /></node>
<node id="-1000202" lat="47.832236234" lon="-122.24598046" visible="true"><tag k="addr:housenumber" v="18307" /><tag k="addr:postcode" v="98037" /><tag k="addr:city" v="Lynnwood" /><tag k="addr:street" v="Larch Way" /></node>
<node id="-1000203" lat="47.833954619" lon="-122.244758246" visible="true"><tag k="addr:housenumber" v="819" /><tag k="addr:postcode" v="98037" /><tag k="addr:city" v="Lynnwood" /><tag k="addr:street" v="181st Place Southwest" /></node>
<node id="-1000204" lat="47.826710991" lon="-122.251895543" visible="true"><tag k="addr:housenumber" v="18925" /><tag k="addr:postcode" v="98037" /><tag k="addr:city" v="Lynnwood" /><tag k="addr:street" v="Larch Way" /></node>
<node id="-1000205" lat="47.827125352" lon="-122.247084635" visible="true"><tag k="addr:housenumber" v="18829" /><tag k="addr:postcode" v="98036" /><tag k="addr:city" v="Lynnwood" /><tag k="addr:street" v="10th Place West" /></node>
<node id="-1000206" lat="47.827754962" lon="-122.246548229" visible="true"><tag k="addr:housenumber" v="18807" /><tag k="addr:postcode" v="98036" /><tag k="addr:city" v="Lynnwood" /><tag k="addr:street" v="10th Place West" /></node>
<node id="-1000207" lat="47.833958315" lon="-122.245054065" visible="true"><tag k="addr:housenumber" v="825" /><tag k="addr:postcode" v="98037" /><tag k="addr:city" v="Lynnwood" /><tag k="addr:street" v="181st Place Southwest" /></node>
<node id="-1000208" lat="47.833909761" lon="-122.244497476" visible="true"><tag k="addr:housenumber" v="811" /><tag k="addr:postcode" v="98037" /><tag k="addr:city" v="Lynnwood" /><tag k="addr:street" v="181st Place Southwest" /></node>
<node id="-1000209" lat="47.833681969" lon="-122.245211459" visible="true"><tag k="addr:housenumber" v="830" /><tag k="addr:postcode" v="98037" /><tag k="addr:city" v="Lynnwood" /><tag k="addr:street" v="181st Place Southwest" /></node>
<node id="-1000210" lat="47.833684326" lon="-122.245519994" visible="true"><tag k="addr:housenumber" v="904" /><tag k="addr:postcode" v="98037" /><tag k="addr:city" v="Lynnwood" /><tag k="addr:street" v="181st Place Southwest" /></node>
<node id="-1000211" lat="47.829017407" lon="-122.244768225" visible="true"><tag k="addr:housenumber" v="903" /><tag k="addr:postcode" v="98036" /><tag k="addr:city" v="Lynnwood" /><tag k="addr:street" v="187th Place Southwest" /></node>
<node id="-1000212" lat="47.83368234" lon="-122.244904018" visible="true"><tag k="addr:housenumber" v="824" /><tag k="addr:postcode" v="98037" /><tag k="addr:city" v="Lynnwood" /><tag k="addr:street" v="181st Place Southwest" /></node>
<node id="-1000213" lat="47.828533661" lon="-122.244890606" visible="true"><tag k="addr:housenumber" v="904" /><tag k="addr:postcode" v="98036" /><tag k="addr:city" v="Lynnwood" /><tag k="addr:street" v="187th Place Southwest" /></node>
<node id="-1000214" lat="47.833955046" lon="-122.245429638" visible="true"><tag k="addr:housenumber" v="903" /><tag k="addr:postcode" v="98037" /><tag k="addr:city" v="Lynnwood" /><tag k="addr:street" v="181st Place Southwest" /></node>
<node id="-1000215" lat="47.828333203" lon="-122.245586568" visible="true"><tag k="addr:housenumber" v="18711" /><tag k="addr:postcode" v="98036" /><tag k="addr:city" v="Lynnwood" /><tag k="addr:street" v="10th Place West" /></node>
<node id="-1000216" lat="47.838155659" lon="-122.244697693" visible="true"><tag k="addr:housenumber" v="17626" /><tag k="addr:postcode" v="98037" /><tag k="addr:city" v="Lynnwood" /><tag k="addr:street" v="8th Place West" /></node>
<node id="-1000217" lat="47.837713267" lon="-122.244678457" visible="true"><tag k="addr:housenumber" v="820" /><tag k="addr:postcode" v="98037" /><tag k="addr:city" v="Lynnwood" /><tag k="addr:street" v="177th Street Southwest" /></node>
<node id="-1000218" lat="47.837709674" lon="-122.2447998" visible="true"><tag k="addr:housenumber" v="832" /><tag k="addr:postcode" v="98037" /><tag k="addr:city" v="Lynnwood" /><tag k="addr:street" v="177th Street Southwest" /></node>
<node id="-1000219" lat="47.837547845" lon="-122.245596658" visible="true"><tag k="addr:housenumber" v="916" /><tag k="addr:postcode" v="98037" /><tag k="addr:city" v="Lynnwood" /><tag k="addr:street" v="177th Street Southwest" /></node>
<node id="-1000220" lat="47.837503506" lon="-122.245733181" visible="true"><tag k="addr:housenumber" v="920" /><tag k="addr:postcode" v="98037" /><tag k="addr:city" v="Lynnwood" /><tag k="addr:street" v="177th Street Southwest" /></node>
<node id="-1000221" lat="47.837596416" lon="-122.245801722" visible="true"><tag k="addr:housenumber" v="922" /><tag k="addr:postcode" v="98037" /><tag k="addr:city" v="Lynnwood" /><tag k="addr:street" v="177th Street Southwest" /></node>
<node id="-1000222" lat="47.837726623" lon="-122.245536371" visible="true"><tag k="addr:housenumber" v="914" /><tag k="addr:postcode" v="98037" /><tag k="addr:city" v="Lynnwood" /><tag k="addr:street" v="177th Street Southwest" /></node>
<node id="-1000223" lat="47.837712893" lon="-122.244983152" visible="true"><tag k="addr:housenumber" v="900" /><tag k="addr:postcode" v="98037" /><tag k="addr:city" v="Lynnwood" /><tag k="addr:street" v="177th Street Southwest" /></node>
<node id="-1000224" lat="47.837716125" lon="-122.245165486" visible="true"><tag k="addr:housenumber" v="904" /><tag k="addr:postcode" v="98037" /><tag k="addr:city" v="Lynnwood" /><tag k="addr:street" v="177th Street Southwest" /></node>
<node id="-1000225" lat="47.838969814" lon="-122.244371042" visible="true"><tag k="addr:housenumber" v="17618" /><tag k="addr:postcode" v="98012" /><tag k="addr:city" v="Bothell" /><tag k="addr:street" v="8th Avenue West" /></node>
<node id="-1000226" lat="47.837643255" lon="-122.237184696" visible="true"><tag k="addr:housenumber" v="17702" /><tag k="addr:postcode" v="98012" /><tag k="addr:city" v="Bothell" /><tag k="addr:street" v="North Road" /></node>
<node id="-1000227" lat="47.837378229" lon="-122.23790174" visible="true"><tag k="addr:housenumber" v="315" /><tag k="addr:postcode" v="98012" /><tag k="addr:city" v="Bothell" /><tag k="addr:street" v="178th Street Southwest" /></node>
<node id="-1000228" lat="47.837606972" lon="-122.239640346" visible="true"><tag k="addr:housenumber" v="17704" /><tag k="addr:postcode" v="98012" /><tag k="addr:city" v="Bothell" /><tag k="addr:street" v="4th Place West" /></node>
<node id="-1000229" lat="47.838032964" lon="-122.237422188" visible="true"><tag k="addr:housenumber" v="306" /><tag k="addr:postcode" v="98012" /><tag k="addr:city" v="Bothell" /><tag k="addr:street" v="176th Place Southwest" /></node>
<node id="-1000230" lat="47.837569127" lon="-122.237868228" visible="true"><tag k="addr:housenumber" v="311" /><tag k="addr:postcode" v="98012" /><tag k="addr:city" v="Bothell" /><tag k="addr:street" v="178th Street Southwest" /></node>
<node id="-1000231" lat="47.837637065" lon="-122.238983337" visible="true"><tag k="addr:housenumber" v="17703" /><tag k="addr:postcode" v="98012" /><tag k="addr:city" v="Bothell" /><tag k="addr:street" v="4th Place West" /></node>
<node id="-1000232" lat="47.838046688" lon="-122.236974581" visible="true"><tag k="addr:housenumber" v="228" /><tag k="addr:postcode" v="98012" /><tag k="addr:city" v="Bothell" /><tag k="addr:street" v="176th Place Southwest" /></node>
<node id="-1000233" lat="47.838028895" lon="-122.237864968" visible="true"><tag k="addr:housenumber" v="316" /><tag k="addr:postcode" v="98012" /><tag k="addr:city" v="Bothell" /><tag k="addr:street" v="176th Place Southwest" /></node>
<node id="-1000234" lat="47.839085754" lon="-122.244739719" visible="true"><tag k="addr:housenumber" v="17614" /><tag k="addr:postcode" v="98012" /><tag k="addr:city" v="Bothell" /><tag k="addr:street" v="8th Avenue West" /></node>
<node id="-1000235" lat="47.838024138" lon="-122.238307729" visible="true"><tag k="addr:housenumber" v="328" /><tag k="addr:postcode" v="98012" /><tag k="addr:city" v="Bothell" /><tag k="addr:street" v="176th Place Southwest" /></node>
<node id="-1000236" lat="47.837128823" lon="-122.239061047" visible="true"><tag k="addr:housenumber" v="17723" /><tag k="addr:postcode" v="98012" /><tag k="addr:city" v="Bothell" /><tag k="addr:street" v="4th Place West" /></node>
<node id="-1000237" lat="47.837152779" lon="-122.23792685" visible="true"><tag k="addr:housenumber" v="317" /><tag k="addr:postcode" v="98012" /><tag k="addr:city" v="Bothell" /><tag k="addr:street" v="178th Street Southwest" /></node>
<node id="-1000238" lat="47.837310813" lon="-122.238992773" visible="true"><tag k="addr:housenumber" v="17711" /><tag k="addr:postcode" v="98012" /><tag k="addr:city" v="Bothell" /><tag k="addr:street" v="4th Place West" /></node>
<node id="-1000239" lat="47.837970335" lon="-122.245204654" visible="true"><tag k="addr:housenumber" v="905" /><tag k="addr:postcode" v="98037" /><tag k="addr:city" v="Lynnwood" /><tag k="addr:street" v="177th Street Southwest" /></node>
<node id="-1000240" lat="47.837970505" lon="-122.245579334" visible="true"><tag k="addr:housenumber" v="915" /><tag k="addr:postcode" v="98037" /><tag k="addr:city" v="Lynnwood" /><tag k="addr:street" v="177th Street Southwest" /></node>
<node id="-1000241" lat="47.837973504" lon="-122.245392077" visible="true"><tag k="addr:housenumber" v="909" /><tag k="addr:postcode" v="98037" /><tag k="addr:city" v="Lynnwood" /><tag k="addr:street" v="177th Street Southwest" /></node>
<node id="-1000242" lat="47.837943995" lon="-122.245758426" visible="true"><tag k="addr:housenumber" v="919" /><tag k="addr:postcode" v="98037" /><tag k="addr:city" v="Lynnwood" /><tag k="addr:street" v="177th Street Southwest" /></node>
<node id="-1000243" lat="47.837959811" lon="-122.244678555" visible="true"><tag k="addr:housenumber" v="821" /><tag k="addr:postcode" v="98037" /><tag k="addr:city" v="Lynnwood" /><tag k="addr:street" v="177th Street Southwest" /></node>
<node id="-1000244" lat="47.837429629" lon="-122.237245538" visible="true"><tag k="addr:housenumber" v="17706" /><tag k="addr:postcode" v="98012" /><tag k="addr:city" v="Bothell" /><tag k="addr:street" v="North Road" /></node>
<node id="-1000245" lat="47.837882628" lon="-122.245858283" visible="true"><tag k="addr:housenumber" v="923" /><tag k="addr:postcode" v="98037" /><tag k="addr:city" v="Lynnwood" /><tag k="addr:street" v="177th Street Southwest" /></node>
<node id="-1000246" lat="47.837893142" lon="-122.238982366" visible="true"><tag k="addr:housenumber" v="17627" /><tag k="addr:postcode" v="98012" /><tag k="addr:city" v="Bothell" /><tag k="addr:street" v="4th Place West" /></node>
<node id="-1000247" lat="47.837966469" lon="-122.24501823" visible="true"><tag k="addr:housenumber" v="901" /><tag k="addr:postcode" v="98037" /><tag k="addr:city" v="Lynnwood" /><tag k="addr:street" v="177th Street Southwest" /></node>
<node id="-1000248" lat="47.837963275" lon="-122.244832841" visible="true"><tag k="addr:housenumber" v="833" /><tag k="addr:postcode" v="98037" /><tag k="addr:city" v="Lynnwood" /><tag k="addr:street" v="177th Street Southwest" /></node>
<node id="-1000249" lat="47.837961283" lon="-122.239863546" visible="true"><tag k="addr:housenumber" v="502" /><tag k="addr:postcode" v="98012" /><tag k="addr:city" v="Bothell" /><tag k="addr:street" v="176th Place Southwest" /></node>
<node id="-1000250" lat="47.837720029" lon="-122.245348855" visible="true"><tag k="addr:housenumber" v="908" /><tag k="addr:postcode" v="98037" /><tag k="addr:city" v="Lynnwood" /><tag k="addr:street" v="177th Street Southwest" /></node>
<node id="-1000251" lat="47.832896776" lon="-122.237352225" visible="true"><tag k="addr:housenumber" v="18200" /><tag k="addr:postcode" v="98012" /><tag k="addr:city" v="Bothell" /><tag k="addr:street" v="North Road" /></node>
<node id="-1000252" lat="47.825296231" lon="-122.240201731" visible="true"><tag k="addr:housenumber" v="409" /><tag k="addr:postcode" v="98036" /><tag k="addr:unit" v="MUS" /><tag k="addr:city" v="Lynnwood" /><tag k="addr:street" v="Filbert Road" /></node>
<node id="-1000253" lat="47.830697219" lon="-122.238288752" visible="true"><tag k="addr:housenumber" v="18420" /><tag k="addr:postcode" v="98012" /><tag k="addr:city" v="Bothell" /><tag k="addr:street" v="North Road" /></node>
<node id="-1000254" lat="47.830564881" lon="-122.238229315" visible="true"><tag k="addr:housenumber" v="18426" /><tag k="addr:postcode" v="98012" /><tag k="addr:city" v="Bothell" /><tag k="addr:street" v="North Road" /></node>
<node id="-1000255" lat="47.824821354" lon="-122.23928891" visible="true"><tag k="addr:housenumber" v="409" /><tag k="addr:postcode" v="98036" /><tag k="addr:city" v="Lynnwood" /><tag k="addr:street" v="Filbert Road" /></node>
<node id="-1000256" lat="47.826275399" lon="-122.249710383" visible="true"><tag k="addr:housenumber" v="1207" /><tag k="addr:postcode" v="98036" /><tag k="addr:city" v="Lynnwood" /><tag k="addr:street" v="Filbert Road" /></node>
<node id="-1000257" lat="47.827802714" lon="-122.250661284" visible="true"><tag k="addr:housenumber" v="1301" /><tag k="addr:postcode" v="98036" /><tag k="addr:city" v="Lynnwood" /><tag k="addr:street" v="Filbert Road" /></node>
<node id="-1000258" lat="47.826545399" lon="-122.25098812" visible="true"><tag k="addr:housenumber" v="1307" /><tag k="addr:postcode" v="98036" /><tag k="addr:city" v="Lynnwood" /><tag k="addr:street" v="Filbert Road" /></node>
<node id="-1000259" lat="47.831293774" lon="-122.248784314" visible="true"><tag k="addr:housenumber" v="18331" /><tag k="addr:postcode" v="98037" /><tag k="addr:city" v="Lynnwood" /><tag k="addr:street" v="12th Avenue West" /></node>
<node id="-1000260" lat="47.826747175" lon="-122.250311409" visible="true"><tag k="addr:housenumber" v="1225" /><tag k="addr:postcode" v="98036" /><tag k="addr:city" v="Lynnwood" /><tag k="addr:street" v="Filbert Road" /></node>
<node id="-1000261" lat="47.82650287" lon="-122.249946536" visible="true"><tag k="addr:housenumber" v="1219" /><tag k="addr:postcode" v="98036" /><tag k="addr:city" v="Lynnwood" /><tag k="addr:street" v="Filbert Road" /></node>
<node id="-1000262" lat="47.826781302" lon="-122.249930056" visible="true"><tag k="addr:housenumber" v="1223" /><tag k="addr:postcode" v="98036" /><tag k="addr:city" v="Lynnwood" /><tag k="addr:street" v="Filbert Road" /></node>
<node id="-1000263" lat="47.835496266" lon="-122.24507394" visible="true"><tag k="addr:housenumber" v="17919" /><tag k="addr:postcode" v="98037" /><tag k="addr:city" v="Lynnwood" /><tag k="addr:street" v="Larch Way" /></node>
<node id="-1000264" lat="47.835036576" lon="-122.245952235" visible="true"><tag k="addr:housenumber" v="918" /><tag k="addr:postcode" v="98037" /><tag k="addr:city" v="Lynnwood" /><tag k="addr:street" v="180th Street Southwest" /></node>
<node id="-1000265" lat="47.835264559" lon="-122.244624987" visible="true"><tag k="addr:housenumber" v="809" /><tag k="addr:postcode" v="98037" /><tag k="addr:city" v="Lynnwood" /><tag k="addr:street" v="180th Street Southwest" /></node>
<node id="-1000266" lat="47.834747197" lon="-122.244450491" visible="true"><tag k="addr:housenumber" v="814" /><tag k="addr:postcode" v="98037" /><tag k="addr:city" v="Lynnwood" /><tag k="addr:street" v="180th Street Southwest" /></node>
<node id="-1000267" lat="47.832799979" lon="-122.244875935" visible="true"><tag k="addr:housenumber" v="18220" /><tag k="addr:postcode" v="98037" /><tag k="addr:city" v="Lynnwood" /><tag k="addr:street" v="8th Place West" /></node>
<node id="-1000268" lat="47.832984115" lon="-122.24595091" visible="true"><tag k="addr:housenumber" v="18211" /><tag k="addr:postcode" v="98037" /><tag k="addr:city" v="Lynnwood" /><tag k="addr:street" v="Larch Way" /></node>
<node id="-1000269" lat="47.834992841" lon="-122.245774915" visible="true"><tag k="addr:housenumber" v="912" /><tag k="addr:postcode" v="98037" /><tag k="addr:city" v="Lynnwood" /><tag k="addr:street" v="180th Street Southwest" /></node>
<node id="-1000270" lat="47.832651427" lon="-122.244193878" visible="true"><tag k="addr:housenumber" v="18225" /><tag k="addr:postcode" v="98037" /><tag k="addr:city" v="Lynnwood" /><tag k="addr:street" v="8th Place West" /></node>
<node id="-1000271" lat="47.835007783" lon="-122.244590051" visible="true"><tag k="addr:housenumber" v="816" /><tag k="addr:postcode" v="98037" /><tag k="addr:city" v="Lynnwood" /><tag k="addr:street" v="180th Street Southwest" /></node>
<node id="-1000272" lat="47.833234026" lon="-122.244951161" visible="true"><tag k="addr:housenumber" v="18132" /><tag k="addr:postcode" v="98037" /><tag k="addr:city" v="Lynnwood" /><tag k="addr:street" v="8th Place West" /></node>
<node id="-1000273" lat="47.835579278" lon="-122.245900517" visible="true"><tag k="addr:housenumber" v="17915" /><tag k="addr:postcode" v="98037" /><tag k="addr:city" v="Lynnwood" /><tag k="addr:street" v="Larch Way" /></node>
<node id="-1000274" lat="47.835240042" lon="-122.245610843" visible="true"><tag k="addr:housenumber" v="907" /><tag k="addr:postcode" v="98037" /><tag k="addr:city" v="Lynnwood" /><tag k="addr:street" v="180th Street Southwest" /></node>
<node id="-1000275" lat="47.835242475" lon="-122.245025511" visible="true"><tag k="addr:housenumber" v="827" /><tag k="addr:postcode" v="98037" /><tag k="addr:city" v="Lynnwood" /><tag k="addr:street" v="180th Street Southwest" /></node>
<node id="-1000276" lat="47.835244889" lon="-122.244830104" visible="true"><tag k="addr:housenumber" v="821" /><tag k="addr:postcode" v="98037" /><tag k="addr:city" v="Lynnwood" /><tag k="addr:street" v="180th Street Southwest" /></node>
<node id="-1000277" lat="47.834989629" lon="-122.244758784" visible="true"><tag k="addr:housenumber" v="820" /><tag k="addr:postcode" v="98037" /><tag k="addr:city" v="Lynnwood" /><tag k="addr:street" v="180th Street Southwest" /></node>
<node id="-1000278" lat="47.835239017" lon="-122.24541636" visible="true"><tag k="addr:housenumber" v="903" /><tag k="addr:postcode" v="98037" /><tag k="addr:city" v="Lynnwood" /><tag k="addr:street" v="180th Street Southwest" /></node>
<node id="-1000279" lat="47.835223428" lon="-122.244261203" visible="true"><tag k="addr:housenumber" v="18005" /><tag k="addr:postcode" v="98037" /><tag k="addr:city" v="Lynnwood" /><tag k="addr:street" v="8th Place West" /></node>
<node id="-1000280" lat="47.835371144" lon="-122.244252329" visible="true"><tag k="addr:housenumber" v="18001" /><tag k="addr:postcode" v="98037" /><tag k="addr:city" v="Lynnwood" /><tag k="addr:street" v="8th Place West" /></node>
<node id="-1000281" lat="47.834983494" lon="-122.24536641" visible="true"><tag k="addr:housenumber" v="902" /><tag k="addr:postcode" v="98037" /><tag k="addr:city" v="Lynnwood" /><tag k="addr:street" v="180th Street Southwest" /></node>
<node id="-1000282" lat="47.837069172" lon="-122.244633195" visible="true"><tag k="addr:housenumber" v="17725" /><tag k="addr:postcode" v="98037" /><tag k="addr:city" v="Lynnwood" /><tag k="addr:street" v="8th Place West" /></node>
<node id="-1000283" lat="47.832893424" lon="-122.245157309" visible="true"><tag k="addr:housenumber" v="18216" /><tag k="addr:postcode" v="98037" /><tag k="addr:city" v="Lynnwood" /><tag k="addr:street" v="8th Place West" /></node>
<node id="-1000284" lat="47.835268874" lon="-122.245878592" visible="true"><tag k="addr:housenumber" v="915" /><tag k="addr:postcode" v="98037" /><tag k="addr:city" v="Lynnwood" /><tag k="addr:street" v="180th Street Southwest" /></node>
<node id="-1000285" lat="47.834987127" lon="-122.244961314" visible="true"><tag k="addr:housenumber" v="826" /><tag k="addr:postcode" v="98037" /><tag k="addr:city" v="Lynnwood" /><tag k="addr:street" v="180th Street Southwest" /></node>
<node id="-1000286" lat="47.835240746" lon="-122.245220935" visible="true"><tag k="addr:housenumber" v="831" /><tag k="addr:postcode" v="98037" /><tag k="addr:city" v="Lynnwood" /><tag k="addr:street" v="180th Street Southwest" /></node>
<node id="-1000287" lat="47.833049782" lon="-122.245321232" visible="true"><tag k="addr:housenumber" v="18212" /><tag k="addr:postcode" v="98037" /><tag k="addr:city" v="Lynnwood" /><tag k="addr:street" v="8th Place West" /></node>
<node id="-1000288" lat="47.832562877" lon="-122.244814501" visible="true"><tag k="addr:housenumber" v="18226" /><tag k="addr:postcode" v="98037" /><tag k="addr:city" v="Lynnwood" /><tag k="addr:street" v="8th Place West" /></node>
<node id="-1000289" lat="47.837500876" lon="-122.244626629" visible="true"><tag k="addr:housenumber" v="17716" /><tag k="addr:postcode" v="98037" /><tag k="addr:city" v="Lynnwood" /><tag k="addr:street" v="8th Place West" /></node>
<node id="-1000290" lat="47.833214445" lon="-122.245176746" visible="true"><tag k="addr:housenumber" v="18202" /><tag k="addr:postcode" v="98037" /><tag k="addr:city" v="Lynnwood" /><tag k="addr:street" v="8th Place West" /></node>
<node id="-1000291" lat="47.834985311" lon="-122.245163862" visible="true"><tag k="addr:housenumber" v="830" /><tag k="addr:postcode" v="98037" /><tag k="addr:city" v="Lynnwood" /><tag k="addr:street" v="180th Street Southwest" /></node>
<node id="-1000292" lat="47.834982349" lon="-122.245569996" visible="true"><tag k="addr:housenumber" v="906" /><tag k="addr:postcode" v="98037" /><tag k="addr:city" v="Lynnwood" /><tag k="addr:street" v="180th Street Southwest" /></node>
<node id="-1000293" lat="47.832939986" lon="-122.239418864" visible="true"><tag k="addr:housenumber" v="18218" /><tag k="addr:postcode" v="98012" /><tag k="addr:city" v="Bothell" /><tag k="addr:street" v="North Road" /></node>
<node id="-1000294" lat="47.832768848" lon="-122.245956041" visible="true"><tag k="addr:housenumber" v="18219" /><tag k="addr:postcode" v="98037" /><tag k="addr:city" v="Lynnwood" /><tag k="addr:street" v="Larch Way" /></node>
<node id="-1000295" lat="47.832526938" lon="-122.246011009" visible="true"><tag k="addr:housenumber" v="18303" /><tag k="addr:postcode" v="98037" /><tag k="addr:city" v="Lynnwood" /><tag k="addr:street" v="Larch Way" /></node>
<node id="-1000296" lat="47.835781881" lon="-122.245850724" visible="true"><tag k="addr:housenumber" v="17907" /><tag k="addr:postcode" v="98037" /><tag k="addr:city" v="Lynnwood" /><tag k="addr:street" v="Larch Way" /></node>
<node id="-1000297" lat="47.834722643" lon="-122.245975575" visible="true"><tag k="addr:housenumber" v="18009" /><tag k="addr:postcode" v="98037" /><tag k="addr:city" v="Lynnwood" /><tag k="addr:street" v="Larch Way" /></node>
<node id="-1000298" lat="47.83598758" lon="-122.245840043" visible="true"><tag k="addr:housenumber" v="17833" /><tag k="addr:postcode" v="98037" /><tag k="addr:city" v="Lynnwood" /><tag k="addr:street" v="Larch Way" /></node>
<node id="-1000299" lat="47.834333483" lon="-122.246089395" visible="true"><tag k="addr:housenumber" v="18025" /><tag k="addr:postcode" v="98037" /><tag k="addr:city" v="Lynnwood" /><tag k="addr:street" v="Larch Way" /></node>
<node id="-1000300" lat="47.832361038" lon="-122.244765452" visible="true"><tag k="addr:housenumber" v="18232" /><tag k="addr:postcode" v="98037" /><tag k="addr:city" v="Lynnwood" /><tag k="addr:street" v="8th Place West" /></node>
<node id="-1000301" lat="47.833756703" lon="-122.244388448" visible="true"><tag k="addr:housenumber" v="18117" /><tag k="addr:postcode" v="98037" /><tag k="addr:city" v="Lynnwood" /><tag k="addr:street" v="8th Place West" /></node>
<node id="-1000302" lat="47.834589239" lon="-122.24508664" visible="true"><tag k="addr:housenumber" v="18019" /><tag k="addr:postcode" v="98037" /><tag k="addr:city" v="Lynnwood" /><tag k="addr:street" v="Larch Way" /></node>
<node id="-1000303" lat="47.832956156" lon="-122.244380898" visible="true"><tag k="addr:housenumber" v="18213" /><tag k="addr:postcode" v="98037" /><tag k="addr:city" v="Lynnwood" /><tag k="addr:street" v="8th Place West" /></node>
<node id="-1000304" lat="47.833158354" lon="-122.244382333" visible="true"><tag k="addr:housenumber" v="18205" /><tag k="addr:postcode" v="98037" /><tag k="addr:city" v="Lynnwood" /><tag k="addr:street" v="8th Place West" /></node>
<node id="-1000305" lat="47.83400992" lon="-122.246090752" visible="true"><tag k="addr:housenumber" v="18105" /><tag k="addr:postcode" v="98037" /><tag k="addr:city" v="Lynnwood" /><tag k="addr:street" v="Larch Way" /></node>
<node id="-1000306" lat="47.834521341" lon="-122.244136628" visible="true"><tag k="addr:housenumber" v="18021" /><tag k="addr:postcode" v="98037" /><tag k="addr:city" v="Lynnwood" /><tag k="addr:street" v="Larch Way" /></node>
<node id="-1000307" lat="47.834578351" lon="-122.245504006" visible="true"><tag k="addr:housenumber" v="18015" /><tag k="addr:postcode" v="98037" /><tag k="addr:city" v="Lynnwood" /><tag k="addr:street" v="Larch Way" /></node>
<node id="-1000308" lat="47.83335917" lon="-122.244384748" visible="true"><tag k="addr:housenumber" v="18133" /><tag k="addr:postcode" v="98037" /><tag k="addr:city" v="Lynnwood" /><tag k="addr:street" v="8th Place West" /></node>
<node id="-1000309" lat="47.833108956" lon="-122.245793124" visible="true"><tag k="addr:housenumber" v="18207" /><tag k="addr:postcode" v="98037" /><tag k="addr:city" v="Lynnwood" /><tag k="addr:street" v="Larch Way" /></node>
<node id="-1000310" lat="47.833558628" lon="-122.244386107" visible="true"><tag k="addr:housenumber" v="18121" /><tag k="addr:postcode" v="98037" /><tag k="addr:city" v="Lynnwood" /><tag k="addr:street" v="8th Place West" /></node>
<node id="-1000311" lat="47.833240868" lon="-122.245932233" visible="true"><tag k="addr:housenumber" v="18203" /><tag k="addr:postcode" v="98037" /><tag k="addr:city" v="Lynnwood" /><tag k="addr:street" v="Larch Way" /></node>
<node id="-1000312" lat="47.833400084" lon="-122.246009648" visible="true"><tag k="addr:housenumber" v="18129" /><tag k="addr:postcode" v="98037" /><tag k="addr:city" v="Lynnwood" /><tag k="addr:street" v="Larch Way" /></node>
<node id="-1000313" lat="47.833603527" lon="-122.246021303" visible="true"><tag k="addr:housenumber" v="18125" /><tag k="addr:postcode" v="98037" /><tag k="addr:city" v="Lynnwood" /><tag k="addr:street" v="Larch Way" /></node>
<node id="-1000314" lat="47.836777816" lon="-122.24604089" visible="true"><tag k="addr:housenumber" v="17805" /><tag k="addr:postcode" v="98037" /><tag k="addr:city" v="Lynnwood" /><tag k="addr:street" v="Larch Way" /></node>
<node id="-1000315" lat="47.836390404" lon="-122.24612433" visible="true"><tag k="addr:housenumber" v="17817" /><tag k="addr:postcode" v="98037" /><tag k="addr:city" v="Lynnwood" /><tag k="addr:street" v="Larch Way" /></node>
<node id="-1000316" lat="47.838471495" lon="-122.244782319" visible="true"><tag k="addr:housenumber" v="831" /><tag k="addr:postcode" v="98037" /><tag k="addr:city" v="Lynnwood" /><tag k="addr:street" v="176th Place Southwest" /></node>
<node id="-1000317" lat="47.838502847" lon="-122.245518276" visible="true"><tag k="addr:housenumber" v="917" /><tag k="addr:postcode" v="98037" /><tag k="addr:city" v="Lynnwood" /><tag k="addr:street" v="176th Place Southwest" /></node>
<node id="-1000318" lat="47.838465776" lon="-122.244668752" visible="true"><tag k="addr:housenumber" v="827" /><tag k="addr:postcode" v="98037" /><tag k="addr:city" v="Lynnwood" /><tag k="addr:street" v="176th Place Southwest" /></node>
<node id="-1000319" lat="47.838499628" lon="-122.245334922" visible="true"><tag k="addr:housenumber" v="911" /><tag k="addr:postcode" v="98037" /><tag k="addr:city" v="Lynnwood" /><tag k="addr:street" v="176th Place Southwest" /></node>
<node id="-1000320" lat="47.838495724" lon="-122.245151549" visible="true"><tag k="addr:housenumber" v="907" /><tag k="addr:postcode" v="98037" /><tag k="addr:city" v="Lynnwood" /><tag k="addr:street" v="176th Place Southwest" /></node>
<node id="-1000321" lat="47.838490475" lon="-122.244966104" visible="true"><tag k="addr:housenumber" v="903" /><tag k="addr:postcode" v="98037" /><tag k="addr:city" v="Lynnwood" /><tag k="addr:street" v="176th Place Southwest" /></node>
<node id="-1000322" lat="47.838530679" lon="-122.244155847" visible="true"><tag k="addr:housenumber" v="17621" /><tag k="addr:postcode" v="98037" /><tag k="addr:city" v="Lynnwood" /><tag k="addr:street" v="8th Place West" /></node>
<node id="-1000323" lat="47.838246261" lon="-122.244219201" visible="true"><tag k="addr:housenumber" v="17627" /><tag k="addr:postcode" v="98037" /><tag k="addr:city" v="Lynnwood" /><tag k="addr:street" v="8th Place West" /></node>
<node id="-1000324" lat="47.837630561" lon="-122.244252209" visible="true"><tag k="addr:housenumber" v="17711" /><tag k="addr:postcode" v="98037" /><tag k="addr:city" v="Lynnwood" /><tag k="addr:street" v="8th Place West" /></node>
<node id="-1000325" lat="47.838511364" lon="-122.245883006" visible="true"><tag k="addr:housenumber" v="925" /><tag k="addr:postcode" v="98037" /><tag k="addr:city" v="Lynnwood" /><tag k="addr:street" v="176th Place Southwest" /></node>
<node id="-1000326" lat="47.837994759" lon="-122.244266087" visible="true"><tag k="addr:housenumber" v="17631" /><tag k="addr:postcode" v="98037" /><tag k="addr:city" v="Lynnwood" /><tag k="addr:street" v="8th Place West" /></node>
<node id="-1000327" lat="47.837882833" lon="-122.244250935" visible="true"><tag k="addr:housenumber" v="17703" /><tag k="addr:postcode" v="98037" /><tag k="addr:city" v="Lynnwood" /><tag k="addr:street" v="8th Place West" /></node>
<node id="-1000328" lat="47.838118626" lon="-122.244282696" visible="true"><tag k="addr:housenumber" v="17629" /><tag k="addr:postcode" v="98037" /><tag k="addr:city" v="Lynnwood" /><tag k="addr:street" v="8th Place West" /></node>
<node id="-1000329" lat="47.837505072" lon="-122.244255918" visible="true"><tag k="addr:housenumber" v="17715" /><tag k="addr:postcode" v="98037" /><tag k="addr:city" v="Lynnwood" /><tag k="addr:street" v="8th Place West" /></node>
<node id="-1000330" lat="47.838429251" lon="-122.244265081" visible="true"><tag k="addr:housenumber" v="17623" /><tag k="addr:postcode" v="98037" /><tag k="addr:city" v="Lynnwood" /><tag k="addr:street" v="8th Place West" /></node>
<node id="-1000331" lat="47.837756696" lon="-122.244251572" visible="true"><tag k="addr:housenumber" v="17707" /><tag k="addr:postcode" v="98037" /><tag k="addr:city" v="Lynnwood" /><tag k="addr:street" v="8th Place West" /></node>
<node id="-1000332" lat="47.838318902" lon="-122.24437509" visible="true"><tag k="addr:housenumber" v="17625" /><tag k="addr:postcode" v="98037" /><tag k="addr:city" v="Lynnwood" /><tag k="addr:street" v="8th Place West" /></node>
<node id="-1000333" lat="47.838506065" lon="-122.245701631" visible="true"><tag k="addr:housenumber" v="921" /><tag k="addr:postcode" v="98037" /><tag k="addr:city" v="Lynnwood" /><tag k="addr:street" v="176th Place Southwest" /></node>
<node id="-1000334" lat="47.838299992" lon="-122.245187845" visible="true"><tag k="addr:housenumber" v="906" /><tag k="addr:postcode" v="98037" /><tag k="addr:city" v="Lynnwood" /><tag k="addr:street" v="176th Place Southwest" /></node>
<node id="-1000335" lat="47.83830431" lon="-122.245559585" visible="true"><tag k="addr:housenumber" v="916" /><tag k="addr:postcode" v="98037" /><tag k="addr:city" v="Lynnwood" /><tag k="addr:street" v="176th Place Southwest" /></node>
<node id="-1000336" lat="47.838293396" lon="-122.245000328" visible="true"><tag k="addr:housenumber" v="902" /><tag k="addr:postcode" v="98037" /><tag k="addr:city" v="Lynnwood" /><tag k="addr:street" v="176th Place Southwest" /></node>
<node id="-1000337" lat="47.838303845" lon="-122.245375288" visible="true"><tag k="addr:housenumber" v="910" /><tag k="addr:postcode" v="98037" /><tag k="addr:city" v="Lynnwood" /><tag k="addr:street" v="176th Place Southwest" /></node>
<node id="-1000338" lat="47.838307566" lon="-122.245739886" visible="true"><tag k="addr:housenumber" v="920" /><tag k="addr:postcode" v="98037" /><tag k="addr:city" v="Lynnwood" /><tag k="addr:street" v="176th Place Southwest" /></node>
<node id="-1000339" lat="47.838309438" lon="-122.245921166" visible="true"><tag k="addr:housenumber" v="924" /><tag k="addr:postcode" v="98037" /><tag k="addr:city" v="Lynnwood" /><tag k="addr:street" v="176th Place Southwest" /></node>
<node id="-1000340" lat="47.83932756" lon="-122.24302527" visible="true"><tag k="addr:housenumber" v="17506" /><tag k="addr:postcode" v="98012" /><tag k="addr:city" v="Bothell" /><tag k="addr:street" v="7th Avenue West" /></node>
<node id="-1000341" lat="47.839334976" lon="-122.242411519" visible="true"><tag k="addr:housenumber" v="17505" /><tag k="addr:postcode" v="98012" /><tag k="addr:city" v="Bothell" /><tag k="addr:street" v="7th Avenue West" /></node>
<node id="-1000342" lat="47.839439147" lon="-122.241745984" visible="true"><tag k="addr:housenumber" v="610" /><tag k="addr:postcode" v="98012" /><tag k="addr:city" v="Bothell" /><tag k="addr:street" v="175th Street Southwest" /></node>
<node id="-1000343" lat="47.839416487" lon="-122.245742459" visible="true"><tag k="addr:housenumber" v="920" /><tag k="addr:postcode" v="98012" /><tag k="addr:city" v="Bothell" /><tag k="addr:street" v="175th Street Southwest" /></node>
<node id="-1000344" lat="47.840024881" lon="-122.244596174" visible="true"><tag k="addr:housenumber" v="818" /><tag k="addr:postcode" v="98012" /><tag k="addr:city" v="Bothell" /><tag k="addr:street" v="175th Street Southwest" /></node>
<node id="-1000345" lat="47.839943942" lon="-122.243162415" visible="true"><tag k="addr:housenumber" v="708" /><tag k="addr:postcode" v="98012" /><tag k="addr:city" v="Bothell" /><tag k="addr:street" v="175th Street Southwest" /></node>
<node id="-1000346" lat="47.839966068" lon="-122.243640879" visible="true"><tag k="addr:housenumber" v="726" /><tag k="addr:postcode" v="98012" /><tag k="addr:city" v="Bothell" /><tag k="addr:street" v="175th Street Southwest" /></node>
<node id="-1000347" lat="47.839150853" lon="-122.243852977" visible="true"><tag k="addr:housenumber" v="17617" /><tag k="addr:postcode" v="98012" /><tag k="addr:city" v="Bothell" /><tag k="addr:street" v="8th Avenue West" /></node>
<node id="-1000348" lat="47.839516715" lon="-122.243843142" visible="true"><tag k="addr:housenumber" v="17603" /><tag k="addr:postcode" v="98012" /><tag k="addr:city" v="Bothell" /><tag k="addr:street" v="8th Avenue West" /></node>
<node id="-1000349" lat="47.839482817" lon="-122.244639442" visible="true"><tag k="addr:housenumber" v="17602" /><tag k="addr:postcode" v="98012" /><tag k="addr:city" v="Bothell" /><tag k="addr:street" v="8th Avenue West" /></node>
</osm>