<osm generator="uvmogr2osm" upload="false" version="0.6">
<node id="-2" lat="47.825950716" lon="-122.253546788" visible="true" />
<node id="-3" lat="47.825935707" lon="-122.253542564" visible="true" />
<node id="-4" lat="47.825932032" lon="-122.253571372" visible="true" />
<node id="-5" lat="47.825939186" lon="-122.253573385" visible="true" />
<node id="-6" lat="47.825936498" lon="-122.253594444" visible="true" />
<node id="-7" lat="47.825948023" lon="-122.253597686" visible="true" />
<node id="-8" lat="47.825951179" lon="-122.25357295" visible="true" />
<node id="-9" lat="47.825947508" lon="-122.253571917" visible="true" />
<way id="-1" visible="true"><nd ref="-2" /><nd ref="-3" /><nd ref="-4" /><nd ref="-5" /><nd ref="-6" /><nd ref="-7" /><nd ref="-8" /><nd ref="-9" /><nd ref="-2" /><tag k="building" v="yes" /></way>
<node id="-1000001" lat="47.832803782" lon="-122.25640958" visible="true"><tag k="addr:housenumber" v="18221" /><tag k="addr:postcode" v="98037" /><tag k="addr:city" v="Lynnwood" /><tag k="addr:street" v="17th Place West" /></node>
<node id="-1000002" lat="47.833314327" lon="-122.253677955" visible="true"><tag k="addr:housenumber" v="18108" /><tag k="addr:postcode" v="98037" /><tag k="addr:city" v="Lynnwood" /><tag k="addr:street" v="15th Avenue West" /></node>
<node id="-1000003" lat="47.833926974" lon="-122.25223259" visible="true"><tag k="addr:housenumber" v="1409" /><tag k="addr:postcode" v="98037" /><tag k="addr:city" v="Lynnwood" /><tag k="addr:street" v="181st Place Southwest" /></node>
<node id="-1000004" lat="47.832821873" lon="-122.259015663" visible="true"><tag k="addr:housenumber" v="18221" /><tag k="addr:postcode" v="98037" /><tag k="addr:city" v="Lynnwood" /><tag k="addr:street" v="Butternut Road" /></node>
<node id="-1000005" lat="47.833977572" lon="-122.253689803" visible="true"><tag k="addr:housenumber" v="18023" /><tag k="addr:postcode" v="98037" /><tag k="addr:city" v="Lynnwood" /><tag k="addr:street" v="15th Avenue West" /></node>
<node id="-1000006" lat="47.834871363" lon="-122.257917417" visible="true"><tag k="addr:housenumber" v="1806" /><tag k="addr:postcode" v="98037" /><tag k="addr:city" v="Lynnwood" /><tag k="addr:street" v="180th Place Southwest" /></node>
<node id="-1000007" lat="47.832641951" lon="-122.252739672" visible="true"><tag k="addr:housenumber" v="18128" /><tag k="addr:postcode" v="98037" /><tag k="addr:city" v="Lynnwood" /><tag k="addr:street" v="15th Avenue West" /></node>
<node id="-1000008" lat="47.833176215" lon="-122.260020724" visible="true"><tag k="addr:housenumber" v="1922" /><tag k="addr:postcode" v="98037" /><tag k="addr:city" v="Lynnwood" /><tag k="addr:street" v="182nd Street Southwest" /></node>
<node id="-1000009" lat="47.832240962" lon="-122.25860689" visible="true"><tag k="addr:housenumber" v="18313" /><tag k="addr:postcode" v="98037" /><tag k="addr:city" v="Lynnwood" /><tag k="addr:street" v="Butternut Road" /></node>
<node id="-1000010" lat="47.832606985" lon="-122.258987353" visible="true"><tag k="addr:housenumber" v="18229" /><tag k="addr:postcode" v="98037" /><tag k="addr:city" v="Lynnwood" /><tag k="addr:street" v="Butternut Road" /></node>
<node id="-1000011" lat="47.832414228" lon="-122.258833417" visible="true"><tag k="addr:housenumber" v="18305" /><tag k="addr:postcode" v="98037" /><tag k="addr:city" v="Lynnwood" /><tag k="addr:street" v="Butternut Road" /></node>
<node id="-1000012" lat="47.833805857" lon="-122.257469104" visible="true"><tag k="addr:housenumber" v="1833" /><tag k="addr:postcode" v="98037" /><tag k="addr:city" v="Lynnwood" /><tag k="addr:street" v="181st Place Southwest" /></node>
<node id="-1000013" lat="47.833351867" lon="-122.252562976" visible="true"><tag k="addr:housenumber" v="1418" /><tag k="addr:postcode" v="98037" /><tag k="addr:city" v="Lynnwood" /><tag k="addr:street" v="181st Place Southwest" /></node>
<node id="-1000014" lat="47.833051332" lon="-122.259743997" visible="true"><tag k="addr:housenumber" v="1914" /><tag k="addr:postcode" v="98037" /><tag k="addr:city" v="Lynnwood" /><tag k="addr:street" v="182nd Street Southwest" /></node>
<node id="-1000015" lat="47.833452361" lon="-122.253878222" visible="true"><tag k="addr:housenumber" v="18102" /><tag k="addr:postcode" v="98037" /><tag k="addr:city" v="Lynnwood" /><tag k="addr:street" v="15th Avenue West" /></node>
<node id="-1000016" lat="47.833560995" lon="-122.253471943" visible="true"><tag k="addr:housenumber" v="18105" /><tag k="addr:postcode" v="98037" /><tag k="addr:city" v="Lynnwood" /><tag k="addr:street" v="15th Avenue West" /></node>
<node id="-1000017" lat="47.833510935" lon="-122.251897455" visible="true"><tag k="addr:housenumber" v="1402" /><tag k="addr:postcode" v="98037" /><tag k="addr:city" v="Lynnwood" /><tag k="addr:street" v="181st Place Southwest" /></node>
<node id="-1000018" lat="47.833313066" lon="-122.251933778" visible="true"><tag k="addr:housenumber" v="1408" /><tag k="addr:postcode" v="98037" /><tag k="addr:city" v="Lynnwood" /><tag k="addr:street" v="181st Place Southwest" /></node>
<node id="-1000019" lat="47.832973964" lon="-122.259971605" visible="true"><tag k="addr:housenumber" v="1918" /><tag k="addr:postcode" v="98037" /><tag k="addr:city" v="Lynnwood" /><tag k="addr:street" v="182nd Street Southwest" /></node>
<node id="-1000020" lat="47.833273601" lon="-122.260230466" visible="true"><tag k="addr:housenumber" v="1926" /><tag k="addr:postcode" v="98037" /><tag k="addr:city" v="Lynnwood" /><tag k="addr:street" v="182nd Street Southwest" /></node>
<node id="-1000021" lat="47.832462728" lon="-122.24977546" visible="true"><tag k="addr:housenumber" v="1211" /><tag k="addr:postcode" v="98037" /><tag k="addr:city" v="Lynnwood" /><tag k="addr:street" v="183rd Street Southwest" /></node>
<node id="-1000022" lat="47.832467696" lon="-122.259877184" visible="true"><tag k="addr:housenumber" v="18232" /><tag k="addr:postcode" v="98037" /><tag k="addr:city" v="Lynnwood" /><tag k="addr:street" v="Butternut Road" /></node>
<node id="-1000023" lat="47.832916461" lon="-122.253100452" visible="true"><tag k="addr:housenumber" v="18118" /><tag k="addr:postcode" v="98037" /><tag k="addr:city" v="Lynnwood" /><tag k="addr:street" v="15th Avenue West" /></node>
<node id="-1000024" lat="47.833255066" lon="-122.252243713" visible="true"><tag k="addr:housenumber" v="1410" /><tag k="addr:postcode" v="98037" /><tag k="addr:city" v="Lynnwood" /><tag k="addr:street" v="181st Place Southwest" /></node>
<node id="-1000025" lat="47.832233328" lon="-122.256298019" visible="true"><tag k="addr:housenumber" v="18305" /><tag k="addr:postcode" v="98037" /><tag k="addr:city" v="Lynnwood" /><tag k="addr:street" v="17th Place West" /></node>
<node id="-1000026" lat="47.832785722" lon="-122.252919731" visible="true"><tag k="addr:housenumber" v="18124" /><tag k="addr:postcode" v="98037" /><tag k="addr:city" v="Lynnwood" /><tag k="addr:street" v="15th Avenue West" /></node>
<node id="-1000027" lat="47.833078027" lon="-122.259115439" visible="true"><tag k="addr:housenumber" v="18201" /><tag k="addr:postcode" v="98037" /><tag k="addr:city" v="Lynnwood" /><tag k="addr:street" v="Butternut Road" /></node>
<node id="-1000028" lat="47.832433681" lon="-122.250097269" visible="true"><tag k="addr:housenumber" v="1219" /><tag k="addr:postcode" v="98037" /><tag k="addr:city" v="Lynnwood" /><tag k="addr:street" v="183rd Street Southwest" /></node>
<node id="-1000029" lat="47.833449692" lon="-122.25333304" visible="true"><tag k="addr:housenumber" v="18111" /><tag k="addr:postcode" v="98037" /><tag k="addr:city" v="Lynnwood" /><tag k="addr:street" v="15th Avenue West" /></node>
<node id="-1000030" lat="47.833895065" lon="-122.252594145" visible="true"><tag k="addr:housenumber" v="1411" /><tag k="addr:postcode" v="98037" /><tag k="addr:city" v="Lynnwood" /><tag k="addr:street" v="181st Place Southwest" /></node>
<node id="-1000031" lat="47.833966156" lon="-122.254105764" visible="true"><tag k="addr:housenumber" v="18022" /><tag k="addr:postcode" v="98037" /><tag k="addr:city" v="Lynnwood" /><tag k="addr:street" v="15th Avenue West" /></node>
<node id="-1000032" lat="47.833053302" lon="-122.253286431" visible="true"><tag k="addr:housenumber" v="18114" /><tag k="addr:postcode" v="98037" /><tag k="addr:city" v="Lynnwood" /><tag k="addr:street" v="15th Avenue West" /></node>
<node id="-1000033" lat="47.833327319" lon="-122.259636839" visible="true"><tag k="addr:housenumber" v="1913" /><tag k="addr:postcode" v="98037" /><tag k="addr:city" v="Lynnwood" /><tag k="addr:street" v="182nd Street Southwest" /></node>
<node id="-1000034" lat="47.835827695" lon="-122.254228193" visible="true"><tag k="addr:housenumber" v="1504" /><tag k="addr:postcode" v="98037" /><tag k="addr:city" v="Lynnwood" /><tag k="addr:street" v="179th Street Southwest" /></node>
<node id="-1000035" lat="47.835306329" lon="-122.257344513" visible="true"><tag k="addr:housenumber" v="1731" /><tag k="addr:postcode" v="98037" /><tag k="addr:city" v="Lynnwood" /><tag k="addr:street" v="180th Place Southwest" /></node>
<node id="-1000036" lat="47.833731924" lon="-122.25309056" visible="true"><tag k="addr:housenumber" v="1421" /><tag k="addr:postcode" v="98037" /><tag k="addr:city" v="Lynnwood" /><tag k="addr:street" v="181st Place Southwest" /></node>
<node id="-1000037" lat="47.833562231" lon="-122.257210496" visible="true"><tag k="addr:housenumber" v="1825" /><tag k="addr:postcode" v="98037" /><tag k="addr:city" v="Lynnwood" /><tag k="addr:street" v="181st Place Southwest" /></node>
<node id="-1000038" lat="47.833599848" lon="-122.256766329" visible="true"><tag k="addr:housenumber" v="1819" /><tag k="addr:postcode" v="98037" /><tag k="addr:city" v="Lynnwood" /><tag k="addr:street" v="181st Place Southwest" /></node>
<node id="-1000039" lat="47.833456053" lon="-122.260239563" visible="true"><tag k="addr:housenumber" v="1929" /><tag k="addr:postcode" v="98037" /><tag k="addr:city" v="Lynnwood" /><tag k="addr:street" v="182nd Street Southwest" /></node>
<node id="-1000040" lat="47.835956855" lon="-122.25431522" visible="true"><tag k="addr:housenumber" v="1508" /><tag k="addr:postcode" v="98037" /><tag k="addr:city" v="Lynnwood" /><tag k="addr:street" v="179th Street Southwest" /></node>
<node id="-1000041" lat="47.833868344" lon="-122.252924282" visible="true"><tag k="addr:housenumber" v="1417" /><tag k="addr:postcode" v="98037" /><tag k="addr:city" v="Lynnwood" /><tag k="addr:street" v="181st Place Southwest" /></node>
<node id="-1000042" lat="47.833605177" lon="-122.254047338" visible="true"><tag k="addr:housenumber" v="18030" /><tag k="addr:postcode" v="98037" /><tag k="addr:city" v="Lynnwood" /><tag k="addr:street" v="15th Avenue West" /></node>
<node id="-1000043" lat="47.833756457" lon="-122.258763338" visible="true"><tag k="addr:housenumber" v="18127" /><tag k="addr:postcode" v="98037" /><tag k="addr:city" v="Lynnwood" /><tag k="addr:street" v="Butternut Road" /></node>
<node id="-1000044" lat="47.833584515" lon="-122.259753756" visible="true"><tag k="addr:housenumber" v="1921" /><tag k="addr:postcode" v="98037" /><tag k="addr:city" v="Lynnwood" /><tag k="addr:street" v="182nd Street Southwest" /></node>
<node id="-1000045" lat="47.833531917" lon="-122.257638376" visible="true"><tag k="addr:housenumber" v="1907" /><tag k="addr:postcode" v="98037" /><tag k="addr:city" v="Lynnwood" /><tag k="addr:street" v="181st Place Southwest" /></node>
<node id="-1000046" lat="47.833509699" lon="-122.258046004" visible="true"><tag k="addr:housenumber" v="1919" /><tag k="addr:postcode" v="98037" /><tag k="addr:city" v="Lynnwood" /><tag k="addr:street" v="181st Place Southwest" /></node>
<node id="-1000047" lat="47.834658387" lon="-122.258301626" visible="true"><tag k="addr:housenumber" v="1821" /><tag k="addr:postcode" v="98037" /><tag k="addr:city" v="Lynnwood" /><tag k="addr:street" v="181st Street Southwest" /></node>
<node id="-1000048" lat="47.833629288" lon="-122.256464973" visible="true"><tag k="addr:housenumber" v="1807" /><tag k="addr:postcode" v="98037" /><tag k="addr:city" v="Lynnwood" /><tag k="addr:street" v="181st Place Southwest" /></node>
<node id="-1000049" lat="47.835365579" lon="-122.257540598" visible="true"><tag k="addr:housenumber" v="1801" /><tag k="addr:postcode" v="98037" /><tag k="addr:city" v="Lynnwood" /><tag k="addr:street" v="180th Place Southwest" /></node>
<node id="-1000050" lat="47.833542049" lon="-122.25500184" visible="true"><tag k="addr:housenumber" v="1701" /><tag k="addr:postcode" v="98037" /><tag k="addr:city" v="Lynnwood" /><tag k="addr:street" v="181st Place Southwest" /></node>
<node id="-1000051" lat="47.831293645" lon="-122.256492385" visible="true"><tag k="addr:housenumber" v="18407" /><tag k="addr:postcode" v="98037" /><tag k="addr:city" v="Lynnwood" /><tag k="addr:street" v="17th Place West" /></node>
<node id="-1000052" lat="47.833772122" lon="-122.252006412" visible="true"><tag k="addr:housenumber" v="1401" /><tag k="addr:postcode" v="98037" /><tag k="addr:city" v="Lynnwood" /><tag k="addr:street" v="181st Place Southwest" /></node>
<node id="-1000053" lat="47.834943593" lon="-122.257408864" visible="true"><tag k="addr:housenumber" v="1727" /><tag k="addr:postcode" v="98037" /><tag k="addr:city" v="Lynnwood" /><tag k="addr:street" v="180th Place Southwest" /></node>
<node id="-1000054" lat="47.833634536" lon="-122.256153593" visible="true"><tag k="addr:housenumber" v="1803" /><tag k="addr:postcode" v="98037" /><tag k="addr:city" v="Lynnwood" /><tag k="addr:street" v="181st Place Southwest" /></node>
<node id="-1000055" lat="47.833502571" lon="-122.259624921" visible="true"><tag k="addr:housenumber" v="1917" /><tag k="addr:postcode" v="98037" /><tag k="addr:city" v="Lynnwood" /><tag k="addr:street" v="182nd Street Southwest" /></node>
<node id="-1000056" lat="47.833706959" lon="-122.25364087" visible="true"><tag k="addr:housenumber" v="18027" /><tag k="addr:postcode" v="98037" /><tag k="addr:city" v="Lynnwood" /><tag k="addr:street" v="15th Avenue West" /></node>
<node id="-1000057" lat="47.833743497" lon="-122.255495187" visible="true"><tag k="addr:housenumber" v="1717" /><tag k="addr:postcode" v="98037" /><tag k="addr:city" v="Lynnwood" /><tag k="addr:street" v="181st Place Southwest" /></node>
<node id="-1000058" lat="47.833556312" lon="-122.260048441" visible="true"><tag k="addr:housenumber" v="1925" /><tag k="addr:postcode" v="98037" /><tag k="addr:city" v="Lynnwood" /><tag k="addr:street" v="182nd Street Southwest" /></node>
<node id="-1000059" lat="47.833797221" lon="-122.248470824" visible="true"><tag k="addr:housenumber" v="18330" /><tag k="addr:postcode" v="98037" /><tag k="addr:city" v="Lynnwood" /><tag k="addr:street" v="Larch Way" /></node>
<node id="-1000060" lat="47.833785225" lon="-122.255860118" visible="true"><tag k="addr:housenumber" v="1729" /><tag k="addr:postcode" v="98037" /><tag k="addr:city" v="Lynnwood" /><tag k="addr:street" v="181st Place Southwest" /></node>
<node id="-1000061" lat="47.836638048" lon="-122.255431429" visible="true"><tag k="addr:housenumber" v="1616" /><tag k="addr:postcode" v="98037" /><tag k="addr:city" v="Lynnwood" /><tag k="addr:street" v="Maple Road" /></node>
<node id="-1000062" lat="47.833769105" lon="-122.25503471" visible="true"><tag k="addr:housenumber" v="1709" /><tag k="addr:postcode" v="98037" /><tag k="addr:city" v="Lynnwood" /><tag k="addr:street" v="181st Place Southwest" /></node>
<node id="-1000063" lat="47.83378102" lon="-122.254104194" visible="true"><tag k="addr:housenumber" v="18026" /><tag k="addr:postcode" v="98037" /><tag k="addr:city" v="Lynnwood" /><tag k="addr:street" v="15th Avenue West" /></node>
<node id="-1000064" lat="47.836783512" lon="-122.254207575" visible="true"><tag k="addr:housenumber" v="1518" /><tag k="addr:postcode" v="98037" /><tag k="addr:city" v="Lynnwood" /><tag k="addr:street" v="Maple Road" /></node>
<node id="-1000065" lat="47.835122999" lon="-122.25720407" visible="true"><tag k="addr:housenumber" v="1723" /><tag k="addr:postcode" v="98037" /><tag k="addr:city" v="Lynnwood" /><tag k="addr:street" v="180th Place Southwest" /></node>
<node id="-1000066" lat="47.836306179" lon="-122.254337018" visible="true"><tag k="addr:housenumber" v="1509" /><tag k="addr:postcode" v="98037" /><tag k="addr:city" v="Lynnwood" /><tag k="addr:street" v="179th Street Southwest" /></node>
<node id="-1000067" lat="47.826900218" lon="-122.254113123" visible="true"><tag k="addr:housenumber" v="18908" /><tag k="addr:postcode" v="98037" /><tag k="addr:city" v="Lynnwood" /><tag k="addr:street" v="Larch Way" /></node>
<node id="-1000068" lat="47.829195724" lon="-122.253506807" visible="true"><tag k="addr:housenumber" v="18620" /><tag k="addr:postcode" v="98037" /><tag k="addr:city" v="Lynnwood" /><tag k="addr:street" v="Larch Way" /></node>
<node id="-1000069" lat="47.831886073" lon="-122.25651075" visible="true"><tag k="addr:housenumber" v="18331" /><tag k="addr:postcode" v="98037" /><tag k="addr:city" v="Lynnwood" /><tag k="addr:street" v="17th Place West" /></node>
<node id="-1000070" lat="47.832184537" lon="-122.249778487" visible="true"><tag k="addr:housenumber" v="1210" /><tag k="addr:postcode" v="98037" /><tag k="addr:city" v="Lynnwood" /><tag k="addr:street" v="183rd Street Southwest" /></node>
<node id="-1000071" lat="47.832062414" lon="-122.258241824" visible="true"><tag k="addr:housenumber" v="18325" /><tag k="addr:postcode" v="98037" /><tag k="addr:city" v="Lynnwood" /><tag k="addr:street" v="Butternut Road" /></node>
<node id="-1000072" lat="47.830197046" lon="-122.255339142" visible="true"><tag k="addr:housenumber" v="18516" /><tag k="addr:postcode" v="98037" /><tag k="addr:city" v="Lynnwood" /><tag k="addr:street" v="Butternut Road" /></node>
<node id="-1000073" lat="47.831822667" lon="-122.258173132" visible="true"><tag k="addr:housenumber" v="18331" /><tag k="addr:postcode" v="98037" /><tag k="addr:city" v="Lynnwood" /><tag k="addr:street" v="Butternut Road" /></node>
<node id="-1000074" lat="47.829231854" lon="-122.253853906" visible="true"><tag k="addr:housenumber" v="18619" /><tag k="addr:postcode" v="98037" /><tag k="addr:city" v="Lynnwood" /><tag k="addr:street" v="Butternut Road" /></node>
<node id="-1000075" lat="47.832983305" lon="-122.249007723" visible="true"><tag k="addr:housenumber" v="18203" /><tag k="addr:postcode" v="98037" /><tag k="addr:city" v="Lynnwood" /><tag k="addr:street" v="12th Avenue West" /></node>
<node id="-1000076" lat="47.834867941" lon="-122.256658496" visible="true"><tag k="addr:housenumber" v="1707" /><tag k="addr:postcode" v="98037" /><tag k="addr:city" v="Lynnwood" /><tag k="addr:street" v="180th Place Southwest" /></node>
<node id="-1000077" lat="47.829480096" lon="-122.25368053" visible="true"><tag k="addr:housenumber" v="18617" /><tag k="addr:postcode" v="98037" /><tag k="addr:city" v="Lynnwood" /><tag k="addr:street" v="Butternut Road" /></node>
<node id="-1000078" lat="47.829649416" lon="-122.255895056" visible="true"><tag k="addr:housenumber" v="18520" /><tag k="addr:postcode" v="98037" /><tag k="addr:city" v="Lynnwood" /><tag k="addr:street" v="Butternut Road" /></node>
<node id="-1000079" lat="47.829748423" lon="-122.253971619" visible="true"><tag k="addr:housenumber" v="18605" /><tag k="addr:postcode" v="98037" /><tag k="addr:city" v="Lynnwood" /><tag k="addr:street" v="Butternut Road" /></node>
<node id="-1000080" lat="47.831539617" lon="-122.25559014" visible="true"><tag k="addr:housenumber" v="18330" /><tag k="addr:postcode" v="98037" /><tag k="addr:city" v="Lynnwood" /><tag k="addr:street" v="16th Place West" /></node>
<node id="-1000081" lat="47.831540501" lon="-122.257086559" visible="true"><tag k="addr:housenumber" v="18410" /><tag k="addr:postcode" v="98037" /><tag k="addr:city" v="Lynnwood" /><tag k="addr:street" v="17th Place West" /></node>
<node id="-1000082" lat="47.831188474" lon="-122.255370255" visible="true"><tag k="addr:housenumber" v="18315" /><tag k="addr:postcode" v="98037" /><tag k="addr:city" v="Lynnwood" /><tag k="addr:street" v="16th Place West" /></node>
<node id="-1000083" lat="47.83253428" lon="-122.255443898" visible="true"><tag k="addr:housenumber" v="18322" /><tag k="addr:postcode" v="98037" /><tag k="addr:city" v="Lynnwood" /><tag k="addr:street" v="16th Place West" /></node>
<node id="-1000084" lat="47.832462507" lon="-122.257042499" visible="true"><tag k="addr:housenumber" v="18300" /><tag k="addr:postcode" v="98037" /><tag k="addr:city" v="Lynnwood" /><tag k="addr:street" v="17th Place West" /></node>
<node id="-1000085" lat="47.828599437" lon="-122.254024127" visible="true"><tag k="addr:housenumber" v="18702" /><tag k="addr:postcode" v="98037" /><tag k="addr:city" v="Lynnwood" /><tag k="addr:street" v="Butternut Road" /></node>
<node id="-1000086" lat="47.832987808" lon="-122.255373093" visible="true"><tag k="addr:housenumber" v="18220" /><tag k="addr:postcode" v="98037" /><tag k="addr:city" v="Lynnwood" /><tag k="addr:street" v="16th Place West" /></node>
<node id="-1000087" lat="47.83293673" lon="-122.257062119" visible="true"><tag k="addr:housenumber" v="18218" /><tag k="addr:postcode" v="98037" /><tag k="addr:city" v="Lynnwood" /><tag k="addr:street" v="17th Place West" /></node>
<node id="-1000088" lat="47.832099482" lon="-122.257133168" visible="true"><tag k="addr:housenumber" v="18322" /><tag k="addr:postcode" v="98037" /><tag k="addr:city" v="Lynnwood" /><tag k="addr:street" v="17th Place West" /></node>
<node id="-1000089" lat="47.829207845" lon="-122.256033225" visible="true"><tag k="addr:housenumber" v="18528" /><tag k="addr:postcode" v="98037" /><tag k="addr:city" v="Lynnwood" /><tag k="addr:street" v="Butternut Road" /></node>
<node id="-1000090" lat="47.830788586" lon="-122.257623563" visible="true"><tag k="addr:housenumber" v="18404" /><tag k="addr:postcode" v="98037" /><tag k="addr:city" v="Lynnwood" /><tag k="addr:street" v="Butternut Road" /></node>
<node id="-1000091" lat="47.829923717" lon="-122.25332814" visible="true"><tag k="addr:housenumber" v="18610" /><tag k="addr:postcode" v="98037" /><tag k="addr:city" v="Lynnwood" /><tag k="addr:street" v="Larch Way" /></node>
<node id="-1000092" lat="47.831921348" lon="-122.255615126" visible="true"><tag k="addr:housenumber" v="18326" /><tag k="addr:postcode" v="98037" /><tag k="addr:city" v="Lynnwood" /><tag k="addr:street" v="16th Place West" /></node>
<node id="-1000093" lat="47.830108823" lon="-122.256578494" visible="true"><tag k="addr:housenumber" v="18416" /><tag k="addr:postcode" v="98037" /><tag k="addr:city" v="Lynnwood" /><tag k="addr:street" v="Butternut Road" /></node>
<node id="-1000094" lat="47.836407577" lon="-122.255645355" visible="true"><tag k="addr:housenumber" v="1624" /><tag k="addr:postcode" v="98037" /><tag k="addr:city" v="Lynnwood" /><tag k="addr:street" v="Maple Road" /></node>
<node id="-1000095" lat="47.828947333" lon="-122.253646162" visible="true"><tag k="addr:housenumber" v="18705" /><tag k="addr:postcode" v="98037" /><tag k="addr:city" v="Lynnwood" /><tag k="addr:street" v="Butternut Road" /></node>
<node id="-1000096" lat="47.831085316" lon="-122.258489347" visible="true"><tag k="addr:housenumber" v="18332" /><tag k="addr:postcode" v="98037" /><tag k="addr:city" v="Lynnwood" /><tag k="addr:street" v="Butternut Road" /></node>
<node id="-1000097" lat="47.830653637" lon="-122.254829186" visible="true"><tag k="addr:housenumber" v="18527" /><tag k="addr:postcode" v="98037" /><tag k="addr:city" v="Lynnwood" /><tag k="addr:street" v="Butternut Road" /></node>
<node id="-1000098" lat="47.830961485" lon="-122.258050788" visible="true"><tag k="addr:housenumber" v="18402" /><tag k="addr:postcode" v="98037" /><tag k="addr:city" v="Lynnwood" /><tag k="addr:street" v="Butternut Road" /></node>
<node id="-1000099" lat="47.832021625" lon="-122.259208418" visible="true"><tag k="addr:housenumber" v="18330" /><tag k="addr:postcode" v="98037" /><tag k="addr:city" v="Lynnwood" /><tag k="addr:street" v="Butternut Road" /></node>
<node id="-1000100" lat="47.828952155" lon="-122.254214062" visible="true"><tag k="addr:housenumber" v="18700" /><tag k="addr:postcode" v="98037" /><tag k="addr:city" v="Lynnwood" /><tag k="addr:street" v="Butternut Road" /></node>
<node id="-1000101" lat="47.831571815" lon="-122.258005386" visible="true"><tag k="addr:housenumber" v="18409" /><tag k="addr:postcode" v="98037" /><tag k="addr:city" v="Lynnwood" /><tag k="addr:street" v="Butternut Road" /></node>
<node id="-1000102" lat="47.830025495" lon="-122.254069307" visible="true"><tag k="addr:housenumber" v="18603" /><tag k="addr:postcode" v="98037" /><tag k="addr:city" v="Lynnwood" /><tag k="addr:street" v="Butternut Road" /></node>
<node id="-1000103" lat="47.834451035" lon="-122.259130062" visible="true"><tag k="addr:housenumber" v="18112" /><tag k="addr:postcode" v="98037" /><tag k="addr:city" v="Lynnwood" /><tag k="addr:street" v="Butternut Road" /></node>
<node id="-1000104" lat="47.836106278" lon="-122.250162884" visible="true"><tag k="addr:housenumber" v="17830" /><tag k="addr:postcode" v="98037" /><tag k="addr:city" v="Lynnwood" /><tag k="addr:street" v="12th Place West" /></node>
<node id="-1000105" lat="47.836607419" lon="-122.250359326" visible="true"><tag k="addr:housenumber" v="1226" /><tag k="addr:postcode" v="98037" /><tag k="addr:city" v="Lynnwood" /><tag k="addr:street" v="178th Street Southwest" /></node>
<node id="-1000106" lat="47.836240134" lon="-122.250129035" visible="true"><tag k="addr:housenumber" v="17826" /><tag k="addr:postcode" v="98037" /><tag k="addr:city" v="Lynnwood" /><tag k="addr:street" v="12th Place West" /></node>
<node id="-1000107" lat="47.832936556" lon="-122.254841344" visible="true"><tag k="addr:housenumber" v="18225" /><tag k="addr:postcode" v="98037" /><tag k="addr:city" v="Lynnwood" /><tag k="addr:street" v="16th Place West" /></node>
<node id="-1000108" lat="47.835389645" lon="-122.257895215" visible="true"><tag k="addr:housenumber" v="1813" /><tag k="addr:postcode" v="98037" /><tag k="addr:city" v="Lynnwood" /><tag k="addr:street" v="180th Place Southwest" /></node>
<node id="-1000109" lat="47.835383277" lon="-122.257788932" visible="true"><tag k="addr:housenumber" v="1809" /><tag k="addr:postcode" v="98037" /><tag k="addr:city" v="Lynnwood" /><tag k="addr:street" v="180th Place Southwest" /></node>
<node id="-1000110" lat="47.835408423" lon="-122.253491814" visible="true"><tag k="addr:housenumber" v="17926" /><tag k="addr:postcode" v="98037" /><tag k="addr:city" v="Lynnwood" /><tag k="addr:street" v="14th Place West" /></node>
<node id="-1000111" lat="47.835472246" lon="-122.255084726" visible="true"><tag k="addr:housenumber" v="17924" /><tag k="addr:postcode" v="98037" /><tag k="addr:city" v="Lynnwood" /><tag k="addr:street" v="16th Avenue West" /></node>
<node id="-1000112" lat="47.836358265" lon="-122.25384161" visible="true"><tag k="addr:housenumber" v="1417" /><tag k="addr:postcode" v="98037" /><tag k="addr:city" v="Lynnwood" /><tag k="addr:street" v="179th Street Southwest" /></node>
<node id="-1000113" lat="47.833119496" lon="-122.25061079" visible="true"><tag k="addr:housenumber" v="1227" /><tag k="addr:postcode" v="98037" /><tag k="addr:city" v="Lynnwood" /><tag k="addr:street" v="182nd Street Southwest" /></node>
<node id="-1000114" lat="47.83283104" lon="-122.250188672" visible="true"><tag k="addr:housenumber" v="1220" /><tag k="addr:postcode" v="98037" /><tag k="addr:city" v="Lynnwood" /><tag k="addr:street" v="182nd Street Southwest" /></node>
<node id="-1000115" lat="47.833145295" lon="-122.25009037" visible="true"><tag k="addr:housenumber" v="1215" /><tag k="addr:postcode" v="98037" /><tag k="addr:city" v="Lynnwood" /><tag k="addr:street" v="182nd Street Southwest" /></node>
<node id="-1000116" lat="47.832893454" lon="-122.250529837" visible="true"><tag k="addr:housenumber" v="1224" /><tag k="addr:postcode" v="98037" /><tag k="addr:city" v="Lynnwood" /><tag k="addr:street" v="182nd Street Southwest" /></node>
<node id="-1000117" lat="47.832985249" lon="-122.250037014" visible="true"><tag k="addr:housenumber" v="1216" /><tag k="addr:postcode" v="98037" /><tag k="addr:city" v="Lynnwood" /><tag k="addr:street" v="182nd Street Southwest" /></node>
<node id="-1000118" lat="47.833194198" lon="-122.2503909" visible="true"><tag k="addr:housenumber" v="1221" /><tag k="addr:postcode" v="98037" /><tag k="addr:city" v="Lynnwood" /><tag k="addr:street" v="182nd Street Southwest" /></node>
<node id="-1000119" lat="47.835314869" lon="-122.258199264" visible="true"><tag k="addr:housenumber" v="1821" /><tag k="addr:postcode" v="98037" /><tag k="addr:city" v="Lynnwood" /><tag k="addr:street" v="180th Place Southwest" /></node>
<node id="-1000120" lat="47.833841132" lon="-122.250950314" visible="true"><tag k="addr:housenumber" v="1233" /><tag k="addr:postcode" v="98037" /><tag k="addr:city" v="Lynnwood" /><tag k="addr:street" v="181st Place Southwest" /></node>
<node id="-1000121" lat="47.833820664" lon="-122.249720054" visible="true"><tag k="addr:housenumber" v="1209" /><tag k="addr:postcode" v="98037" /><tag k="addr:city" v="Lynnwood" /><tag k="addr:street" v="181st Place Southwest" /></node>
<node id="-1000122" lat="47.833582964" lon="-122.250561028" visible="true"><tag k="addr:housenumber" v="1226" /><tag k="addr:postcode" v="98037" /><tag k="addr:city" v="Lynnwood" /><tag k="addr:street" v="181st Place Southwest" /></node>
<node id="-1000123" lat="47.833831379" lon="-122.250680374" visible="true"><tag k="addr:housenumber" v="1229" /><tag k="addr:postcode" v="98037" /><tag k="addr:city" v="Lynnwood" /><tag k="addr:street" v="181st Place Southwest" /></node>
<node id="-1000124" lat="47.83291383" lon="-122.251898963" visible="true"><tag k="addr:housenumber" v="1321" /><tag k="addr:postcode" v="98037" /><tag k="addr:city" v="Lynnwood" /><tag k="addr:street" v="182nd Street Southwest" /></node>
<node id="-1000125" lat="47.833596359" lon="-122.250795207" visible="true"><tag k="addr:housenumber" v="1230" /><tag k="addr:postcode" v="98037" /><tag k="addr:city" v="Lynnwood" /><tag k="addr:street" v="181st Place Southwest" /></node>
<node id="-1000126" lat="47.833587027" lon="-122.250233327" visible="true"><tag k="addr:housenumber" v="1218" /><tag k="addr:postcode" v="98037" /><tag k="addr:city" v="Lynnwood" /><tag k="addr:street" v="181st Place Southwest" /></node>
<node id="-1000127" lat="47.833834682" lon="-122.250358759" visible="true"><tag k="addr:housenumber" v="1225" /><tag k="addr:postcode" v="98037" /><tag k="addr:city" v="Lynnwood" /><tag k="addr:street" v="181st Place Southwest" /></node>
<node id="-1000128" lat="47.832998733" lon="-122.251350882" visible="true"><tag k="addr:housenumber" v="1303" /><tag k="addr:postcode" v="98037" /><tag k="addr:city" v="Lynnwood" /><tag k="addr:street" v="182nd Street Southwest" /></node>
<node id="-1000129" lat="47.832967949" lon="-122.251625574" visible="true"><tag k="addr:housenumber" v="1311" /><tag k="addr:postcode" v="98037" /><tag k="addr:city" v="Lynnwood" /><tag k="addr:street" v="182nd Street Southwest" /></node>
<node id="-1000130" lat="47.833584212" lon="-122.249907472" visible="true"><tag k="addr:housenumber" v="1212" /><tag k="addr:postcode" v="98037" /><tag k="addr:city" v="Lynnwood" /><tag k="addr:street" v="181st Place Southwest" /></node>
<node id="-1000131" lat="47.833836614" lon="-122.250037105" visible="true"><tag k="addr:housenumber" v="1217" /><tag k="addr:postcode" v="98037" /><tag k="addr:city" v="Lynnwood" /><tag k="addr:street" v="181st Place Southwest" /></node>
<node id="-1000132" lat="47.834930208" lon="-122.252475275" visible="true"><tag k="addr:housenumber" v="1410" /><tag k="addr:postcode" v="98037" /><tag k="addr:city" v="Lynnwood" /><tag k="addr:street" v="180th Street Southwest" /></node>
<node id="-1000133" lat="47.835006109" lon="-122.252223569" visible="true"><tag k="addr:housenumber" v="1402" /><tag k="addr:postcode" v="98037" /><tag k="addr:city" v="Lynnwood" /><tag k="addr:street" v="180th Street Southwest" /></node>
<node id="-1000134" lat="47.835468139" lon="-122.252553415" visible="true"><tag k="addr:housenumber" v="17922" /><tag k="addr:postcode" v="98037" /><tag k="addr:city" v="Lynnwood" /><tag k="addr:street" v="14th Avenue West" /></node>
<node id="-1000135" lat="47.835418408" lon="-122.253049785" visible="true"><tag k="addr:housenumber" v="17927" /><tag k="addr:postcode" v="98037" /><tag k="addr:city" v="Lynnwood" /><tag k="addr:street" v="14th Place West" /></node>
<node id="-1000136" lat="47.834776298" lon="-122.25329853" visible="true"><tag k="addr:housenumber" v="18008" /><tag k="addr:postcode" v="98037" /><tag k="addr:city" v="Lynnwood" /><tag k="addr:street" v="14th Place West" /></node>
<node id="-1000137" lat="47.834783582" lon="-122.253040252" visible="true"><tag k="addr:housenumber" v="18007" /><tag k="addr:postcode" v="98037" /><tag k="addr:city" v="Lynnwood" /><tag k="addr:street" v="14th Place West" /></node>
<node id="-1000138" lat="47.834904151" lon="-122.254152526" visible="true"><tag k="addr:housenumber" v="18006" /><tag k="addr:postcode" v="98037" /><tag k="addr:city" v="Lynnwood" /><tag k="addr:street" v="15th Avenue West" /></node>
<node id="-1000139" lat="47.834812926" lon="-122.253807724" visible="true"><tag k="addr:housenumber" v="18009" /><tag k="addr:postcode" v="98037" /><tag k="addr:city" v="Lynnwood" /><tag k="addr:street" v="15th Avenue West" /></node>
<node id="-1000140" lat="47.834989882" lon="-122.254895433" visible="true"><tag k="addr:housenumber" v="1524" /><tag k="addr:postcode" v="98037" /><tag k="addr:city" v="Lynnwood" /><tag k="addr:street" v="180th Street Southwest" /></node>
<node id="-1000141" lat="47.835620681" lon="-122.252209716" visible="true"><tag k="addr:housenumber" v="17917" /><tag k="addr:postcode" v="98037" /><tag k="addr:city" v="Lynnwood" /><tag k="addr:street" v="14th Avenue West" /></node>
<node id="-1000142" lat="47.834931608" lon="-122.25304329" visible="true"><tag k="addr:housenumber" v="18003" /><tag k="addr:postcode" v="98037" /><tag k="addr:city" v="Lynnwood" /><tag k="addr:street" v="14th Place West" /></node>
<node id="-1000143" lat="47.834602561" lon="-122.253090549" visible="true"><tag k="addr:housenumber" v="18015" /><tag k="addr:postcode" v="98037" /><tag k="addr:city" v="Lynnwood" /><tag k="addr:street" v="14th Place West" /></node>
<node id="-1000144" lat="47.834679364" lon="-122.253351811" visible="true"><tag k="addr:housenumber" v="18012" /><tag k="addr:postcode" v="98037" /><tag k="addr:city" v="Lynnwood" /><tag k="addr:street" v="14th Place West" /></node>
<node id="-1000145" lat="47.835518204" lon="-122.253048108" visible="true"><tag k="addr:housenumber" v="17921" /><tag k="addr:postcode" v="98037" /><tag k="addr:city" v="Lynnwood" /><tag k="addr:street" v="14th Place West" /></node>
<node id="-1000146" lat="47.83550092" lon="-122.252201374" visible="true"><tag k="addr:housenumber" v="17921" /><tag k="addr:postcode" v="98037" /><tag k="addr:city" v="Lynnwood" /><tag k="addr:street" v="14th Avenue West" /></node>
<node id="-1000147" lat="47.835867383" lon="-122.252215455" visible="true"><tag k="addr:housenumber" v="17909" /><tag k="addr:postcode" v="98037" /><tag k="addr:city" v="Lynnwood" /><tag k="addr:street" v="14th Avenue West" /></node>
<node id="-1000148" lat="47.836114084" lon="-122.252221193" visible="true"><tag k="addr:housenumber" v="17901" /><tag k="addr:postcode" v="98037" /><tag k="addr:city" v="Lynnwood" /><tag k="addr:street" v="14th Avenue West" /></node>
<node id="-1000149" lat="47.8364669" lon="-122.253024332" visible="true"><tag k="addr:housenumber" v="17821" /><tag k="addr:postcode" v="98037" /><tag k="addr:city" v="Lynnwood" /><tag k="addr:street" v="14th Place West" /></node>
<node id="-1000150" lat="47.836440946" lon="-122.253403035" visible="true"><tag k="addr:housenumber" v="17826" /><tag k="addr:postcode" v="98037" /><tag k="addr:city" v="Lynnwood" /><tag k="addr:street" v="14th Place West" /></node>
<node id="-1000151" lat="47.834588047" lon="-122.253241165" visible="true"><tag k="addr:housenumber" v="18016" /><tag k="addr:postcode" v="98037" /><tag k="addr:city" v="Lynnwood" /><tag k="addr:street" v="14th Place West" /></node>
<node id="-1000152" lat="47.834685954" lon="-122.253017611" visible="true"><tag k="addr:housenumber" v="18011" /><tag k="addr:postcode" v="98037" /><tag k="addr:city" v="Lynnwood" /><tag k="addr:street" v="14th Place West" /></node>
<node id="-1000153" lat="47.835254243" lon="-122.2521936" visible="true"><tag k="addr:housenumber" v="17929" /><tag k="addr:postcode" v="98037" /><tag k="addr:city" v="Lynnwood" /><tag k="addr:street" v="14th Avenue West" /></node>
<node id="-1000154" lat="47.835377575" lon="-122.252197996" visible="true"><tag k="addr:housenumber" v="17925" /><tag k="addr:postcode" v="98037" /><tag k="addr:city" v="Lynnwood" /><tag k="addr:street" v="14th Avenue West" /></node>
<node id="-1000155" lat="47.83599074" lon="-122.252217815" visible="true"><tag k="addr:housenumber" v="17905" /><tag k="addr:postcode" v="98037" /><tag k="addr:city" v="Lynnwood" /><tag k="addr:street" v="14th Avenue West" /></node>
<node id="-1000156" lat="47.836237441" lon="-122.252223553" visible="true"><tag k="addr:housenumber" v="17831" /><tag k="addr:postcode" v="98037" /><tag k="addr:city" v="Lynnwood" /><tag k="addr:street" v="14th Avenue West" /></node>
<node id="-1000157" lat="47.83526078" lon="-122.25255045" visible="true"><tag k="addr:housenumber" v="17930" /><tag k="addr:postcode" v="98037" /><tag k="addr:city" v="Lynnwood" /><tag k="addr:street" v="14th Avenue West" /></node>
<node id="-1000158" lat="47.835388997" lon="-122.252547853" visible="true"><tag k="addr:housenumber" v="17926" /><tag k="addr:postcode" v="98037" /><tag k="addr:city" v="Lynnwood" /><tag k="addr:street" v="14th Avenue West" /></node>
<node id="-1000159" lat="47.834780866" lon="-122.254168828" visible="true"><tag k="addr:housenumber" v="18010" /><tag k="addr:postcode" v="98037" /><tag k="addr:city" v="Lynnwood" /><tag k="addr:street" v="15th Avenue West" /></node>
<node id="-1000160" lat="47.83490935" lon="-122.254493952" visible="true"><tag k="addr:housenumber" v="1512" /><tag k="addr:postcode" v="98037" /><tag k="addr:city" v="Lynnwood" /><tag k="addr:street" v="180th Street Southwest" /></node>
<node id="-1000161" lat="47.835963033" lon="-122.252585976" visible="true"><tag k="addr:housenumber" v="17906" /><tag k="addr:postcode" v="98037" /><tag k="addr:city" v="Lynnwood" /><tag k="addr:street" v="14th Avenue West" /></node>
<node id="-1000162" lat="47.836749937" lon="-122.252588189" visible="true"><tag k="addr:housenumber" v="17814" /><tag k="addr:postcode" v="98037" /><tag k="addr:city" v="Lynnwood" /><tag k="addr:street" v="14th Avenue West" /></node>
<node id="-1000163" lat="47.836696176" lon="-122.25211499" visible="true"><tag k="addr:housenumber" v="17815" /><tag k="addr:postcode" v="98037" /><tag k="addr:city" v="Lynnwood" /><tag k="addr:street" v="14th Avenue West" /></node>
<node id="-1000164" lat="47.835133974" lon="-122.252187931" visible="true"><tag k="addr:housenumber" v="17933" /><tag k="addr:postcode" v="98037" /><tag k="addr:city" v="Lynnwood" /><tag k="addr:street" v="14th Avenue West" /></node>
<node id="-1000165" lat="47.834482074" lon="-122.25416267" visible="true"><tag k="addr:housenumber" v="18018" /><tag k="addr:postcode" v="98037" /><tag k="addr:city" v="Lynnwood" /><tag k="addr:street" v="15th Avenue West" /></node>
<node id="-1000166" lat="47.834632841" lon="-122.254165787" visible="true"><tag k="addr:housenumber" v="18014" /><tag k="addr:postcode" v="98037" /><tag k="addr:city" v="Lynnwood" /><tag k="addr:street" v="15th Avenue West" /></node>
<node id="-1000167" lat="47.835657905" lon="-122.253053068" visible="true"><tag k="addr:housenumber" v="17915" /><tag k="addr:postcode" v="98037" /><tag k="addr:city" v="Lynnwood" /><tag k="addr:street" v="14th Place West" /></node>
<node id="-1000168" lat="47.835957447" lon="-122.25305415" visible="true"><tag k="addr:housenumber" v="17905" /><tag k="addr:postcode" v="98037" /><tag k="addr:city" v="Lynnwood" /><tag k="addr:street" v="14th Place West" /></node>
<node id="-1000169" lat="47.836927538" lon="-122.253840024" visible="true"><tag k="addr:housenumber" v="1510" /><tag k="addr:postcode" v="98037" /><tag k="addr:city" v="Lynnwood" /><tag k="addr:street" v="Maple Road" /></node>
<node id="-1000170" lat="47.834924324" lon="-122.253301569" visible="true"><tag k="addr:housenumber" v="18004" /><tag k="addr:postcode" v="98037" /><tag k="addr:city" v="Lynnwood" /><tag k="addr:street" v="14th Place West" /></node>
<node id="-1000171" lat="47.834967983" lon="-122.252693218" visible="true"><tag k="addr:housenumber" v="1414" /><tag k="addr:postcode" v="98037" /><tag k="addr:city" v="Lynnwood" /><tag k="addr:street" v="180th Street Southwest" /></node>
<node id="-1000172" lat="47.834515467" lon="-122.253804659" visible="true"><tag k="addr:housenumber" v="18017" /><tag k="addr:postcode" v="98037" /><tag k="addr:city" v="Lynnwood" /><tag k="addr:street" v="15th Avenue West" /></node>
<node id="-1000173" lat="47.834944319" lon="-122.254700746" visible="true"><tag k="addr:housenumber" v="1518" /><tag k="addr:postcode" v="98037" /><tag k="addr:city" v="Lynnwood" /><tag k="addr:street" v="180th Street Southwest" /></node>
<node id="-1000174" lat="47.835616792" lon="-122.252573437" visible="true"><tag k="addr:housenumber" v="17918" /><tag k="addr:postcode" v="98037" /><tag k="addr:city" v="Lynnwood" /><tag k="addr:street" v="14th Avenue West" /></node>
<node id="-1000175" lat="47.836561565" lon="-122.252577259" visible="true"><tag k="addr:housenumber" v="17822" /><tag k="addr:postcode" v="98037" /><tag k="addr:city" v="Lynnwood" /><tag k="addr:street" v="14th Avenue West" /></node>
<node id="-1000176" lat="47.836713287" lon="-122.253276109" visible="true"><tag k="addr:housenumber" v="17812" /><tag k="addr:postcode" v="98037" /><tag k="addr:city" v="Lynnwood" /><tag k="addr:street" v="14th Place West" /></node>
<node id="-1000177" lat="47.834935788" lon="-122.252268137" visible="true"><tag k="addr:housenumber" v="1406" /><tag k="addr:postcode" v="98037" /><tag k="addr:city" v="Lynnwood" /><tag k="addr:street" v="180th Street Southwest" /></node>
<node id="-1000178" lat="47.83526976" lon="-122.253041639" visible="true"><tag k="addr:housenumber" v="17931" /><tag k="addr:postcode" v="98037" /><tag k="addr:city" v="Lynnwood" /><tag k="addr:street" v="14th Place West" /></node>
<node id="-1000179" lat="47.834910079" lon="-122.25381661" visible="true"><tag k="addr:housenumber" v="18005" /><tag k="addr:postcode" v="98037" /><tag k="addr:city" v="Lynnwood" /><tag k="addr:street" v="15th Avenue West" /></node>
<node id="-1000180" lat="47.834664901" lon="-122.253804684" visible="true"><tag k="addr:housenumber" v="18013" /><tag k="addr:postcode" v="98037" /><tag k="addr:city" v="Lynnwood" /><tag k="addr:street" v="15th Avenue West" /></node>
<node id="-1000181" lat="47.835744038" lon="-122.252212076" visible="true"><tag k="addr:housenumber" v="17913" /><tag k="addr:postcode" v="98037" /><tag k="addr:city" v="Lynnwood" /><tag k="addr:street" v="14th Avenue West" /></node>
<node id="-1000182" lat="47.835740149" lon="-122.252575798" visible="true"><tag k="addr:housenumber" v="17914" /><tag k="addr:postcode" v="98037" /><tag k="addr:city" v="Lynnwood" /><tag k="addr:street" v="14th Avenue West" /></node>
<node id="-1000183" lat="47.835808671" lon="-122.253056181" visible="true"><tag k="addr:housenumber" v="17909" /><tag k="addr:postcode" v="98037" /><tag k="addr:city" v="Lynnwood" /><tag k="addr:street" v="14th Place West" /></node>
<node id="-1000184" lat="47.836333888" lon="-122.253063447" visible="true"><tag k="addr:housenumber" v="17829" /><tag k="addr:postcode" v="98037" /><tag k="addr:city" v="Lynnwood" /><tag k="addr:street" v="14th Place West" /></node>
<node id="-1000185" lat="47.836767104" lon="-122.252456983" visible="true"><tag k="addr:housenumber" v="17810" /><tag k="addr:postcode" v="98037" /><tag k="addr:city" v="Lynnwood" /><tag k="addr:street" v="14th Avenue West" /></node>
<node id="-1000186" lat="47.836797121" lon="-122.253336212" visible="true"><tag k="addr:housenumber" v="17808" /><tag k="addr:postcode" v="98037" /><tag k="addr:city" v="Lynnwood" /><tag k="addr:street" v="14th Place West" /></node>
<node id="-1000187" lat="47.836863279" lon="-122.253139325" visible="true"><tag k="addr:housenumber" v="17804" /><tag k="addr:postcode" v="98037" /><tag k="addr:city" v="Lynnwood" /><tag k="addr:street" v="14th Place West" /></node>
<node id="-1000188" lat="47.832852477" lon="-122.252211648" visible="true"><tag k="addr:housenumber" v="1333" /><tag k="addr:postcode" v="98037" /><tag k="addr:city" v="Lynnwood" /><tag k="addr:street" v="182nd Street Southwest" /></node>
<node id="-1000189" lat="47.834411822" lon="-122.258388733" visible="true"><tag k="addr:housenumber" v="1822" /><tag k="addr:postcode" v="98037" /><tag k="addr:city" v="Lynnwood" /><tag k="addr:street" v="181st Street Southwest" /></node>
<node id="-1000190" lat="47.834631843" lon="-122.258564294" visible="true"><tag k="addr:housenumber" v="1827" /><tag k="addr:postcode" v="98037" /><tag k="addr:city" v="Lynnwood" /><tag k="addr:street" v="181st Street Southwest" /></node>
<node id="-1000191" lat="47.834928236" lon="-122.257046005" visible="true"><tag k="addr:housenumber" v="1719" /><tag k="addr:postcode" v="98037" /><tag k="addr:city" v="Lynnwood" /><tag k="addr:street" v="180th Place Southwest" /></node>
<node id="-1000192" lat="47.836327144" lon="-122.253422315" visible="true"><tag k="addr:housenumber" v="17830" /><tag k="addr:postcode" v="98037" /><tag k="addr:city" v="Lynnwood" /><tag k="addr:street" v="14th Place West" /></node>
<node id="-1000193" lat="47.836576862" lon="-122.253332438" visible="true"><tag k="addr:housenumber" v="17818" /><tag k="addr:postcode" v="98037" /><tag k="addr:city" v="Lynnwood" /><tag k="addr:street" v="14th Place West" /></node>
<node id="-1000194" lat="47.832592176" lon="-122.252129524" visible="true"><tag k="addr:housenumber" v="1332" /><tag k="addr:postcode" v="98037" /><tag k="addr:city" v="Lynnwood" /><tag k="addr:street" v="182nd Street Southwest" /></node>
<node id="-1000195" lat="47.835247326" lon="-122.253492489" visible="true"><tag k="addr:housenumber" v="1405" /><tag k="addr:postcode" v="98037" /><tag k="addr:city" v="Lynnwood" /><tag k="addr:street" v="180th Street Southwest" /></node>
<node id="-1000196" lat="47.834908236" lon="-122.258607756" visible="true"><tag k="addr:housenumber" v="18019" /><tag k="addr:postcode" v="98037" /><tag k="addr:city" v="Lynnwood" /><tag k="addr:street" v="Butternut Road" /></node>
<node id="-1000197" lat="47.833178165" lon="-122.252959215" visible="true"><tag k="addr:housenumber" v="18115" /><tag k="addr:postcode" v="98037" /><tag k="addr:city" v="Lynnwood" /><tag k="addr:street" v="15th Avenue West" /></node>
<node id="-1000198" lat="47.835570154" lon="-122.253495229" visible="true"><tag k="addr:housenumber" v="17920" /><tag k="addr:postcode" v="98037" /><tag k="addr:city" v="Lynnwood" /><tag k="addr:street" v="14th Place West" /></node>
<node id="-1000199" lat="47.832562455" lon="-122.252492826" visible="true"><tag k="addr:housenumber" v="18132" /><tag k="addr:postcode" v="98037" /><tag k="addr:city" v="Lynnwood" /><tag k="addr:street" v="15th Avenue West" /></node>
<node id="-1000200" lat="47.834447216" lon="-122.258631781" visible="true"><tag k="addr:housenumber" v="1828" /><tag k="addr:postcode" v="98037" /><tag k="addr:city" v="Lynnwood" /><tag k="addr:street" v="181st Street Southwest" /></node>
<node id="-1000201" lat="47.832886068" lon="-122.252487438" visible="true"><tag k="addr:housenumber" v="18127" /><tag k="addr:postcode" v="98037" /><tag k="addr:city" v="Lynnwood" /><tag k="addr:street" v="15th Avenue West" /></node>
<node id="-1000202" lat="47.835171225" lon="-122.258064659" visible="true"><tag k="addr:housenumber" v="1817" /><tag k="addr:postcode" v="98037" /><tag k="addr:city" v="Lynnwood" /><tag k="addr:street" v="180th Place Southwest" /></node>
<node id="-1000203" lat="47.836360126" lon="-122.252224877" visible="true"><tag k="addr:housenumber" v="17827" /><tag k="addr:postcode" v="98037" /><tag k="addr:city" v="Lynnwood" /><tag k="addr:street" v="14th Avenue West" /></node>
<node id="-1000204" lat="47.835863495" lon="-122.252579177" visible="true"><tag k="addr:housenumber" v="17910" /><tag k="addr:postcode" v="98037" /><tag k="addr:city" v="Lynnwood" /><tag k="addr:street" v="14th Avenue West" /></node>
<node id="-1000205" lat="47.836438209" lon="-122.252574898" visible="true"><tag k="addr:housenumber" v="17826" /><tag k="addr:postcode" v="98037" /><tag k="addr:city" v="Lynnwood" /><tag k="addr:street" v="14th Avenue West" /></node>
<node id="-1000206" lat="47.836309991" lon="-122.252577495" visible="true"><tag k="addr:housenumber" v="17830" /><tag k="addr:postcode" v="98037" /><tag k="addr:city" v="Lynnwood" /><tag k="addr:street" v="14th Avenue West" /></node>
<node id="-1000207" lat="47.833031157" lon="-122.252763794" visible="true"><tag k="addr:housenumber" v="18123" /><tag k="addr:postcode" v="98037" /><tag k="addr:city" v="Lynnwood" /><tag k="addr:street" v="15th Avenue West" /></node>
<node id="-1000208" lat="47.835797206" lon="-122.247136769" visible="true"><tag k="addr:housenumber" v="17910" /><tag k="addr:postcode" v="98037" /><tag k="addr:city" v="Lynnwood" /><tag k="addr:street" v="Larch Way" /></node>
<node id="-1000209" lat="47.83444513" lon="-122.258151589" visible="true"><tag k="addr:housenumber" v="1818" /><tag k="addr:postcode" v="98037" /><tag k="addr:city" v="Lynnwood" /><tag k="addr:street" v="181st Street Southwest" /></node>
<node id="-1000210" lat="47.834604572" lon="-122.258100376" visible="true"><tag k="addr:housenumber" v="1817" /><tag k="addr:postcode" v="98037" /><tag k="addr:city" v="Lynnwood" /><tag k="addr:street" v="181st Street Southwest" /></node>
<node id="-1000211" lat="47.835122376" lon="-122.257712416" visible="true"><tag k="addr:housenumber" v="1805" /><tag k="addr:postcode" v="98037" /><tag k="addr:city" v="Lynnwood" /><tag k="addr:street" v="180th Place Southwest" /></node>
<node id="-1000212" lat="47.832284579" lon="-122.24714295" visible="true"><tag k="addr:housenumber" v="1014" /><tag k="addr:postcode" v="98037" /><tag k="addr:city" v="Lynnwood" /><tag k="addr:street" v="183rd Street Southwest" /></node>
<node id="-1000213" lat="47.83262226" lon="-122.247471827" visible="true"><tag k="addr:housenumber" v="1025" /><tag k="addr:postcode" v="98037" /><tag k="addr:city" v="Lynnwood" /><tag k="addr:street" v="183rd Street Southwest" /></node>
<node id="-1000214" lat="47.832269675" lon="-122.247436527" visible="true"><tag k="addr:housenumber" v="1024" /><tag k="addr:postcode" v="98037" /><tag k="addr:city" v="Lynnwood" /><tag k="addr:street" v="183rd Street Southwest" /></node>
<node id="-1000215" lat="47.832601721" lon="-122.246650845" visible="true"><tag k="addr:housenumber" v="1001" /><tag k="addr:postcode" v="98037" /><tag k="addr:city" v="Lynnwood" /><tag k="addr:street" v="183rd Street Southwest" /></node>
<node id="-1000216" lat="47.832323584" lon="-122.246828311" visible="true"><tag k="addr:housenumber" v="1006" /><tag k="addr:postcode" v="98037" /><tag k="addr:city" v="Lynnwood" /><tag k="addr:street" v="183rd Street Southwest" /></node>
<node id="-1000217" lat="47.832648896" lon="-122.247251979" visible="true"><tag k="addr:housenumber" v="1017" /><tag k="addr:postcode" v="98037" /><tag k="addr:city" v="Lynnwood" /><tag k="addr:street" v="183rd Street Southwest" /></node>
<node id="-1000218" lat="47.83259499" lon="-122.246973378" visible="true"><tag k="addr:housenumber" v="1009" /><tag k="addr:postcode" v="98037" /><tag k="addr:city" v="Lynnwood" /><tag k="addr:street" v="183rd Street Southwest" /></node>
<node id="-1000219" lat="47.832397987" lon="-122.247524751" visible="true"><tag k="addr:housenumber" v="1028" /><tag k="addr:postcode" v="98037" /><tag k="addr:city" v="Lynnwood" /><tag k="addr:street" v="183rd Street Southwest" /></node>
<node id="-1000220" lat="47.835459514" lon="-122.25476119" visible="true"><tag k="addr:housenumber" v="17923" /><tag k="addr:postcode" v="98037" /><tag k="addr:city" v="Lynnwood" /><tag k="addr:street" v="16th Avenue West" /></node>
<node id="-1000221" lat="47.835511248" lon="-122.254165556" visible="true"><tag k="addr:housenumber" v="17922" /><tag k="addr:postcode" v="98037" /><tag k="addr:city" v="Lynnwood" /><tag k="addr:street" v="15th Avenue West" /></node>
<node id="-1000222" lat="47.835575006" lon="-122.255089696" visible="true"><tag k="addr:housenumber" v="17920" /><tag k="addr:postcode" v="98037" /><tag k="addr:city" v="Lynnwood" /><tag k="addr:street" v="16th Avenue West" /></node>
<node id="-1000223" lat="47.835713312" lon="-122.255102654" visible="true"><tag k="addr:housenumber" v="17914" /><tag k="addr:postcode" v="98037" /><tag k="addr:city" v="Lynnwood" /><tag k="addr:street" v="16th Avenue West" /></node>
<node id="-1000224" lat="47.835654534" lon="-122.256257597" visible="true"><tag k="addr:housenumber" v="1623" /><tag k="addr:postcode" v="98037" /><tag k="addr:city" v="Lynnwood" /><tag k="addr:street" v="180th Street Southwest" /></node>
<node id="-1000225" lat="47.835639501" lon="-122.254104934" visible="true"><tag k="addr:housenumber" v="17917" /><tag k="addr:postcode" v="98037" /><tag k="addr:city" v="Lynnwood" /><tag k="addr:street" v="15th Avenue West" /></node>
<node id="-1000226" lat="47.835760221" lon="-122.256633122" visible="true"><tag k="addr:housenumber" v="1627" /><tag k="addr:postcode" v="98037" /><tag k="addr:city" v="Lynnwood" /><tag k="addr:street" v="180th Street Southwest" /></node>
<node id="-1000227" lat="47.83553811" lon="-122.253916294" visible="true"><tag k="addr:housenumber" v="17921" /><tag k="addr:postcode" v="98037" /><tag k="addr:city" v="Lynnwood" /><tag k="addr:street" v="15th Avenue West" /></node>
<node id="-1000228" lat="47.835506168" lon="-122.255731241" visible="true"><tag k="addr:housenumber" v="1613" /><tag k="addr:postcode" v="98037" /><tag k="addr:city" v="Lynnwood" /><tag k="addr:street" v="180th Street Southwest" /></node>
<node id="-1000229" lat="47.835559354" lon="-122.255919012" visible="true"><tag k="addr:housenumber" v="1617" /><tag k="addr:postcode" v="98037" /><tag k="addr:city" v="Lynnwood" /><tag k="addr:street" v="180th Street Southwest" /></node>
<node id="-1000230" lat="47.835707034" lon="-122.25644535" visible="true"><tag k="addr:housenumber" v="1625" /><tag k="addr:postcode" v="98037" /><tag k="addr:city" v="Lynnwood" /><tag k="addr:street" v="180th Street Southwest" /></node>
<node id="-1000231" lat="47.83581201" lon="-122.256822893" visible="true"><tag k="addr:housenumber" v="1629" /><tag k="addr:postcode" v="98037" /><tag k="addr:city" v="Lynnwood" /><tag k="addr:street" v="180th Street Southwest" /></node>
<node id="-1000232" lat="47.835685364" lon="-122.254747138" visible="true"><tag k="addr:housenumber" v="17915" /><tag k="addr:postcode" v="98037" /><tag k="addr:city" v="Lynnwood" /><tag k="addr:street" v="16th Avenue West" /></node>
<node id="-1000233" lat="47.835548303" lon="-122.254744396" visible="true"><tag k="addr:housenumber" v="17919" /><tag k="addr:postcode" v="98037" /><tag k="addr:city" v="Lynnwood" /><tag k="addr:street" v="16th Avenue West" /></node>
<node id="-1000234" lat="47.835848877" lon="-122.255115537" visible="true"><tag k="addr:housenumber" v="17908" /><tag k="addr:postcode" v="98037" /><tag k="addr:city" v="Lynnwood" /><tag k="addr:street" v="16th Avenue West" /></node>
<node id="-1000235" lat="47.835958645" lon="-122.255096038" visible="true"><tag k="addr:housenumber" v="17902" /><tag k="addr:postcode" v="98037" /><tag k="addr:city" v="Lynnwood" /><tag k="addr:street" v="16th Avenue West" /></node>
<node id="-1000236" lat="47.835957484" lon="-122.254748495" visible="true"><tag k="addr:housenumber" v="17903" /><tag k="addr:postcode" v="98037" /><tag k="addr:city" v="Lynnwood" /><tag k="addr:street" v="16th Avenue West" /></node>
<node id="-1000237" lat="47.835822427" lon="-122.25474988" visible="true"><tag k="addr:housenumber" v="17907" /><tag k="addr:postcode" v="98037" /><tag k="addr:city" v="Lynnwood" /><tag k="addr:street" v="16th Avenue West" /></node>
<node id="-1000238" lat="47.835395566" lon="-122.253913404" visible="true"><tag k="addr:housenumber" v="17925" /><tag k="addr:postcode" v="98037" /><tag k="addr:city" v="Lynnwood" /><tag k="addr:street" v="15th Avenue West" /></node>
<node id="-1000239" lat="47.83547213" lon="-122.255547049" visible="true"><tag k="addr:housenumber" v="1609" /><tag k="addr:postcode" v="98037" /><tag k="addr:city" v="Lynnwood" /><tag k="addr:street" v="180th Street Southwest" /></node>
<node id="-1000240" lat="47.835791167" lon="-122.255897097" visible="true"><tag k="addr:housenumber" v="1619" /><tag k="addr:postcode" v="98037" /><tag k="addr:city" v="Lynnwood" /><tag k="addr:street" v="180th Street Southwest" /></node>
<node id="-1000241" lat="47.834582904" lon="-122.255425018" visible="true"><tag k="addr:housenumber" v="1625" /><tag k="addr:postcode" v="98037" /><tag k="addr:city" v="Lynnwood" /><tag k="addr:street" v="180th Place Southwest" /></node>
<node id="-1000242" lat="47.83524617" lon="-122.253910326" visible="true"><tag k="addr:housenumber" v="17929" /><tag k="addr:postcode" v="98037" /><tag k="addr:city" v="Lynnwood" /><tag k="addr:street" v="15th Avenue West" /></node>
<node id="-1000243" lat="47.835230271" lon="-122.254159887" visible="true"><tag k="addr:housenumber" v="17928" /><tag k="addr:postcode" v="98037" /><tag k="addr:city" v="Lynnwood" /><tag k="addr:street" v="15th Avenue West" /></node>
<node id="-1000244" lat="47.835352653" lon="-122.254859275" visible="true"><tag k="addr:housenumber" v="17929" /><tag k="addr:postcode" v="98037" /><tag k="addr:city" v="Lynnwood" /><tag k="addr:street" v="16th Avenue West" /></node>
<node id="-1000245" lat="47.834721763" lon="-122.255925877" visible="true"><tag k="addr:housenumber" v="1631" /><tag k="addr:postcode" v="98037" /><tag k="addr:city" v="Lynnwood" /><tag k="addr:street" v="180th Place Southwest" /></node>
<node id="-1000246" lat="47.835374186" lon="-122.254162815" visible="true"><tag k="addr:housenumber" v="17924" /><tag k="addr:postcode" v="98037" /><tag k="addr:city" v="Lynnwood" /><tag k="addr:street" v="15th Avenue West" /></node>
<node id="-1000247" lat="47.835821789" lon="-122.256025313" visible="true"><tag k="addr:housenumber" v="1621" /><tag k="addr:postcode" v="98037" /><tag k="addr:city" v="Lynnwood" /><tag k="addr:street" v="180th Street Southwest" /></node>
<node id="-1000248" lat="47.836874488" lon="-122.254829424" visible="true"><tag k="addr:housenumber" v="17805" /><tag k="addr:postcode" v="98037" /><tag k="addr:city" v="Lynnwood" /><tag k="addr:street" v="16th Avenue West" /></node>
<node id="-1000249" lat="47.835312155" lon="-122.256008264" visible="true"><tag k="addr:housenumber" v="1616" /><tag k="addr:postcode" v="98037" /><tag k="addr:city" v="Lynnwood" /><tag k="addr:street" v="180th Street Southwest" /></node>
<node id="-1000250" lat="47.835258969" lon="-122.255820494" visible="true"><tag k="addr:housenumber" v="1612" /><tag k="addr:postcode" v="98037" /><tag k="addr:city" v="Lynnwood" /><tag k="addr:street" v="180th Street Southwest" /></node>
<node id="-1000251" lat="47.835100547" lon="-122.25689701" visible="true"><tag k="addr:housenumber" v="1715" /><tag k="addr:postcode" v="98037" /><tag k="addr:city" v="Lynnwood" /><tag k="addr:street" v="180th Place Southwest" /></node>
<node id="-1000252" lat="47.835206467" lon="-122.255632743" visible="true"><tag k="addr:housenumber" v="1608" /><tag k="addr:postcode" v="98037" /><tag k="addr:city" v="Lynnwood" /><tag k="addr:street" v="180th Street Southwest" /></node>
<node id="-1000253" lat="47.835364656" lon="-122.256196017" visible="true"><tag k="addr:housenumber" v="1620" /><tag k="addr:postcode" v="98037" /><tag k="addr:city" v="Lynnwood" /><tag k="addr:street" v="180th Street Southwest" /></node>
<node id="-1000254" lat="47.83643296" lon="-122.254774437" visible="true"><tag k="addr:housenumber" v="17825" /><tag k="addr:postcode" v="98037" /><tag k="addr:city" v="Lynnwood" /><tag k="addr:street" v="16th Avenue West" /></node>
<node id="-1000255" lat="47.835048288" lon="-122.255068455" visible="true"><tag k="addr:housenumber" v="1530" /><tag k="addr:postcode" v="98037" /><tag k="addr:city" v="Lynnwood" /><tag k="addr:street" v="180th Street Southwest" /></node>
<node id="-1000256" lat="47.836297344" lon="-122.254765625" visible="true"><tag k="addr:housenumber" v="17831" /><tag k="addr:postcode" v="98037" /><tag k="addr:city" v="Lynnwood" /><tag k="addr:street" v="16th Avenue West" /></node>
<node id="-1000257" lat="47.836223046" lon="-122.255350354" visible="true"><tag k="addr:housenumber" v="1609" /><tag k="addr:postcode" v="98037" /><tag k="addr:city" v="Lynnwood" /><tag k="addr:street" v="179th Street Southwest" /></node>
<node id="-1000258" lat="47.83622123" lon="-122.255184127" visible="true"><tag k="addr:housenumber" v="1605" /><tag k="addr:postcode" v="98037" /><tag k="addr:city" v="Lynnwood" /><tag k="addr:street" v="179th Street Southwest" /></node>
<node id="-1000259" lat="47.835417843" lon="-122.256383787" visible="true"><tag k="addr:housenumber" v="1622" /><tag k="addr:postcode" v="98037" /><tag k="addr:city" v="Lynnwood" /><tag k="addr:street" v="180th Street Southwest" /></node>
<node id="-1000260" lat="47.835100778" lon="-122.255257222" visible="true"><tag k="addr:housenumber" v="1602" /><tag k="addr:postcode" v="98037" /><tag k="addr:city" v="Lynnwood" /><tag k="addr:street" v="180th Street Southwest" /></node>
<node id="-1000261" lat="47.836801727" lon="-122.254776182" visible="true"><tag k="addr:housenumber" v="17807" /><tag k="addr:postcode" v="98037" /><tag k="addr:city" v="Lynnwood" /><tag k="addr:street" v="16th Avenue West" /></node>
<node id="-1000262" lat="47.835470343" lon="-122.256571539" visible="true"><tag k="addr:housenumber" v="1624" /><tag k="addr:postcode" v="98037" /><tag k="addr:city" v="Lynnwood" /><tag k="addr:street" v="180th Street Southwest" /></node>
<node id="-1000263" lat="47.835523529" lon="-122.256759311" visible="true"><tag k="addr:housenumber" v="1626" /><tag k="addr:postcode" v="98037" /><tag k="addr:city" v="Lynnwood" /><tag k="addr:street" v="180th Street Southwest" /></node>
<node id="-1000264" lat="47.83515328" lon="-122.255444972" visible="true"><tag k="addr:housenumber" v="1606" /><tag k="addr:postcode" v="98037" /><tag k="addr:city" v="Lynnwood" /><tag k="addr:street" v="180th Street Southwest" /></node>
<node id="-1000265" lat="47.835023864" lon="-122.25674909" visible="true"><tag k="addr:housenumber" v="1711" /><tag k="addr:postcode" v="98037" /><tag k="addr:city" v="Lynnwood" /><tag k="addr:street" v="180th Place Southwest" /></node>
<node id="-1000266" lat="47.836664703" lon="-122.254770387" visible="true"><tag k="addr:housenumber" v="17813" /><tag k="addr:postcode" v="98037" /><tag k="addr:city" v="Lynnwood" /><tag k="addr:street" v="16th Avenue West" /></node>
<node id="-1000267" lat="47.835637132" lon="-122.25715949" visible="true"><tag k="addr:housenumber" v="1630" /><tag k="addr:postcode" v="98037" /><tag k="addr:city" v="Lynnwood" /><tag k="addr:street" v="180th Street Southwest" /></node>
<node id="-1000268" lat="47.835578668" lon="-122.256955283" visible="true"><tag k="addr:housenumber" v="1628" /><tag k="addr:postcode" v="98037" /><tag k="addr:city" v="Lynnwood" /><tag k="addr:street" v="180th Street Southwest" /></node>
<node id="-1000269" lat="47.836528935" lon="-122.254773788" visible="true"><tag k="addr:housenumber" v="17819" /><tag k="addr:postcode" v="98037" /><tag k="addr:city" v="Lynnwood" /><tag k="addr:street" v="16th Avenue West" /></node>
<node id="-1000270" lat="47.836503683" lon="-122.255101719" visible="true"><tag k="addr:housenumber" v="17820" /><tag k="addr:postcode" v="98037" /><tag k="addr:city" v="Lynnwood" /><tag k="addr:street" v="16th Avenue West" /></node>
<node id="-1000271" lat="47.836820465" lon="-122.249690299" visible="true"><tag k="addr:housenumber" v="1208" /><tag k="addr:postcode" v="98037" /><tag k="addr:city" v="Lynnwood" /><tag k="addr:street" v="178th Street Southwest" /></node>
<node id="-1000272" lat="47.836095431" lon="-122.24980908" visible="true"><tag k="addr:housenumber" v="17827" /><tag k="addr:postcode" v="98037" /><tag k="addr:city" v="Lynnwood" /><tag k="addr:street" v="12th Place West" /></node>
<node id="-1000273" lat="47.836239726" lon="-122.249854701" visible="true"><tag k="addr:housenumber" v="17823" /><tag k="addr:postcode" v="98037" /><tag k="addr:city" v="Lynnwood" /><tag k="addr:street" v="12th Place West" /></node>
<node id="-1000274" lat="47.832443082" lon="-122.251572173" visible="true"><tag k="addr:housenumber" v="18213" /><tag k="addr:postcode" v="98037" /><tag k="addr:city" v="Lynnwood" /><tag k="addr:street" v="13th Place West" /></node>
<node id="-1000275" lat="47.832208392" lon="-122.251668596" visible="true"><tag k="addr:housenumber" v="18219" /><tag k="addr:postcode" v="98037" /><tag k="addr:city" v="Lynnwood" /><tag k="addr:street" v="13th Place West" /></node>
<node id="-1000276" lat="47.832612257" lon="-122.251644672" visible="true"><tag k="addr:housenumber" v="18207" /><tag k="addr:postcode" v="98037" /><tag k="addr:city" v="Lynnwood" /><tag k="addr:street" v="13th Place West" /></node>
<node id="-1000277" lat="47.829889465" lon="-122.257435903" visible="true"><tag k="addr:housenumber" v="18410" /><tag k="addr:postcode" v="98037" /><tag k="addr:city" v="Lynnwood" /><tag k="addr:street" v="Butternut Road" /></node>
<node id="-1000278" lat="47.832341904" lon="-122.248947837" visible="true"><tag k="addr:housenumber" v="18221" /><tag k="addr:postcode" v="98037" /><tag k="addr:city" v="Lynnwood" /><tag k="addr:street" v="12th Avenue West" /></node>
<node id="-1000279" lat="47.832769407" lon="-122.249010023" visible="true"><tag k="addr:housenumber" v="18209" /><tag k="addr:postcode" v="98037" /><tag k="addr:city" v="Lynnwood" /><tag k="addr:street" v="12th Avenue West" /></node>
<node id="-1000280" lat="47.833209204" lon="-122.249035727" visible="true"><tag k="addr:housenumber" v="18129" /><tag k="addr:postcode" v="98037" /><tag k="addr:city" v="Lynnwood" /><tag k="addr:street" v="12th Avenue West" /></node>
<node id="-1000281" lat="47.833437218" lon="-122.251319787" visible="true"><tag k="addr:housenumber" v="18124" /><tag k="addr:postcode" v="98037" /><tag k="addr:city" v="Lynnwood" /><tag k="addr:street" v="13th Avenue West" /></node>
<node id="-1000282" lat="47.833967869" lon="-122.251699228" visible="true"><tag k="addr:housenumber" v="18106" /><tag k="addr:postcode" v="98037" /><tag k="addr:city" v="Lynnwood" /><tag k="addr:street" v="13th Avenue West" /></node>
<node id="-1000283" lat="47.833458768" lon="-122.248352196" visible="true"><tag k="addr:housenumber" v="18328" /><tag k="addr:postcode" v="98037" /><tag k="addr:city" v="Lynnwood" /><tag k="addr:street" v="Larch Way" /></node>
<node id="-1000284" lat="47.832705347" lon="-122.2495329" visible="true"><tag k="addr:housenumber" v="18214" /><tag k="addr:postcode" v="98037" /><tag k="addr:city" v="Lynnwood" /><tag k="addr:street" v="12th Avenue West" /></node>
<node id="-1000285" lat="47.83224487" lon="-122.248308298" visible="true"><tag k="addr:housenumber" v="18318" /><tag k="addr:postcode" v="98037" /><tag k="addr:city" v="Lynnwood" /><tag k="addr:street" v="Larch Way" /></node>
<node id="-1000286" lat="47.832933951" lon="-122.249505554" visible="true"><tag k="addr:housenumber" v="18204" /><tag k="addr:postcode" v="98037" /><tag k="addr:city" v="Lynnwood" /><tag k="addr:street" v="12th Avenue West" /></node>
<node id="-1000287" lat="47.832571332" lon="-122.249056814" visible="true"><tag k="addr:housenumber" v="18217" /><tag k="addr:postcode" v="98037" /><tag k="addr:city" v="Lynnwood" /><tag k="addr:street" v="12th Avenue West" /></node>
<node id="-1000288" lat="47.833106584" lon="-122.2483583" visible="true"><tag k="addr:housenumber" v="18324" /><tag k="addr:postcode" v="98037" /><tag k="addr:city" v="Lynnwood" /><tag k="addr:street" v="Larch Way" /></node>
<node id="-1000289" lat="47.832288291" lon="-122.252374013" visible="true"><tag k="addr:housenumber" v="18210" /><tag k="addr:postcode" v="98037" /><tag k="addr:city" v="Lynnwood" /><tag k="addr:street" v="13th Place West" /></node>
<node id="-1000290" lat="47.833384495" lon="-122.249601349" visible="true"><tag k="addr:housenumber" v="18122" /><tag k="addr:postcode" v="98037" /><tag k="addr:city" v="Lynnwood" /><tag k="addr:street" v="12th Avenue West" /></node>
<node id="-1000291" lat="47.83341987" lon="-122.249073043" visible="true"><tag k="addr:housenumber" v="18123" /><tag k="addr:postcode" v="98037" /><tag k="addr:city" v="Lynnwood" /><tag k="addr:street" v="12th Avenue West" /></node>
<node id="-1000292" lat="47.833165665" lon="-122.249503743" visible="true"><tag k="addr:housenumber" v="18128" /><tag k="addr:postcode" v="98037" /><tag k="addr:city" v="Lynnwood" /><tag k="addr:street" v="12th Avenue West" /></node>
<node id="-1000293" lat="47.832503112" lon="-122.250419168" visible="true"><tag k="addr:housenumber" v="18229" /><tag k="addr:postcode" v="98037" /><tag k="addr:city" v="Lynnwood" /><tag k="addr:street" v="13th Avenue West" /></node>
<node id="-1000294" lat="47.833891074" lon="-122.249170304" visible="true"><tag k="addr:housenumber" v="18105" /><tag k="addr:postcode" v="98037" /><tag k="addr:city" v="Lynnwood" /><tag k="addr:street" v="12th Avenue West" /></node>
<node id="-1000295" lat="47.83271862" lon="-122.248356867" visible="true"><tag k="addr:housenumber" v="18322" /><tag k="addr:postcode" v="98037" /><tag k="addr:city" v="Lynnwood" /><tag k="addr:street" v="Larch Way" /></node>
<node id="-1000296" lat="47.833795794" lon="-122.248985752" visible="true"><tag k="addr:housenumber" v="18111" /><tag k="addr:postcode" v="98037" /><tag k="addr:city" v="Lynnwood" /><tag k="addr:street" v="12th Avenue West" /></node>
<node id="-1000297" lat="47.833253135" lon="-122.251239413" visible="true"><tag k="addr:housenumber" v="18130" /><tag k="addr:postcode" v="98037" /><tag k="addr:city" v="Lynnwood" /><tag k="addr:street" v="13th Avenue West" /></node>
<node id="-1000298" lat="47.8336213" lon="-122.251400161" visible="true"><tag k="addr:housenumber" v="18118" /><tag k="addr:postcode" v="98037" /><tag k="addr:city" v="Lynnwood" /><tag k="addr:street" v="13th Avenue West" /></node>
<node id="-1000299" lat="47.83380537" lon="-122.251481553" visible="true"><tag k="addr:housenumber" v="18114" /><tag k="addr:postcode" v="98037" /><tag k="addr:city" v="Lynnwood" /><tag k="addr:street" v="13th Avenue West" /></node>
<node id="-1000300" lat="47.833598289" lon="-122.249088042" visible="true"><tag k="addr:housenumber" v="18117" /><tag k="addr:postcode" v="98037" /><tag k="addr:city" v="Lynnwood" /><tag k="addr:street" v="12th Avenue West" /></node>
<node id="-1000301" lat="47.833810291" lon="-122.249407848" visible="true"><tag k="addr:housenumber" v="18101" /><tag k="addr:postcode" v="98037" /><tag k="addr:city" v="Lynnwood" /><tag k="addr:street" v="12th Avenue West" /></node>
<node id="-1000302" lat="47.832183376" lon="-122.24930677" visible="true"><tag k="addr:housenumber" v="18227" /><tag k="addr:postcode" v="98037" /><tag k="addr:city" v="Lynnwood" /><tag k="addr:street" v="12th Avenue West" /></node>
<node id="-1000303" lat="47.831950432" lon="-122.247168784" visible="true"><tag k="addr:housenumber" v="18310" /><tag k="addr:postcode" v="98037" /><tag k="addr:city" v="Lynnwood" /><tag k="addr:street" v="Larch Way" /></node>
<node id="-1000304" lat="47.832166157" lon="-122.249045969" visible="true"><tag k="addr:housenumber" v="18225" /><tag k="addr:postcode" v="98037" /><tag k="addr:city" v="Lynnwood" /><tag k="addr:street" v="12th Avenue West" /></node>
<node id="-1000305" lat="47.8319036" lon="-122.247629687" visible="true"><tag k="addr:housenumber" v="18314" /><tag k="addr:postcode" v="98037" /><tag k="addr:city" v="Lynnwood" /><tag k="addr:street" v="Larch Way" /></node>
<node id="-1000306" lat="47.831850573" lon="-122.248092456" visible="true"><tag k="addr:housenumber" v="18316" /><tag k="addr:postcode" v="98037" /><tag k="addr:city" v="Lynnwood" /><tag k="addr:street" v="Larch Way" /></node>
<node id="-1000307" lat="47.832112795" lon="-122.252209377" visible="true"><tag k="addr:housenumber" v="18214" /><tag k="addr:postcode" v="98037" /><tag k="addr:city" v="Lynnwood" /><tag k="addr:street" v="13th Place West" /></node>
<node id="-1000308" lat="47.835888587" lon="-122.246719355" visible="true"><tag k="addr:housenumber" v="17906" /><tag k="addr:postcode" v="98037" /><tag k="addr:city" v="Lynnwood" /><tag k="addr:street" v="Larch Way" /></node>
<node id="-1000309" lat="47.836800446" lon="-122.250205485" visible="true"><tag k="addr:housenumber" v="1220" /><tag k="addr:postcode" v="98037" /><tag k="addr:city" v="Lynnwood" /><tag k="addr:street" v="178th Street Southwest" /></node>
<node id="-1000310" lat="47.835208808" lon="-122.248031446" visible="true"><tag k="addr:housenumber" v="1113" /><tag k="addr:postcode" v="98037" /><tag k="addr:city" v="Lynnwood" /><tag k="addr:street" v="180th Street Southwest" /></node>
<node id="-1000311" lat="47.83478546" lon="-122.249005384" visible="true"><tag k="addr:housenumber" v="1202" /><tag k="addr:postcode" v="98037" /><tag k="addr:city" v="Lynnwood" /><tag k="addr:street" v="180th Street Southwest" /></node>
<node id="-1000312" lat="47.835517978" lon="-122.246922026" visible="true"><tag k="addr:housenumber" v="1017" /><tag k="addr:postcode" v="98037" /><tag k="addr:city" v="Lynnwood" /><tag k="addr:street" v="180th Street Southwest" /></node>
<node id="-1000313" lat="47.835491801" lon="-122.249700696" visible="true"><tag k="addr:housenumber" v="17919" /><tag k="addr:postcode" v="98037" /><tag k="addr:city" v="Lynnwood" /><tag k="addr:street" v="12th Place West" /></node>
<node id="-1000314" lat="47.832934192" lon="-122.246458908" visible="true"><tag k="addr:housenumber" v="18214" /><tag k="addr:postcode" v="98037" /><tag k="addr:city" v="Lynnwood" /><tag k="addr:street" v="Larch Way" /></node>
<node id="-1000315" lat="47.834727627" lon="-122.249744962" visible="true"><tag k="addr:housenumber" v="18011" /><tag k="addr:postcode" v="98037" /><tag k="addr:city" v="Lynnwood" /><tag k="addr:street" v="12th Place West" /></node>
<node id="-1000316" lat="47.835774808" lon="-122.249708433" visible="true"><tag k="addr:housenumber" v="17907" /><tag k="addr:postcode" v="98037" /><tag k="addr:city" v="Lynnwood" /><tag k="addr:street" v="12th Place West" /></node>
<node id="-1000317" lat="47.834841328" lon="-122.249752143" visible="true"><tag k="addr:housenumber" v="18007" /><tag k="addr:postcode" v="98037" /><tag k="addr:city" v="Lynnwood" /><tag k="addr:street" v="12th Place West" /></node>
<node id="-1000318" lat="47.834616668" lon="-122.249737856" visible="true"><tag k="addr:housenumber" v="18015" /><tag k="addr:postcode" v="98037" /><tag k="addr:city" v="Lynnwood" /><tag k="addr:street" v="12th Place West" /></node>
<node id="-1000319" lat="47.835851957" lon="-122.250175813" visible="true"><tag k="addr:housenumber" v="17904" /><tag k="addr:postcode" v="98037" /><tag k="addr:city" v="Lynnwood" /><tag k="addr:street" v="12th Place West" /></node>
<node id="-1000320" lat="47.833540695" lon="-122.246507688" visible="true"><tag k="addr:housenumber" v="18124" /><tag k="addr:postcode" v="98037" /><tag k="addr:city" v="Lynnwood" /><tag k="addr:street" v="Larch Way" /></node>
<node id="-1000321" lat="47.835962968" lon="-122.250178849" visible="true"><tag k="addr:housenumber" v="17902" /><tag k="addr:postcode" v="98037" /><tag k="addr:city" v="Lynnwood" /><tag k="addr:street" v="12th Place West" /></node>
<node id="-1000322" lat="47.836708033" lon="-122.246528925" visible="true"><tag k="addr:housenumber" v="17802" /><tag k="addr:postcode" v="98037" /><tag k="addr:city" v="Lynnwood" /><tag k="addr:street" v="Larch Way" /></node>
<node id="-1000323" lat="47.834863881" lon="-122.250144719" visible="true"><tag k="addr:housenumber" v="18006" /><tag k="addr:postcode" v="98037" /><tag k="addr:city" v="Lynnwood" /><tag k="addr:street" v="12th Place West" /></node>
<node id="-1000324" lat="47.835191328" lon="-122.250161819" visible="true"><tag k="addr:housenumber" v="17928" /><tag k="addr:postcode" v="98037" /><tag k="addr:city" v="Lynnwood" /><tag k="addr:street" v="12th Place West" /></node>
<node id="-1000325" lat="47.833374218" lon="-122.246500093" visible="true"><tag k="addr:housenumber" v="18130" /><tag k="addr:postcode" v="98037" /><tag k="addr:city" v="Lynnwood" /><tag k="addr:street" v="Larch Way" /></node>
<node id="-1000326" lat="47.83479129" lon="-122.248313252" visible="true"><tag k="addr:housenumber" v="1118" /><tag k="addr:postcode" v="98037" /><tag k="addr:city" v="Lynnwood" /><tag k="addr:street" v="180th Street Southwest" /></node>
<node id="-1000327" lat="47.835413298" lon="-122.250171961" visible="true"><tag k="addr:housenumber" v="17920" /><tag k="addr:postcode" v="98037" /><tag k="addr:city" v="Lynnwood" /><tag k="addr:street" v="12th Place West" /></node>
<node id="-1000328" lat="47.835743739" lon="-122.250168781" visible="true"><tag k="addr:housenumber" v="17908" /><tag k="addr:postcode" v="98037" /><tag k="addr:city" v="Lynnwood" /><tag k="addr:street" v="12th Place West" /></node>
<node id="-1000329" lat="47.836135121" lon="-122.246572347" visible="true"><tag k="addr:housenumber" v="17828" /><tag k="addr:postcode" v="98037" /><tag k="addr:city" v="Lynnwood" /><tag k="addr:street" v="Larch Way" /></node>
<node id="-1000330" lat="47.834031902" lon="-122.246475047" visible="true"><tag k="addr:housenumber" v="18106" /><tag k="addr:postcode" v="98037" /><tag k="addr:city" v="Lynnwood" /><tag k="addr:street" v="Larch Way" /></node>
<node id="-1000331" lat="47.835438201" lon="-122.247220185" visible="true"><tag k="addr:housenumber" v="1023" /><tag k="addr:postcode" v="98037" /><tag k="addr:city" v="Lynnwood" /><tag k="addr:street" v="180th Street Southwest" /></node>
<node id="-1000332" lat="47.835299648" lon="-122.250160709" visible="true"><tag k="addr:housenumber" v="17924" /><tag k="addr:postcode" v="98037" /><tag k="addr:city" v="Lynnwood" /><tag k="addr:street" v="12th Place West" /></node>
<node id="-1000333" lat="47.835083009" lon="-122.250162929" visible="true"><tag k="addr:housenumber" v="17932" /><tag k="addr:postcode" v="98037" /><tag k="addr:city" v="Lynnwood" /><tag k="addr:street" v="12th Place West" /></node>
<node id="-1000334" lat="47.836667822" lon="-122.25077234" visible="true"><tag k="addr:housenumber" v="1232" /><tag k="addr:postcode" v="98037" /><tag k="addr:city" v="Lynnwood" /><tag k="addr:street" v="178th Street Southwest" /></node>
<node id="-1000335" lat="47.834963826" lon="-122.250155597" visible="true"><tag k="addr:housenumber" v="18002" /><tag k="addr:postcode" v="98037" /><tag k="addr:city" v="Lynnwood" /><tag k="addr:street" v="12th Place West" /></node>
<node id="-1000336" lat="47.835524409" lon="-122.250166855" visible="true"><tag k="addr:housenumber" v="17916" /><tag k="addr:postcode" v="98037" /><tag k="addr:city" v="Lynnwood" /><tag k="addr:street" v="12th Place West" /></node>
<node id="-1000337" lat="47.834749978" lon="-122.250153822" visible="true"><tag k="addr:housenumber" v="18010" /><tag k="addr:postcode" v="98037" /><tag k="addr:city" v="Lynnwood" /><tag k="addr:street" v="12th Place West" /></node>
<node id="-1000338" lat="47.835330881" lon="-122.249687134" visible="true"><tag k="addr:housenumber" v="17923" /><tag k="addr:postcode" v="98037" /><tag k="addr:city" v="Lynnwood" /><tag k="addr:street" v="12th Place West" /></node>
<node id="-1000339" lat="47.8364366" lon="-122.24652763" visible="true"><tag k="addr:housenumber" v="17816" /><tag k="addr:postcode" v="98037" /><tag k="addr:city" v="Lynnwood" /><tag k="addr:street" v="Larch Way" /></node>
<node id="-1000340" lat="47.834784574" lon="-122.249353541" visible="true"><tag k="addr:housenumber" v="1210" /><tag k="addr:postcode" v="98037" /><tag k="addr:city" v="Lynnwood" /><tag k="addr:street" v="180th Street Southwest" /></node>
<node id="-1000341" lat="47.836133903" lon="-122.246947994" visible="true"><tag k="addr:housenumber" v="17826" /><tag k="addr:postcode" v="98037" /><tag k="addr:city" v="Lynnwood" /><tag k="addr:street" v="Larch Way" /></node>
<node id="-1000342" lat="47.835621998" lon="-122.249704255" visible="true"><tag k="addr:housenumber" v="17911" /><tag k="addr:postcode" v="98037" /><tag k="addr:city" v="Lynnwood" /><tag k="addr:street" v="12th Place West" /></node>
<node id="-1000343" lat="47.835635419" lon="-122.250169891" visible="true"><tag k="addr:housenumber" v="17912" /><tag k="addr:postcode" v="98037" /><tag k="addr:city" v="Lynnwood" /><tag k="addr:street" v="12th Place West" /></node>
<node id="-1000344" lat="47.835570694" lon="-122.24908702" visible="true"><tag k="addr:housenumber" v="1131" /><tag k="addr:postcode" v="98037" /><tag k="addr:city" v="Lynnwood" /><tag k="addr:street" v="180th Street Southwest" /></node>
<node id="-1000345" lat="47.835043308" lon="-122.246996968" visible="true"><tag k="addr:housenumber" v="1018" /><tag k="addr:postcode" v="98037" /><tag k="addr:city" v="Lynnwood" /><tag k="addr:street" v="180th Street Southwest" /></node>
<node id="-1000346" lat="47.835365627" lon="-122.248702235" visible="true"><tag k="addr:housenumber" v="1123" /><tag k="addr:postcode" v="98037" /><tag k="addr:city" v="Lynnwood" /><tag k="addr:street" v="180th Street Southwest" /></node>
<node id="-1000347" lat="47.834781208" lon="-122.246635187" visible="true"><tag k="addr:housenumber" v="18012" /><tag k="addr:postcode" v="98037" /><tag k="addr:city" v="Lynnwood" /><tag k="addr:street" v="Larch Way" /></node>
<node id="-1000348" lat="47.834833361" lon="-122.248661564" visible="true"><tag k="addr:housenumber" v="1126" /><tag k="addr:postcode" v="98037" /><tag k="addr:city" v="Lynnwood" /><tag k="addr:street" v="180th Street Southwest" /></node>
<node id="-1000349" lat="47.832269364" lon="-122.250824397" visible="true"><tag k="addr:housenumber" v="18232" /><tag k="addr:postcode" v="98037" /><tag k="addr:city" v="Lynnwood" /><tag k="addr:street" v="13th Avenue West" /></node>
<node id="-1000350" lat="47.832516847" lon="-122.250932971" visible="true"><tag k="addr:housenumber" v="18226" /><tag k="addr:postcode" v="98037" /><tag k="addr:city" v="Lynnwood" /><tag k="addr:street" v="13th Avenue West" /></node>
<node id="-1000351" lat="47.83557824" lon="-122.248816075" visible="true"><tag k="addr:housenumber" v="1127" /><tag k="addr:postcode" v="98037" /><tag k="addr:city" v="Lynnwood" /><tag k="addr:street" v="180th Street Southwest" /></node>
<node id="-1000352" lat="47.835378908" lon="-122.249204176" visible="true"><tag k="addr:housenumber" v="1207" /><tag k="addr:postcode" v="98037" /><tag k="addr:city" v="Lynnwood" /><tag k="addr:street" v="180th Street Southwest" /></node>
<node id="-1000353" lat="47.832724749" lon="-122.251027228" visible="true"><tag k="addr:housenumber" v="18220" /><tag k="addr:postcode" v="98037" /><tag k="addr:city" v="Lynnwood" /><tag k="addr:street" v="13th Avenue West" /></node>
<node id="-1000354" lat="47.834013105" lon="-122.24760673" visible="true"><tag k="addr:housenumber" v="1023" /><tag k="addr:postcode" v="98037" /><tag k="addr:city" v="Lynnwood" /><tag k="addr:street" v="181st Place Southwest" /></node>
<node id="-1000355" lat="47.833739262" lon="-122.247621653" visible="true"><tag k="addr:housenumber" v="1022" /><tag k="addr:postcode" v="98037" /><tag k="addr:city" v="Lynnwood" /><tag k="addr:street" v="181st Place Southwest" /></node>
<node id="-1000356" lat="47.834329551" lon="-122.246716896" visible="true"><tag k="addr:housenumber" v="18024" /><tag k="addr:postcode" v="98037" /><tag k="addr:city" v="Lynnwood" /><tag k="addr:street" v="Larch Way" /></node>
<node id="-1000357" lat="47.836744674" lon="-122.252239171" visible="true"><tag k="addr:housenumber" v="17811" /><tag k="addr:postcode" v="98037" /><tag k="addr:city" v="Lynnwood" /><tag k="addr:street" v="14th Avenue West" /></node>
<node id="-1000358" lat="47.83387056" lon="-122.247603858" visible="true"><tag k="addr:housenumber" v="1025" /><tag k="addr:postcode" v="98037" /><tag k="addr:city" v="Lynnwood" /><tag k="addr:street" v="181st Place Southwest" /></node>
<node id="-1000359" lat="47.833923841" lon="-122.246929435" visible="true"><tag k="addr:housenumber" v="1011" /><tag k="addr:postcode" v="98037" /><tag k="addr:city" v="Lynnwood" /><tag k="addr:street" v="181st Place Southwest" /></node>
<node id="-1000360" lat="47.836723412" lon="-122.251676335" visible="true"><tag k="addr:housenumber" v="1320" /><tag k="addr:postcode" v="98037" /><tag k="addr:city" v="Lynnwood" /><tag k="addr:street" v="178th Street Southwest" /></node>
<node id="-1000361" lat="47.833921833" lon="-122.247147244" visible="true"><tag k="addr:housenumber" v="1017" /><tag k="addr:postcode" v="98037" /><tag k="addr:city" v="Lynnwood" /><tag k="addr:street" v="181st Place Southwest" /></node>
<node id="-1000362" lat="47.833922043" lon="-122.247351879" visible="true"><tag k="addr:housenumber" v="1021" /><tag k="addr:postcode" v="98037" /><tag k="addr:city" v="Lynnwood" /><tag k="addr:street" v="181st Place Southwest" /></node>
<node id="-1000363" lat="47.834819817" lon="-122.247614612" visible="true"><tag k="addr:housenumber" v="1100" /><tag k="addr:postcode" v="98037" /><tag k="addr:city" v="Lynnwood" /><tag k="addr:street" v="180th Street Southwest" /></node>
<node id="-1000364" lat="47.835438968" lon="-122.248099834" visible="true"><tag k="addr:housenumber" v="1111" /><tag k="addr:postcode" v="98037" /><tag k="addr:city" v="Lynnwood" /><tag k="addr:street" v="180th Street Southwest" /></node>
<node id="-1000365" lat="47.834794203" lon="-122.247967185" visible="true"><tag k="addr:housenumber" v="1110" /><tag k="addr:postcode" v="98037" /><tag k="addr:city" v="Lynnwood" /><tag k="addr:street" v="180th Street Southwest" /></node>
<node id="-1000366" lat="47.83658147" lon="-122.247339961" visible="true"><tag k="addr:housenumber" v="1022" /><tag k="addr:postcode" v="98037" /><tag k="addr:city" v="Lynnwood" /><tag k="addr:street" v="178th Street Southwest" /></node>
<node id="-1000367" lat="47.835619242" lon="-122.24743587" visible="true"><tag k="addr:housenumber" v="1029" /><tag k="addr:postcode" v="98037" /><tag k="addr:city" v="Lynnwood" /><tag k="addr:street" v="180th Street Southwest" /></node>
<node id="-1000368" lat="47.835615239" lon="-122.247925463" visible="true"><tag k="addr:housenumber" v="1105" /><tag k="addr:postcode" v="98037" /><tag k="addr:city" v="Lynnwood" /><tag k="addr:street" v="180th Street Southwest" /></node>
<node id="-1000369" lat="47.836577573" lon="-122.246934648" visible="true"><tag k="addr:housenumber" v="1010" /><tag k="addr:postcode" v="98037" /><tag k="addr:city" v="Lynnwood" /><tag k="addr:street" v="178th Street Southwest" /></node>
<node id="-1000370" lat="47.836172396" lon="-122.24765968" visible="true"><tag k="addr:housenumber" v="17824" /><tag k="addr:postcode" v="98037" /><tag k="addr:city" v="Lynnwood" /><tag k="addr:street" v="Larch Way" /></node>
<node id="-1000371" lat="47.835636782" lon="-122.246571989" visible="true"><tag k="addr:housenumber" v="17918" /><tag k="addr:postcode" v="98037" /><tag k="addr:city" v="Lynnwood" /><tag k="addr:street" v="Larch Way" /></node>
<node id="-1000372" lat="47.835207103" lon="-122.24855673" visible="true"><tag k="addr:housenumber" v="1121" /><tag k="addr:postcode" v="98037" /><tag k="addr:city" v="Lynnwood" /><tag k="addr:street" v="180th Street Southwest" /></node>
<node id="-1000373" lat="47.833394367" lon="-122.24697709" visible="true"><tag k="addr:housenumber" v="1015" /><tag k="addr:postcode" v="98037" /><tag k="addr:city" v="Lynnwood" /><tag k="addr:street" v="182nd Place Southwest" /></node>
<node id="-1000374" lat="47.835403734" lon="-122.246570723" visible="true"><tag k="addr:housenumber" v="1011" /><tag k="addr:postcode" v="98037" /><tag k="addr:city" v="Lynnwood" /><tag k="addr:street" v="180th Street Southwest" /></node>
<node id="-1000375" lat="47.834864364" lon="-122.247282917" visible="true"><tag k="addr:housenumber" v="1026" /><tag k="addr:postcode" v="98037" /><tag k="addr:city" v="Lynnwood" /><tag k="addr:street" v="180th Street Southwest" /></node>
<node id="-1000376" lat="47.835204169" lon="-122.249291707" visible="true"><tag k="addr:housenumber" v="1211" /><tag k="addr:postcode" v="98037" /><tag k="addr:city" v="Lynnwood" /><tag k="addr:street" v="180th Street Southwest" /></node>
<node id="-1000377" lat="47.833488689" lon="-122.24752251" visible="true"><tag k="addr:housenumber" v="1027" /><tag k="addr:postcode" v="98037" /><tag k="addr:city" v="Lynnwood" /><tag k="addr:street" v="182nd Place Southwest" /></node>
<node id="-1000378" lat="47.83305561" lon="-122.247240003" visible="true"><tag k="addr:housenumber" v="1022" /><tag k="addr:postcode" v="98037" /><tag k="addr:city" v="Lynnwood" /><tag k="addr:street" v="182nd Place Southwest" /></node>
<node id="-1000379" lat="47.833396828" lon="-122.247553824" visible="true"><tag k="addr:housenumber" v="1029" /><tag k="addr:postcode" v="98037" /><tag k="addr:city" v="Lynnwood" /><tag k="addr:street" v="182nd Place Southwest" /></node>
<node id="-1000380" lat="47.833474611" lon="-122.247342948" visible="true"><tag k="addr:housenumber" v="1025" /><tag k="addr:postcode" v="98037" /><tag k="addr:city" v="Lynnwood" /><tag k="addr:street" v="182nd Place Southwest" /></node>
<node id="-1000381" lat="47.833228018" lon="-122.247513133" visible="true"><tag k="addr:housenumber" v="1030" /><tag k="addr:postcode" v="98037" /><tag k="addr:city" v="Lynnwood" /><tag k="addr:street" v="182nd Place Southwest" /></node>
<node id="-1000382" lat="47.833466566" lon="-122.247180633" visible="true"><tag k="addr:housenumber" v="1019" /><tag k="addr:postcode" v="98037" /><tag k="addr:city" v="Lynnwood" /><tag k="addr:street" v="182nd Place Southwest" /></node>
<node id="-1000383" lat="47.833037012" lon="-122.247481225" visible="true"><tag k="addr:housenumber" v="1026" /><tag k="addr:postcode" v="98037" /><tag k="addr:city" v="Lynnwood" /><tag k="addr:street" v="182nd Place Southwest" /></node>
<node id="-1000384" lat="47.833102203" lon="-122.247549402" visible="true"><tag k="addr:housenumber" v="1028" /><tag k="addr:postcode" v="98037" /><tag k="addr:city" v="Lynnwood" /><tag k="addr:street" v="182nd Place Southwest" /></node>
<node id="-1000385" lat="47.836657981" lon="-122.249895136" visible="true"><tag k="addr:housenumber" v="1212" /><tag k="addr:postcode" v="98037" /><tag k="addr:city" v="Lynnwood" /><tag k="addr:street" v="178th Street Southwest" /></node>
<node id="-1000386" lat="47.836692148" lon="-122.247733033" visible="true"><tag k="addr:housenumber" v="1030" /><tag k="addr:postcode" v="98037" /><tag k="addr:city" v="Lynnwood" /><tag k="addr:street" v="178th Street Southwest" /></node>
<node id="-1000387" lat="47.836241368" lon="-122.248086904" visible="true"><tag k="addr:housenumber" v="1102" /><tag k="addr:postcode" v="98037" /><tag k="addr:city" v="Lynnwood" /><tag k="addr:street" v="178th Street Southwest" /></node>
<node id="-1000388" lat="47.836706677" lon="-122.24927225" visible="true"><tag k="addr:housenumber" v="1132" /><tag k="addr:postcode" v="98037" /><tag k="addr:city" v="Lynnwood" /><tag k="addr:street" v="178th Street Southwest" /></node>
<node id="-1000389" lat="47.83669672" lon="-122.248194364" visible="true"><tag k="addr:housenumber" v="1104" /><tag k="addr:postcode" v="98037" /><tag k="addr:city" v="Lynnwood" /><tag k="addr:street" v="178th Street Southwest" /></node>
<node id="-1000390" lat="47.836721621" lon="-122.248951275" visible="true"><tag k="addr:housenumber" v="1124" /><tag k="addr:postcode" v="98037" /><tag k="addr:city" v="Lynnwood" /><tag k="addr:street" v="178th Street Southwest" /></node>
<node id="-1000391" lat="47.836717722" lon="-122.248601955" visible="true"><tag k="addr:housenumber" v="1116" /><tag k="addr:postcode" v="98037" /><tag k="addr:city" v="Lynnwood" /><tag k="addr:street" v="178th Street Southwest" /></node>
<node id="-1000392" lat="47.831637453" lon="-122.252286058" visible="true"><tag k="addr:housenumber" v="1407" /><tag k="addr:postcode" v="98037" /><tag k="addr:city" v="Lynnwood" /><tag k="addr:street" v="184th Street Southwest" /></node>
<node id="-1000393" lat="47.831741207" lon="-122.252425982" visible="true"><tag k="addr:housenumber" v="1411" /><tag k="addr:postcode" v="98037" /><tag k="addr:city" v="Lynnwood" /><tag k="addr:street" v="184th Street Southwest" /></node>
<node id="-1000394" lat="47.831842567" lon="-122.252546258" visible="true"><tag k="addr:housenumber" v="1413" /><tag k="addr:postcode" v="98037" /><tag k="addr:city" v="Lynnwood" /><tag k="addr:street" v="184th Street Southwest" /></node>
<node id="-1000395" lat="47.831914975" lon="-122.252661825" visible="true"><tag k="addr:housenumber" v="1415" /><tag k="addr:postcode" v="98037" /><tag k="addr:city" v="Lynnwood" /><tag k="addr:street" v="184th Street Southwest" /></node>
<node id="-1000396" lat="47.832003397" lon="-122.252762164" visible="true"><tag k="addr:housenumber" v="1417" /><tag k="addr:postcode" v="98037" /><tag k="addr:city" v="Lynnwood" /><tag k="addr:street" v="184th Street Southwest" /></node>
<node id="-1000397" lat="47.832086545" lon="-122.252862359" visible="true"><tag k="addr:housenumber" v="1421" /><tag k="addr:postcode" v="98037" /><tag k="addr:city" v="Lynnwood" /><tag k="addr:street" v="184th Street Southwest" /></node>
<node id="-1000398" lat="47.832164177" lon="-122.252981986" visible="true"><tag k="addr:housenumber" v="1425" /><tag k="addr:postcode" v="98037" /><tag k="addr:city" v="Lynnwood" /><tag k="addr:street" v="184th Street Southwest" /></node>
<node id="-1000399" lat="47.832252598" lon="-122.253082326" visible="true"><tag k="addr:housenumber" v="1427" /><tag k="addr:postcode" v="98037" /><tag k="addr:city" v="Lynnwood" /><tag k="addr:street" v="184th Street Southwest" /></node>
<node id="-1000400" lat="47.832333061" lon="-122.253186365" visible="true"><tag k="addr:housenumber" v="1429" /><tag k="addr:postcode" v="98037" /><tag k="addr:city" v="Lynnwood" /><tag k="addr:street" v="184th Street Southwest" /></node>
<node id="-1000401" lat="47.832415917" lon="-122.253310054" visible="true"><tag k="addr:housenumber" v="1431" /><tag k="addr:postcode" v="98037" /><tag k="addr:city" v="Lynnwood" /><tag k="addr:street" v="184th Street Southwest" /></node>
<node id="-1000402" lat="47.832491204" lon="-122.253406118" visible="true"><tag k="addr:housenumber" v="1503" /><tag k="addr:postcode" v="98037" /><tag k="addr:city" v="Lynnwood" /><tag k="addr:street" v="184th Street Southwest" /></node>
<node id="-1000403" lat="47.832576891" lon="-122.253514218" visible="true"><tag k="addr:housenumber" v="1507" /><tag k="addr:postcode" v="98037" /><tag k="addr:city" v="Lynnwood" /><tag k="addr:street" v="184th Street Southwest" /></node>
<node id="-1000404" lat="47.832672782" lon="-122.253650015" visible="true"><tag k="addr:housenumber" v="1511" /><tag k="addr:postcode" v="98037" /><tag k="addr:city" v="Lynnwood" /><tag k="addr:street" v="184th Street Southwest" /></node>
<node id="-1000405" lat="47.832761056" lon="-122.253762104" visible="true"><tag k="addr:housenumber" v="1515" /><tag k="addr:postcode" v="98037" /><tag k="addr:city" v="Lynnwood" /><tag k="addr:street" v="184th Street Southwest" /></node>
<node id="-1000406" lat="47.832838834" lon="-122.253869988" visible="true"><tag k="addr:housenumber" v="1519" /><tag k="addr:postcode" v="98037" /><tag k="addr:city" v="Lynnwood" /><tag k="addr:street" v="184th Street Southwest" /></node>
<node id="-1000407" lat="47.832919247" lon="-122.253977945" visible="true"><tag k="addr:housenumber" v="1521" /><tag k="addr:postcode" v="98037" /><tag k="addr:city" v="Lynnwood" /><tag k="addr:street" v="184th Street Southwest" /></node>
<node id="-1000408" lat="47.832999466" lon="-122.254101564" visible="true"><tag k="addr:housenumber" v="1525" /><tag k="addr:postcode" v="98037" /><tag k="addr:city" v="Lynnwood" /><tag k="addr:street" v="184th Street Southwest" /></node>
<node id="-1000409" lat="47.833080123" lon="-122.254189944" visible="true"><tag k="addr:housenumber" v="1527" /><tag k="addr:postcode" v="98037" /><tag k="addr:city" v="Lynnwood" /><tag k="addr:street" v="184th Street Southwest" /></node>
<node id="-1000410" lat="47.833168056" lon="-122.254329442" visible="true"><tag k="addr:housenumber" v="1529" /><tag k="addr:postcode" v="98037" /><tag k="addr:city" v="Lynnwood" /><tag k="addr:street" v="184th Street Southwest" /></node>
<node id="-1000411" lat="47.832811122" lon="-122.254401904" visible="true"><tag k="addr:housenumber" v="1526" /><tag k="addr:postcode" v="98037" /><tag k="addr:city" v="Lynnwood" /><tag k="addr:street" v="184th Street Southwest" /></node>
<node id="-1000412" lat="47.832235192" lon="-122.253634103" visible="true"><tag k="addr:housenumber" v="1504" /><tag k="addr:postcode" v="98037" /><tag k="addr:city" v="Lynnwood" /><tag k="addr:street" v="184th Street Southwest" /></node>
<node id="-1000413" lat="47.831643147" lon="-122.252889377" visible="true"><tag k="addr:housenumber" v="1420" /><tag k="addr:postcode" v="98037" /><tag k="addr:city" v="Lynnwood" /><tag k="addr:street" v="184th Street Southwest" /></node>
<node id="-1000414" lat="47.83152343" lon="-122.252760765" visible="true"><tag k="addr:housenumber" v="1416" /><tag k="addr:postcode" v="98037" /><tag k="addr:city" v="Lynnwood" /><tag k="addr:street" v="184th Street Southwest" /></node>
<node id="-1000415" lat="47.831432372" lon="-122.252660355" visible="true"><tag k="addr:housenumber" v="1414" /><tag k="addr:postcode" v="98037" /><tag k="addr:city" v="Lynnwood" /><tag k="addr:street" v="184th Street Southwest" /></node>
<node id="-1000416" lat="47.831365237" lon="-122.252544933" visible="true"><tag k="addr:housenumber" v="1410" /><tag k="addr:postcode" v="98037" /><tag k="addr:city" v="Lynnwood" /><tag k="addr:street" v="184th Street Southwest" /></node>
<node id="-1000417" lat="47.831303665" lon="-122.252406165" visible="true"><tag k="addr:housenumber" v="1406" /><tag k="addr:postcode" v="98037" /><tag k="addr:city" v="Lynnwood" /><tag k="addr:street" v="184th Street Southwest" /></node>
<node id="-1000418" lat="47.831258058" lon="-122.252256085" visible="true"><tag k="addr:housenumber" v="1404" /><tag k="addr:postcode" v="98037" /><tag k="addr:city" v="Lynnwood" /><tag k="addr:street" v="184th Street Southwest" /></node>
<node id="-1000419" lat="47.831236469" lon="-122.252083162" visible="true"><tag k="addr:housenumber" v="1402" /><tag k="addr:postcode" v="98037" /><tag k="addr:city" v="Lynnwood" /><tag k="addr:street" v="184th Street Southwest" /></node>
<node id="-1000420" lat="47.83254953" lon="-122.254230228" visible="true"><tag k="addr:housenumber" v="18302" /><tag k="addr:postcode" v="98037" /><tag k="addr:city" v="Lynnwood" /><tag k="addr:street" v="15th Place West" /></node>
<node id="-1000421" lat="47.832476789" lon="-122.254353568" visible="true"><tag k="addr:housenumber" v="18306" /><tag k="addr:postcode" v="98037" /><tag k="addr:city" v="Lynnwood" /><tag k="addr:street" v="15th Place West" /></node>
<node id="-1000422" lat="47.832378172" lon="-122.25443703" visible="true"><tag k="addr:housenumber" v="18308" /><tag k="addr:postcode" v="98037" /><tag k="addr:city" v="Lynnwood" /><tag k="addr:street" v="15th Place West" /></node>
<node id="-1000423" lat="47.832266665" lon="-122.254496639" visible="true"><tag k="addr:housenumber" v="18312" /><tag k="addr:postcode" v="98037" /><tag k="addr:city" v="Lynnwood" /><tag k="addr:street" v="15th Place West" /></node>
<node id="-1000424" lat="47.832168535" lon="-122.254540948" visible="true"><tag k="addr:housenumber" v="18314" /><tag k="addr:postcode" v="98037" /><tag k="addr:city" v="Lynnwood" /><tag k="addr:street" v="15th Place West" /></node>
<node id="-1000425" lat="47.832054587" lon="-122.254584822" visible="true"><tag k="addr:housenumber" v="18318" /><tag k="addr:postcode" v="98037" /><tag k="addr:city" v="Lynnwood" /><tag k="addr:street" v="15th Place West" /></node>
<node id="-1000426" lat="47.831948547" lon="-122.254628913" visible="true"><tag k="addr:housenumber" v="18322" /><tag k="addr:postcode" v="98037" /><tag k="addr:city" v="Lynnwood" /><tag k="addr:street" v="15th Place West" /></node>
<node id="-1000427" lat="47.831842556" lon="-122.254669089" visible="true"><tag k="addr:housenumber" v="18326" /><tag k="addr:postcode" v="98037" /><tag k="addr:city" v="Lynnwood" /><tag k="addr:street" v="15th Place West" /></node>
<node id="-1000428" lat="47.831733929" lon="-122.254709193" visible="true"><tag k="addr:housenumber" v="18328" /><tag k="addr:postcode" v="98037" /><tag k="addr:city" v="Lynnwood" /><tag k="addr:street" v="15th Place West" /></node>
<node id="-1000429" lat="47.831630818" lon="-122.254729864" visible="true"><tag k="addr:housenumber" v="18404" /><tag k="addr:postcode" v="98037" /><tag k="addr:city" v="Lynnwood" /><tag k="addr:street" v="15th Place West" /></node>
<node id="-1000430" lat="47.831511792" lon="-122.254757932" visible="true"><tag k="addr:housenumber" v="18408" /><tag k="addr:postcode" v="98037" /><tag k="addr:city" v="Lynnwood" /><tag k="addr:street" v="15th Place West" /></node>
<node id="-1000431" lat="47.831387882" lon="-122.254754533" visible="true"><tag k="addr:housenumber" v="18412" /><tag k="addr:postcode" v="98037" /><tag k="addr:city" v="Lynnwood" /><tag k="addr:street" v="15th Place West" /></node>
<node id="-1000432" lat="47.831282865" lon="-122.254716402" visible="true"><tag k="addr:housenumber" v="18416" /><tag k="addr:postcode" v="98037" /><tag k="addr:city" v="Lynnwood" /><tag k="addr:street" v="15th Place West" /></node>
<node id="-1000433" lat="47.831175261" lon="-122.254674284" visible="true"><tag k="addr:housenumber" v="18420" /><tag k="addr:postcode" v="98037" /><tag k="addr:city" v="Lynnwood" /><tag k="addr:street" v="15th Place West" /></node>
<node id="-1000434" lat="47.832383819" lon="-122.253982847" visible="true"><tag k="addr:housenumber" v="18305" /><tag k="addr:postcode" v="98037" /><tag k="addr:city" v="Lynnwood" /><tag k="addr:street" v="15th Place West" /></node>
<node id="-1000435" lat="47.832258693" lon="-122.254077334" visible="true"><tag k="addr:housenumber" v="18309" /><tag k="addr:postcode" v="98037" /><tag k="addr:city" v="Lynnwood" /><tag k="addr:street" v="15th Place West" /></node>
<node id="-1000436" lat="47.832158024" lon="-122.25411374" visible="true"><tag k="addr:housenumber" v="18313" /><tag k="addr:postcode" v="98037" /><tag k="addr:city" v="Lynnwood" /><tag k="addr:street" v="15th Place West" /></node>
<node id="-1000437" lat="47.832044124" lon="-122.254153701" visible="true"><tag k="addr:housenumber" v="18317" /><tag k="addr:postcode" v="98037" /><tag k="addr:city" v="Lynnwood" /><tag k="addr:street" v="15th Place West" /></node>
<node id="-1000438" lat="47.831951364" lon="-122.254190324" visible="true"><tag k="addr:housenumber" v="18321" /><tag k="addr:postcode" v="98037" /><tag k="addr:city" v="Lynnwood" /><tag k="addr:street" v="15th Place West" /></node>
<node id="-1000439" lat="47.831837659" lon="-122.254214622" visible="true"><tag k="addr:housenumber" v="18325" /><tag k="addr:postcode" v="98037" /><tag k="addr:city" v="Lynnwood" /><tag k="addr:street" v="15th Place West" /></node>
<node id="-1000440" lat="47.831731668" lon="-122.254254799" visible="true"><tag k="addr:housenumber" v="18329" /><tag k="addr:postcode" v="98037" /><tag k="addr:city" v="Lynnwood" /><tag k="addr:street" v="15th Place West" /></node>
<node id="-1000441" lat="47.831617915" lon="-122.254283012" visible="true"><tag k="addr:housenumber" v="18403" /><tag k="addr:postcode" v="98037" /><tag k="addr:city" v="Lynnwood" /><tag k="addr:street" v="15th Place West" /></node>
<node id="-1000442" lat="47.831520077" lon="-122.254303829" visible="true"><tag k="addr:housenumber" v="18407" /><tag k="addr:postcode" v="98037" /><tag k="addr:city" v="Lynnwood" /><tag k="addr:street" v="15th Place West" /></node>
<node id="-1000443" lat="47.831946359" lon="-122.253532186" visible="true"><tag k="addr:housenumber" v="18316" /><tag k="addr:postcode" v="98037" /><tag k="addr:city" v="Lynnwood" /><tag k="addr:street" v="15th Avenue West" /></node>
<node id="-1000444" lat="47.83185067" lon="-122.253592229" visible="true"><tag k="addr:housenumber" v="18320" /><tag k="addr:postcode" v="98037" /><tag k="addr:city" v="Lynnwood" /><tag k="addr:street" v="15th Avenue West" /></node>
<node id="-1000445" lat="47.831749855" lon="-122.253640382" visible="true"><tag k="addr:housenumber" v="18324" /><tag k="addr:postcode" v="98037" /><tag k="addr:city" v="Lynnwood" /><tag k="addr:street" v="15th Avenue West" /></node>
<node id="-1000446" lat="47.831646404" lon="-122.253688463" visible="true"><tag k="addr:housenumber" v="18402" /><tag k="addr:postcode" v="98037" /><tag k="addr:city" v="Lynnwood" /><tag k="addr:street" v="15th Avenue West" /></node>
<node id="-1000447" lat="47.831548128" lon="-122.253744518" visible="true"><tag k="addr:housenumber" v="18406" /><tag k="addr:postcode" v="98037" /><tag k="addr:city" v="Lynnwood" /><tag k="addr:street" v="15th Avenue West" /></node>
<node id="-1000448" lat="47.831447021" lon="-122.253816163" visible="true"><tag k="addr:housenumber" v="18410" /><tag k="addr:postcode" v="98037" /><tag k="addr:city" v="Lynnwood" /><tag k="addr:street" v="15th Avenue West" /></node>
<node id="-1000449" lat="47.831326827" lon="-122.2539382" visible="true"><tag k="addr:housenumber" v="18414" /><tag k="addr:postcode" v="98037" /><tag k="addr:city" v="Lynnwood" /><tag k="addr:street" v="15th Avenue West" /></node>
<node id="-1000450" lat="47.831233239" lon="-122.254041382" visible="true"><tag k="addr:housenumber" v="18418" /><tag k="addr:postcode" v="98037" /><tag k="addr:city" v="Lynnwood" /><tag k="addr:street" v="15th Avenue West" /></node>
<node id="-1000451" lat="47.831824094" lon="-122.253184168" visible="true"><tag k="addr:housenumber" v="18319" /><tag k="addr:postcode" v="98037" /><tag k="addr:city" v="Lynnwood" /><tag k="addr:street" v="15th Avenue West" /></node>
<node id="-1000452" lat="47.831733484" lon="-122.253260018" visible="true"><tag k="addr:housenumber" v="18323" /><tag k="addr:postcode" v="98037" /><tag k="addr:city" v="Lynnwood" /><tag k="addr:street" v="15th Avenue West" /></node>
<node id="-1000453" lat="47.831606354" lon="-122.253303534" visible="true"><tag k="addr:housenumber" v="18405" /><tag k="addr:postcode" v="98037" /><tag k="addr:city" v="Lynnwood" /><tag k="addr:street" v="15th Avenue West" /></node>
<node id="-1000454" lat="47.831492455" lon="-122.253343495" visible="true"><tag k="addr:housenumber" v="18409" /><tag k="addr:postcode" v="98037" /><tag k="addr:city" v="Lynnwood" /><tag k="addr:street" v="15th Avenue West" /></node>
<node id="-1000455" lat="47.831380997" lon="-122.25339919" visible="true"><tag k="addr:housenumber" v="18411" /><tag k="addr:postcode" v="98037" /><tag k="addr:city" v="Lynnwood" /><tag k="addr:street" v="15th Avenue West" /></node>
<node id="-1000456" lat="47.831285017" lon="-122.253482725" visible="true"><tag k="addr:housenumber" v="18413" /><tag k="addr:postcode" v="98037" /><tag k="addr:city" v="Lynnwood" /><tag k="addr:street" v="15th Avenue West" /></node>
<node id="-1000457" lat="47.83119929" lon="-122.253590041" visible="true"><tag k="addr:housenumber" v="18415" /><tag k="addr:postcode" v="98037" /><tag k="addr:city" v="Lynnwood" /><tag k="addr:street" v="15th Avenue West" /></node>
<node id="-1000458" lat="47.831111365" lon="-122.253662046" visible="true"><tag k="addr:housenumber" v="18417" /><tag k="addr:postcode" v="98037" /><tag k="addr:city" v="Lynnwood" /><tag k="addr:street" v="15th Avenue West" /></node>
<node id="-1000459" lat="47.831028032" lon="-122.25378901" visible="true"><tag k="addr:housenumber" v="18421" /><tag k="addr:postcode" v="98037" /><tag k="addr:city" v="Lynnwood" /><tag k="addr:street" v="15th Avenue West" /></node>
<node id="-1000460" lat="47.830955826" lon="-122.252673221" visible="true"><tag k="addr:housenumber" v="1401" /><tag k="addr:postcode" v="98037" /><tag k="addr:city" v="Lynnwood" /><tag k="addr:street" v="184th Place Southwest" /></node>
<node id="-1000461" lat="47.830988166" lon="-122.252828928" visible="true"><tag k="addr:housenumber" v="1403" /><tag k="addr:postcode" v="98037" /><tag k="addr:city" v="Lynnwood" /><tag k="addr:street" v="184th Place Southwest" /></node>
<node id="-1000462" lat="47.830993513" lon="-122.252973291" visible="true"><tag k="addr:housenumber" v="1405" /><tag k="addr:postcode" v="98037" /><tag k="addr:city" v="Lynnwood" /><tag k="addr:street" v="184th Place Southwest" /></node>
<node id="-1000463" lat="47.830950295" lon="-122.253118445" visible="true"><tag k="addr:housenumber" v="1409" /><tag k="addr:postcode" v="98037" /><tag k="addr:city" v="Lynnwood" /><tag k="addr:street" v="184th Place Southwest" /></node>
<node id="-1000464" lat="47.830852533" lon="-122.253170908" visible="true"><tag k="addr:housenumber" v="1419" /><tag k="addr:postcode" v="98037" /><tag k="addr:city" v="Lynnwood" /><tag k="addr:street" v="184th Place Southwest" /></node>
<node id="-1000465" lat="47.830774073" lon="-122.253279041" visible="true"><tag k="addr:housenumber" v="1423" /><tag k="addr:postcode" v="98037" /><tag k="addr:city" v="Lynnwood" /><tag k="addr:street" v="184th Place Southwest" /></node>
<node id="-1000466" lat="47.830835296" lon="-122.252604173" visible="true"><tag k="addr:housenumber" v="1408" /><tag k="addr:postcode" v="98037" /><tag k="addr:city" v="Lynnwood" /><tag k="addr:street" v="184th Place Southwest" /></node>
<node id="-1000467" lat="47.830732351" lon="-122.252614079" visible="true"><tag k="addr:housenumber" v="1412" /><tag k="addr:postcode" v="98037" /><tag k="addr:city" v="Lynnwood" /><tag k="addr:street" v="184th Place Southwest" /></node>
<node id="-1000468" lat="47.830653891" lon="-122.252722212" visible="true"><tag k="addr:housenumber" v="1418" /><tag k="addr:postcode" v="98037" /><tag k="addr:city" v="Lynnwood" /><tag k="addr:street" v="184th Place Southwest" /></node>
<node id="-1000469" lat="47.830616279" lon="-122.252876002" visible="true"><tag k="addr:housenumber" v="1422" /><tag k="addr:postcode" v="98037" /><tag k="addr:city" v="Lynnwood" /><tag k="addr:street" v="184th Place Southwest" /></node>
<node id="-1000470" lat="47.830591383" lon="-122.253040744" visible="true"><tag k="addr:housenumber" v="1424" /><tag k="addr:postcode" v="98037" /><tag k="addr:city" v="Lynnwood" /><tag k="addr:street" v="184th Place Southwest" /></node>
<node id="-1000471" lat="47.830493442" lon="-122.253222571" visible="true"><tag k="addr:housenumber" v="1426" /><tag k="addr:postcode" v="98037" /><tag k="addr:city" v="Lynnwood" /><tag k="addr:street" v="184th Place Southwest" /></node>
<node id="-1000472" lat="47.83048171" lon="-122.253362224" visible="true"><tag k="addr:housenumber" v="1428" /><tag k="addr:postcode" v="98037" /><tag k="addr:city" v="Lynnwood" /><tag k="addr:street" v="184th Place Southwest" /></node>
<node id="-1000473" lat="47.830519918" lon="-122.253505366" visible="true"><tag k="addr:housenumber" v="1502" /><tag k="addr:postcode" v="98037" /><tag k="addr:city" v="Lynnwood" /><tag k="addr:street" v="184th Place Southwest" /></node>
<node id="-1000474" lat="47.830594105" lon="-122.253626165" visible="true"><tag k="addr:housenumber" v="1506" /><tag k="addr:postcode" v="98037" /><tag k="addr:city" v="Lynnwood" /><tag k="addr:street" v="184th Place Southwest" /></node>
<node id="-1000475" lat="47.830663851" lon="-122.253759568" visible="true"><tag k="addr:housenumber" v="1508" /><tag k="addr:postcode" v="98037" /><tag k="addr:city" v="Lynnwood" /><tag k="addr:street" v="184th Place Southwest" /></node>
<node id="-1000476" lat="47.830722176" lon="-122.253892659" visible="true"><tag k="addr:housenumber" v="1512" /><tag k="addr:postcode" v="98037" /><tag k="addr:city" v="Lynnwood" /><tag k="addr:street" v="184th Place Southwest" /></node>
<node id="-1000477" lat="47.8307906" lon="-122.254017543" visible="true"><tag k="addr:housenumber" v="1516" /><tag k="addr:postcode" v="98037" /><tag k="addr:city" v="Lynnwood" /><tag k="addr:street" v="184th Place Southwest" /></node>
<node id="-1000478" lat="47.830868858" lon="-122.254155422" visible="true"><tag k="addr:housenumber" v="1518" /><tag k="addr:postcode" v="98037" /><tag k="addr:city" v="Lynnwood" /><tag k="addr:street" v="184th Place Southwest" /></node>
<node id="-1000479" lat="47.830934558" lon="-122.254269628" visible="true"><tag k="addr:housenumber" v="1520" /><tag k="addr:postcode" v="98037" /><tag k="addr:city" v="Lynnwood" /><tag k="addr:street" v="184th Place Southwest" /></node>
<node id="-1000480" lat="47.831005837" lon="-122.254394591" visible="true"><tag k="addr:housenumber" v="1524" /><tag k="addr:postcode" v="98037" /><tag k="addr:city" v="Lynnwood" /><tag k="addr:street" v="184th Place Southwest" /></node>
<node id="-1000481" lat="47.831084016" lon="-122.254538832" visible="true"><tag k="addr:housenumber" v="1528" /><tag k="addr:postcode" v="98037" /><tag k="addr:city" v="Lynnwood" /><tag k="addr:street" v="184th Place Southwest" /></node>
</osm>