<?xml version="1.0"?>
<osm version="0.6" upload="false" generator="uvmogr2osm">
<node id="-1" lat="47.832583778" lon="-122.22180516" visible="true"><tag k="addr:housenumber" v="719"/><tag k="addr:postcode" v="98012"/><tag k="addr:city" v="Bothell"/><tag k="addr:street" v="John Bailey Road"/></node>
<node id="-2" lat="47.832650491" lon="-122.2196924" visible="true"><tag k="addr:housenumber" v="1011"/><tag k="addr:postcode" v="98012"/><tag k="addr:city" v="Bothell"/><tag k="addr:street" v="183rd Street Southeast"/></node>
<node id="-3" lat="47.824451232" lon="-122.22372802" visible="true"><tag k="addr:housenumber" v="528"/><tag k="addr:postcode" v="98012"/><tag k="addr:city" v="Bothell"/><tag k="addr:street" v="192nd Place Southeast"/></node>
<node id="-4" lat="47.832385916" lon="-122.223984216" visible="true"><tag k="addr:housenumber" v="621"/><tag k="addr:postcode" v="98012"/><tag k="addr:city" v="Bothell"/><tag k="addr:street" v="183rd Street Southeast"/></node>
<node id="-5" lat="47.832973828" lon="-122.223765482" visible="true"><tag k="addr:housenumber" v="612"/><tag k="addr:postcode" v="98012"/><tag k="addr:city" v="Bothell"/><tag k="addr:street" v="John Bailey Road"/></node>
<node id="-6" lat="47.832327703" lon="-122.210719615" visible="true"><tag k="addr:housenumber" v="1605"/><tag k="addr:postcode" v="98012"/><tag k="addr:city" v="Bothell"/><tag k="addr:street" v="183rd Street Southeast"/></node>
<node id="-7" lat="47.832842044" lon="-122.222106548" visible="true"><tag k="addr:housenumber" v="715"/><tag k="addr:postcode" v="98012"/><tag k="addr:city" v="Bothell"/><tag k="addr:street" v="John Bailey Road"/></node>
<node id="-8" lat="47.83238669" lon="-122.212819322" visible="true"><tag k="addr:housenumber" v="1419"/><tag k="addr:postcode" v="98012"/><tag k="addr:city" v="Bothell"/><tag k="addr:street" v="183rd Street Southeast"/></node>
<node id="-9" lat="47.831884344" lon="-122.221189268" visible="true"><tag k="addr:housenumber" v="821"/><tag k="addr:postcode" v="98012"/><tag k="addr:city" v="Bothell"/><tag k="addr:street" v="183rd Place Southeast"/></node>
<node id="-10" lat="47.829997517" lon="-122.21343406" visible="true"><tag k="addr:housenumber" v="1502"/><tag k="addr:postcode" v="98012"/><tag k="addr:city" v="Bothell"/><tag k="addr:street" v="183rd Street Southeast"/></node>
<node id="-11" lat="47.832302744" lon="-122.224244034" visible="true"><tag k="addr:housenumber" v="527"/><tag k="addr:postcode" v="98012"/><tag k="addr:city" v="Bothell"/><tag k="addr:street" v="183rd Street Southeast"/></node>
<node id="-12" lat="47.827217114" lon="-122.220809589" visible="true"><tag k="addr:housenumber" v="18816"/><tag k="addr:postcode" v="98012"/><tag k="addr:city" v="Bothell"/><tag k="addr:street" v="Waxen Road"/></node>
<node id="-13" lat="47.832391552" lon="-122.209858031" visible="true"><tag k="addr:housenumber" v="1617"/><tag k="addr:postcode" v="98012"/><tag k="addr:city" v="Bothell"/><tag k="addr:street" v="183rd Street Southeast"/></node>
<node id="-14" lat="47.830104756" lon="-122.218032702" visible="true"><tag k="addr:housenumber" v="930"/><tag k="addr:postcode" v="98012"/><tag k="addr:city" v="Bothell"/><tag k="addr:street" v="185th Street Southeast"/></node>
<node id="-15" lat="47.830259925" lon="-122.215204094" visible="true"><tag k="addr:housenumber" v="18503"/><tag k="addr:postcode" v="98012"/><tag k="addr:city" v="Bothell"/><tag k="addr:street" v="12th Drive Southeast"/></node>
<node id="-16" lat="47.830672313" lon="-122.215226291" visible="true"><tag k="addr:housenumber" v="18419"/><tag k="addr:postcode" v="98012"/><tag k="addr:city" v="Bothell"/><tag k="addr:street" v="12th Drive Southeast"/></node>
<node id="-17" lat="47.829610453" lon="-122.211972774" visible="true"><tag k="addr:housenumber" v="1511"/><tag k="addr:postcode" v="98012"/><tag k="addr:city" v="Bothell"/><tag k="addr:street" v="186th Street Southeast"/></node>
<node id="-18" lat="47.830397049" lon="-122.215201644" visible="true"><tag k="addr:housenumber" v="18431"/><tag k="addr:postcode" v="98012"/><tag k="addr:city" v="Bothell"/><tag k="addr:street" v="12th Drive Southeast"/></node>
<node id="-19" lat="47.833012313" lon="-122.210108671" visible="true"><tag k="addr:housenumber" v="18204"/><tag k="addr:postcode" v="98012"/><tag k="addr:city" v="Bothell"/><tag k="addr:street" v="Bothell Everett Highway"/></node>
<node id="-20" lat="47.830307642" lon="-122.213565623" visible="true"><tag k="addr:housenumber" v="1500"/><tag k="addr:postcode" v="98012"/><tag k="addr:city" v="Bothell"/><tag k="addr:street" v="183rd Street Southeast"/></node>
<node id="-21" lat="47.830030026" lon="-122.209351459" visible="true"><tag k="addr:housenumber" v="18508"/><tag k="addr:postcode" v="98012"/><tag k="addr:city" v="Bothell"/><tag k="addr:street" v="Bothell Everett Highway"/></node>
<node id="-22" lat="47.83060889" lon="-122.217271486" visible="true"><tag k="addr:housenumber" v="18420"/><tag k="addr:postcode" v="98012"/><tag k="addr:city" v="Bothell"/><tag k="addr:street" v="11th Drive Southeast"/></node>
<node id="-23" lat="47.830362389" lon="-122.216286622" visible="true"><tag k="addr:housenumber" v="1121"/><tag k="addr:postcode" v="98012"/><tag k="addr:city" v="Bothell"/><tag k="addr:street" v="185th Place Southeast"/></node>
<node id="-24" lat="47.830598597" lon="-122.216253225" visible="true"><tag k="addr:housenumber" v="1128"/><tag k="addr:postcode" v="98012"/><tag k="addr:city" v="Bothell"/><tag k="addr:street" v="184th Place Southeast"/></node>
<node id="-25" lat="47.831428938" lon="-122.218158692" visible="true"><tag k="addr:housenumber" v="924"/><tag k="addr:postcode" v="98012"/><tag k="addr:city" v="Bothell"/><tag k="addr:street" v="183rd Place Southeast"/></node>
<node id="-26" lat="47.829812533" lon="-122.227276884" visible="true"><tag k="addr:housenumber" v="18522"/><tag k="addr:postcode" v="98012"/><tag k="addr:city" v="Bothell"/><tag k="addr:street" v="Newton Road"/></node>
<node id="-27" lat="47.83074443" lon="-122.221017235" visible="true"><tag k="addr:housenumber" v="18328"/><tag k="addr:postcode" v="98012"/><tag k="addr:city" v="Bothell"/><tag k="addr:street" v="8th Avenue Southeast"/></node>
<node id="-28" lat="47.830969243" lon="-122.216609235" visible="true"><tag k="addr:housenumber" v="1119"/><tag k="addr:postcode" v="98012"/><tag k="addr:city" v="Bothell"/><tag k="addr:street" v="184th Place Southeast"/></node>
<node id="-29" lat="47.830602689" lon="-122.216028361" visible="true"><tag k="addr:housenumber" v="1130"/><tag k="addr:postcode" v="98012"/><tag k="addr:city" v="Bothell"/><tag k="addr:street" v="184th Place Southeast"/></node>
<node id="-30" lat="47.830343306" lon="-122.215710954" visible="true"><tag k="addr:housenumber" v="18430"/><tag k="addr:postcode" v="98012"/><tag k="addr:city" v="Bothell"/><tag k="addr:street" v="12th Drive Southeast"/></node>
<node id="-31" lat="47.830144525" lon="-122.217069739" visible="true"><tag k="addr:housenumber" v="1106"/><tag k="addr:postcode" v="98012"/><tag k="addr:city" v="Bothell"/><tag k="addr:street" v="185th Street Southeast"/></node>
<node id="-32" lat="47.830999084" lon="-122.220424456" visible="true"><tag k="addr:housenumber" v="18329"/><tag k="addr:postcode" v="98012"/><tag k="addr:city" v="Bothell"/><tag k="addr:street" v="8th Drive Southeast"/></node>
<node id="-33" lat="47.830121406" lon="-122.215208544" visible="true"><tag k="addr:housenumber" v="18505"/><tag k="addr:postcode" v="98012"/><tag k="addr:city" v="Bothell"/><tag k="addr:street" v="12th Drive Southeast"/></node>
<node id="-34" lat="47.831063049" lon="-122.219841839" visible="true"><tag k="addr:housenumber" v="18323"/><tag k="addr:postcode" v="98012"/><tag k="addr:city" v="Bothell"/><tag k="addr:street" v="8th Drive Southeast"/></node>
<node id="-35" lat="47.833875264" lon="-122.211137434" visible="true"><tag k="addr:housenumber" v="18008"/><tag k="addr:postcode" v="98012"/><tag k="addr:city" v="Bothell"/><tag k="addr:street" v="Bothell Everett Highway"/></node>
<node id="-36" lat="47.831578669" lon="-122.215286973" visible="true"><tag k="addr:housenumber" v="1210"/><tag k="addr:postcode" v="98012"/><tag k="addr:city" v="Bothell"/><tag k="addr:street" v="183rd Street Southeast"/></node>
<node id="-37" lat="47.830450493" lon="-122.217615406" visible="true"><tag k="addr:housenumber" v="1011"/><tag k="addr:postcode" v="98012"/><tag k="addr:city" v="Bothell"/><tag k="addr:street" v="185th Street Southeast"/></node>
<node id="-38" lat="47.830534089" lon="-122.215206316" visible="true"><tag k="addr:housenumber" v="18425"/><tag k="addr:postcode" v="98012"/><tag k="addr:city" v="Bothell"/><tag k="addr:street" v="12th Drive Southeast"/></node>
<node id="-39" lat="47.830130431" lon="-122.21732793" visible="true"><tag k="addr:housenumber" v="1102"/><tag k="addr:postcode" v="98012"/><tag k="addr:city" v="Bothell"/><tag k="addr:street" v="185th Street Southeast"/></node>
<node id="-40" lat="47.830118357" lon="-122.217702222" visible="true"><tag k="addr:housenumber" v="1006"/><tag k="addr:postcode" v="98012"/><tag k="addr:city" v="Bothell"/><tag k="addr:street" v="185th Street Southeast"/></node>
<node id="-41" lat="47.830126644" lon="-122.217527352" visible="true"><tag k="addr:housenumber" v="1010"/><tag k="addr:postcode" v="98012"/><tag k="addr:city" v="Bothell"/><tag k="addr:street" v="185th Street Southeast"/></node>
<node id="-42" lat="47.830102412" lon="-122.216245072" visible="true"><tag k="addr:housenumber" v="1125"/><tag k="addr:postcode" v="98012"/><tag k="addr:city" v="Bothell"/><tag k="addr:street" v="185th Place Southeast"/></node>
<node id="-43" lat="47.831567891" lon="-122.220774608" visible="true"><tag k="addr:housenumber" v="824"/><tag k="addr:postcode" v="98012"/><tag k="addr:city" v="Bothell"/><tag k="addr:street" v="183rd Place Southeast"/></node>
<node id="-44" lat="47.829727324" lon="-122.216029432" visible="true"><tag k="addr:housenumber" v="1124"/><tag k="addr:postcode" v="98012"/><tag k="addr:city" v="Bothell"/><tag k="addr:street" v="185th Place Southeast"/></node>
<node id="-45" lat="47.830937649" lon="-122.218142507" visible="true"><tag k="addr:housenumber" v="18416"/><tag k="addr:postcode" v="98012"/><tag k="addr:city" v="Bothell"/><tag k="addr:street" v="10th Drive Southeast"/></node>
<node id="-46" lat="47.831415576" lon="-122.221124794" visible="true"><tag k="addr:housenumber" v="18317"/><tag k="addr:postcode" v="98012"/><tag k="addr:city" v="Bothell"/><tag k="addr:street" v="8th Avenue Southeast"/></node>
<node id="-47" lat="47.830671957" lon="-122.215742118" visible="true"><tag k="addr:housenumber" v="18418"/><tag k="addr:postcode" v="98012"/><tag k="addr:city" v="Bothell"/><tag k="addr:street" v="12th Drive Southeast"/></node>
<node id="-48" lat="47.830067257" lon="-122.218355415" visible="true"><tag k="addr:housenumber" v="924"/><tag k="addr:postcode" v="98012"/><tag k="addr:city" v="Bothell"/><tag k="addr:street" v="185th Street Southeast"/></node>
<node id="-49" lat="47.830111538" lon="-122.217868988" visible="true"><tag k="addr:housenumber" v="1002"/><tag k="addr:postcode" v="98012"/><tag k="addr:city" v="Bothell"/><tag k="addr:street" v="185th Street Southeast"/></node>
<node id="-50" lat="47.831799773" lon="-122.21391027" visible="true"><tag k="addr:housenumber" v="1316"/><tag k="addr:postcode" v="98012"/><tag k="addr:city" v="Bothell"/><tag k="addr:street" v="183rd Street Southeast"/></node>
<node id="-51" lat="47.831443853" lon="-122.218681326" visible="true"><tag k="addr:housenumber" v="918"/><tag k="addr:postcode" v="98012"/><tag k="addr:city" v="Bothell"/><tag k="addr:street" v="183rd Place Southeast"/></node>
<node id="-52" lat="47.831626746" lon="-122.217730308" visible="true"><tag k="addr:housenumber" v="931"/><tag k="addr:postcode" v="98012"/><tag k="addr:city" v="Bothell"/><tag k="addr:street" v="183rd Place Southeast"/></node>
<node id="-53" lat="47.830921372" lon="-122.220614776" visible="true"><tag k="addr:housenumber" v="18331"/><tag k="addr:postcode" v="98012"/><tag k="addr:city" v="Bothell"/><tag k="addr:street" v="8th Drive Southeast"/></node>
<node id="-54" lat="47.831563139" lon="-122.214566078" visible="true"><tag k="addr:housenumber" v="1308"/><tag k="addr:postcode" v="98012"/><tag k="addr:city" v="Bothell"/><tag k="addr:street" v="183rd Street Southeast"/></node>
<node id="-55" lat="47.831412376" lon="-122.218846419" visible="true"><tag k="addr:housenumber" v="914"/><tag k="addr:postcode" v="98012"/><tag k="addr:city" v="Bothell"/><tag k="addr:street" v="183rd Place Southeast"/></node>
<node id="-56" lat="47.830494063" lon="-122.215714976" visible="true"><tag k="addr:housenumber" v="18426"/><tag k="addr:postcode" v="98012"/><tag k="addr:city" v="Bothell"/><tag k="addr:street" v="12th Drive Southeast"/></node>
<node id="-57" lat="47.831447115" lon="-122.218355652" visible="true"><tag k="addr:housenumber" v="922"/><tag k="addr:postcode" v="98012"/><tag k="addr:city" v="Bothell"/><tag k="addr:street" v="183rd Place Southeast"/></node>
<node id="-58" lat="47.831799625" lon="-122.215453569" visible="true"><tag k="addr:housenumber" v="1204"/><tag k="addr:postcode" v="98012"/><tag k="addr:city" v="Bothell"/><tag k="addr:street" v="183rd Street Southeast"/></node>
<node id="-59" lat="47.830599313" lon="-122.216477201" visible="true"><tag k="addr:housenumber" v="1124"/><tag k="addr:postcode" v="98012"/><tag k="addr:city" v="Bothell"/><tag k="addr:street" v="184th Place Southeast"/></node>
<node id="-60" lat="47.830557193" lon="-122.209419654" visible="true"><tag k="addr:housenumber" v="18416"/><tag k="addr:postcode" v="98012"/><tag k="addr:city" v="Bothell"/><tag k="addr:street" v="Bothell Everett Highway"/></node>
<node id="-61" lat="47.831465955" lon="-122.221717603" visible="true"><tag k="addr:housenumber" v="18314"/><tag k="addr:postcode" v="98012"/><tag k="addr:city" v="Bothell"/><tag k="addr:street" v="8th Avenue Southeast"/></node>
<node id="-62" lat="47.831019615" lon="-122.221274013" visible="true"><tag k="addr:housenumber" v="18322"/><tag k="addr:postcode" v="98012"/><tag k="addr:city" v="Bothell"/><tag k="addr:street" v="8th Avenue Southeast"/></node>
<node id="-63" lat="47.830767142" lon="-122.225535761" visible="true"><tag k="addr:housenumber" v="18417"/><tag k="addr:postcode" v="98012"/><tag k="addr:city" v="Bothell"/><tag k="addr:street" v="Newton Road"/></node>
<node id="-64" lat="47.831228751" lon="-122.214625801" visible="true"><tag k="addr:housenumber" v="1304"/><tag k="addr:postcode" v="98012"/><tag k="addr:city" v="Bothell"/><tag k="addr:street" v="183rd Street Southeast"/></node>
<node id="-65" lat="47.830636652" lon="-122.217582714" visible="true"><tag k="addr:housenumber" v="18421"/><tag k="addr:postcode" v="98012"/><tag k="addr:city" v="Bothell"/><tag k="addr:street" v="10th Drive Southeast"/></node>
<node id="-66" lat="47.83092267" lon="-122.221128897" visible="true"><tag k="addr:housenumber" v="18324"/><tag k="addr:postcode" v="98012"/><tag k="addr:city" v="Bothell"/><tag k="addr:street" v="8th Avenue Southeast"/></node>
<node id="-67" lat="47.831264695" lon="-122.22062295" visible="true"><tag k="addr:housenumber" v="18326"/><tag k="addr:postcode" v="98012"/><tag k="addr:city" v="Bothell"/><tag k="addr:street" v="8th Drive Southeast"/></node>
<node id="-68" lat="47.830969076" lon="-122.216396471" visible="true"><tag k="addr:housenumber" v="1125"/><tag k="addr:postcode" v="98012"/><tag k="addr:city" v="Bothell"/><tag k="addr:street" v="184th Place Southeast"/></node>
<node id="-69" lat="47.8313406" lon="-122.219169241" visible="true"><tag k="addr:housenumber" v="910"/><tag k="addr:postcode" v="98012"/><tag k="addr:city" v="Bothell"/><tag k="addr:street" v="183rd Place Southeast"/></node>
<node id="-70" lat="47.831776164" lon="-122.21262445" visible="true"><tag k="addr:housenumber" v="1428"/><tag k="addr:postcode" v="98012"/><tag k="addr:city" v="Bothell"/><tag k="addr:street" v="183rd Street Southeast"/></node>
<node id="-71" lat="47.831272228" lon="-122.218476191" visible="true"><tag k="addr:housenumber" v="18328"/><tag k="addr:postcode" v="98012"/><tag k="addr:city" v="Bothell"/><tag k="addr:street" v="10th Drive Southeast"/></node>
<node id="-72" lat="47.830955741" lon="-122.216818582" visible="true"><tag k="addr:housenumber" v="1117"/><tag k="addr:postcode" v="98012"/><tag k="addr:city" v="Bothell"/><tag k="addr:street" v="184th Place Southeast"/></node>
<node id="-73" lat="47.830728766" lon="-122.220613691" visible="true"><tag k="addr:housenumber" v="18332"/><tag k="addr:postcode" v="98012"/><tag k="addr:city" v="Bothell"/><tag k="addr:street" v="8th Avenue Southeast"/></node>
<node id="-74" lat="47.831191998" lon="-122.217630126" visible="true"><tag k="addr:housenumber" v="18403"/><tag k="addr:postcode" v="98012"/><tag k="addr:city" v="Bothell"/><tag k="addr:street" v="10th Drive Southeast"/></node>
<node id="-75" lat="47.830591682" lon="-122.220895058" visible="true"><tag k="addr:housenumber" v="18330"/><tag k="addr:postcode" v="98012"/><tag k="addr:city" v="Bothell"/><tag k="addr:street" v="8th Avenue Southeast"/></node>
<node id="-76" lat="47.830969131" lon="-122.216165388" visible="true"><tag k="addr:housenumber" v="1131"/><tag k="addr:postcode" v="98012"/><tag k="addr:city" v="Bothell"/><tag k="addr:street" v="184th Place Southeast"/></node>
<node id="-77" lat="47.830102441" lon="-122.216016029" visible="true"><tag k="addr:housenumber" v="1127"/><tag k="addr:postcode" v="98012"/><tag k="addr:city" v="Bothell"/><tag k="addr:street" v="185th Place Southeast"/></node>
<node id="-78" lat="47.830050294" lon="-122.218510712" visible="true"><tag k="addr:housenumber" v="920"/><tag k="addr:postcode" v="98012"/><tag k="addr:city" v="Bothell"/><tag k="addr:street" v="185th Street Southeast"/></node>
<node id="-79" lat="47.83016045" lon="-122.21575392" visible="true"><tag k="addr:housenumber" v="18502"/><tag k="addr:postcode" v="98012"/><tag k="addr:city" v="Bothell"/><tag k="addr:street" v="12th Drive Southeast"/></node>
<node id="-80" lat="47.831049601" lon="-122.218407124" visible="true"><tag k="addr:housenumber" v="18406"/><tag k="addr:postcode" v="98012"/><tag k="addr:city" v="Bothell"/><tag k="addr:street" v="10th Drive Southeast"/></node>
<node id="-81" lat="47.830967539" lon="-122.217089683" visible="true"><tag k="addr:housenumber" v="1113"/><tag k="addr:postcode" v="98012"/><tag k="addr:city" v="Bothell"/><tag k="addr:street" v="184th Place Southeast"/></node>
<node id="-82" lat="47.830953551" lon="-122.215356686" visible="true"><tag k="addr:housenumber" v="18407"/><tag k="addr:postcode" v="98012"/><tag k="addr:city" v="Bothell"/><tag k="addr:street" v="12th Drive Southeast"/></node>
<node id="-83" lat="47.830584572" lon="-122.216732323" visible="true"><tag k="addr:housenumber" v="1120"/><tag k="addr:postcode" v="98012"/><tag k="addr:city" v="Bothell"/><tag k="addr:street" v="184th Place Southeast"/></node>
<node id="-84" lat="47.830986538" lon="-122.215916443" visible="true"><tag k="addr:housenumber" v="1133"/><tag k="addr:postcode" v="98012"/><tag k="addr:city" v="Bothell"/><tag k="addr:street" v="184th Place Southeast"/></node>
<node id="-85" lat="47.831411181" lon="-122.217644126" visible="true"><tag k="addr:housenumber" v="18323"/><tag k="addr:postcode" v="98012"/><tag k="addr:city" v="Bothell"/><tag k="addr:street" v="10th Drive Southeast"/></node>
<node id="-86" lat="47.830804267" lon="-122.215311249" visible="true"><tag k="addr:housenumber" v="18411"/><tag k="addr:postcode" v="98012"/><tag k="addr:city" v="Bothell"/><tag k="addr:street" v="12th Drive Southeast"/></node>
<node id="-87" lat="47.830091158" lon="-122.218193178" visible="true"><tag k="addr:housenumber" v="928"/><tag k="addr:postcode" v="98012"/><tag k="addr:city" v="Bothell"/><tag k="addr:street" v="185th Street Southeast"/></node>
<node id="-88" lat="47.831800942" lon="-122.214210615" visible="true"><tag k="addr:housenumber" v="1312"/><tag k="addr:postcode" v="98012"/><tag k="addr:city" v="Bothell"/><tag k="addr:street" v="183rd Street Southeast"/></node>
<node id="-89" lat="47.831610586" lon="-122.221774415" visible="true"><tag k="addr:housenumber" v="18312"/><tag k="addr:postcode" v="98012"/><tag k="addr:city" v="Bothell"/><tag k="addr:street" v="8th Avenue Southeast"/></node>
<node id="-90" lat="47.831071827" lon="-122.220248254" visible="true"><tag k="addr:housenumber" v="18327"/><tag k="addr:postcode" v="98012"/><tag k="addr:city" v="Bothell"/><tag k="addr:street" v="8th Drive Southeast"/></node>
<node id="-91" lat="47.831332848" lon="-122.219921336" visible="true"><tag k="addr:housenumber" v="18321"/><tag k="addr:postcode" v="98012"/><tag k="addr:city" v="Bothell"/><tag k="addr:street" v="8th Drive Southeast"/></node>
<node id="-92" lat="47.831407951" lon="-122.220623732" visible="true"><tag k="addr:housenumber" v="18318"/><tag k="addr:postcode" v="98012"/><tag k="addr:city" v="Bothell"/><tag k="addr:street" v="8th Drive Southeast"/></node>
<node id="-93" lat="47.831481522" lon="-122.220153349" visible="true"><tag k="addr:housenumber" v="18317"/><tag k="addr:postcode" v="98012"/><tag k="addr:city" v="Bothell"/><tag k="addr:street" v="8th Drive Southeast"/></node>
<node id="-94" lat="47.831609466" lon="-122.220173061" visible="true"><tag k="addr:housenumber" v="18313"/><tag k="addr:postcode" v="98012"/><tag k="addr:city" v="Bothell"/><tag k="addr:street" v="8th Drive Southeast"/></node>
<node id="-95" lat="47.831808952" lon="-122.218759295" visible="true"><tag k="addr:housenumber" v="917"/><tag k="addr:postcode" v="98012"/><tag k="addr:city" v="Bothell"/><tag k="addr:street" v="183rd Place Southeast"/></node>
<node id="-96" lat="47.831064814" lon="-122.220035306" visible="true"><tag k="addr:housenumber" v="18325"/><tag k="addr:postcode" v="98012"/><tag k="addr:city" v="Bothell"/><tag k="addr:street" v="8th Drive Southeast"/></node>
<node id="-97" lat="47.831520865" lon="-122.217699993" visible="true"><tag k="addr:housenumber" v="18317"/><tag k="addr:postcode" v="98012"/><tag k="addr:city" v="Bothell"/><tag k="addr:street" v="10th Drive Southeast"/></node>
<node id="-98" lat="47.831130563" lon="-122.221395074" visible="true"><tag k="addr:housenumber" v="18320"/><tag k="addr:postcode" v="98012"/><tag k="addr:city" v="Bothell"/><tag k="addr:street" v="8th Avenue Southeast"/></node>
<node id="-99" lat="47.83089984" lon="-122.21730267" visible="true"><tag k="addr:housenumber" v="18410"/><tag k="addr:postcode" v="98012"/><tag k="addr:city" v="Bothell"/><tag k="addr:street" v="11th Drive Southeast"/></node>
<node id="-100" lat="47.830899617" lon="-122.217603991" visible="true"><tag k="addr:housenumber" v="18417"/><tag k="addr:postcode" v="98012"/><tag k="addr:city" v="Bothell"/><tag k="addr:street" v="10th Drive Southeast"/></node>
<node id="-101" lat="47.831802468" lon="-122.218106577" visible="true"><tag k="addr:housenumber" v="925"/><tag k="addr:postcode" v="98012"/><tag k="addr:city" v="Bothell"/><tag k="addr:street" v="183rd Place Southeast"/></node>
<node id="-102" lat="47.831108208" lon="-122.218096166" visible="true"><tag k="addr:housenumber" v="18410"/><tag k="addr:postcode" v="98012"/><tag k="addr:city" v="Bothell"/><tag k="addr:street" v="10th Drive Southeast"/></node>
<node id="-103" lat="47.83157799" lon="-122.221354124" visible="true"><tag k="addr:housenumber" v="816"/><tag k="addr:postcode" v="98012"/><tag k="addr:city" v="Bothell"/><tag k="addr:street" v="183rd Place Southeast"/></node>
<node id="-104" lat="47.831719376" lon="-122.219023617" visible="true"><tag k="addr:housenumber" v="913"/><tag k="addr:postcode" v="98012"/><tag k="addr:city" v="Bothell"/><tag k="addr:street" v="183rd Place Southeast"/></node>
<node id="-105" lat="47.831366546" lon="-122.219008073" visible="true"><tag k="addr:housenumber" v="912"/><tag k="addr:postcode" v="98012"/><tag k="addr:city" v="Bothell"/><tag k="addr:street" v="183rd Place Southeast"/></node>
<node id="-106" lat="47.831873919" lon="-122.219450225" visible="true"><tag k="addr:housenumber" v="909"/><tag k="addr:postcode" v="98012"/><tag k="addr:city" v="Bothell"/><tag k="addr:street" v="183rd Place Southeast"/></node>
<node id="-107" lat="47.831632022" lon="-122.221984699" visible="true"><tag k="addr:housenumber" v="18310"/><tag k="addr:postcode" v="98012"/><tag k="addr:city" v="Bothell"/><tag k="addr:street" v="8th Avenue Southeast"/></node>
<node id="-108" lat="47.831579055" lon="-122.221153605" visible="true"><tag k="addr:housenumber" v="820"/><tag k="addr:postcode" v="98012"/><tag k="addr:city" v="Bothell"/><tag k="addr:street" v="183rd Place Southeast"/></node>
<node id="-109" lat="47.831060092" lon="-122.215183972" visible="true"><tag k="addr:housenumber" v="18401"/><tag k="addr:postcode" v="98012"/><tag k="addr:city" v="Bothell"/><tag k="addr:street" v="12th Drive Southeast"/></node>
<node id="-110" lat="47.831168732" lon="-122.21604143" visible="true"><tag k="addr:housenumber" v="18332"/><tag k="addr:postcode" v="98012"/><tag k="addr:city" v="Bothell"/><tag k="addr:street" v="12th Drive Southeast"/></node>
<node id="-111" lat="47.831814282" lon="-122.218432655" visible="true"><tag k="addr:housenumber" v="921"/><tag k="addr:postcode" v="98012"/><tag k="addr:city" v="Bothell"/><tag k="addr:street" v="183rd Place Southeast"/></node>
<node id="-112" lat="47.831353514" lon="-122.221606682" visible="true"><tag k="addr:housenumber" v="18316"/><tag k="addr:postcode" v="98012"/><tag k="addr:city" v="Bothell"/><tag k="addr:street" v="8th Avenue Southeast"/></node>
<node id="-113" lat="47.831322244" lon="-122.209400029" visible="true"><tag k="addr:housenumber" v="18332"/><tag k="addr:postcode" v="98012"/><tag k="addr:city" v="Bothell"/><tag k="addr:street" v="Bothell Everett Highway"/></node>
<node id="-114" lat="47.831318722" lon="-122.220181567" visible="true"><tag k="addr:housenumber" v="18319"/><tag k="addr:postcode" v="98012"/><tag k="addr:city" v="Bothell"/><tag k="addr:street" v="8th Drive Southeast"/></node>
<node id="-115" lat="47.831305826" lon="-122.221018018" visible="true"><tag k="addr:housenumber" v="18319"/><tag k="addr:postcode" v="98012"/><tag k="addr:city" v="Bothell"/><tag k="addr:street" v="8th Avenue Southeast"/></node>
<node id="-116" lat="47.831815607" lon="-122.214528624" visible="true"><tag k="addr:housenumber" v="1310"/><tag k="addr:postcode" v="98012"/><tag k="addr:city" v="Bothell"/><tag k="addr:street" v="183rd Street Southeast"/></node>
<node id="-117" lat="47.831881882" lon="-122.220375811" visible="true"><tag k="addr:housenumber" v="831"/><tag k="addr:postcode" v="98012"/><tag k="addr:city" v="Bothell"/><tag k="addr:street" v="183rd Place Southeast"/></node>
<node id="-118" lat="47.831872577" lon="-122.219052147" visible="true"><tag k="addr:housenumber" v="911"/><tag k="addr:postcode" v="98012"/><tag k="addr:city" v="Bothell"/><tag k="addr:street" v="183rd Place Southeast"/></node>
<node id="-119" lat="47.831882164" lon="-122.220578402" visible="true"><tag k="addr:housenumber" v="829"/><tag k="addr:postcode" v="98012"/><tag k="addr:city" v="Bothell"/><tag k="addr:street" v="183rd Place Southeast"/></node>
<node id="-120" lat="47.834213817" lon="-122.211825481" visible="true"><tag k="addr:housenumber" v="18002"/><tag k="addr:postcode" v="98012"/><tag k="addr:city" v="Bothell"/><tag k="addr:street" v="Bothell Everett Highway"/></node>
<node id="-121" lat="47.831673202" lon="-122.222149703" visible="true"><tag k="addr:housenumber" v="18308"/><tag k="addr:postcode" v="98012"/><tag k="addr:city" v="Bothell"/><tag k="addr:street" v="8th Avenue Southeast"/></node>
<node id="-122" lat="47.831300916" lon="-122.21763609" visible="true"><tag k="addr:housenumber" v="18327"/><tag k="addr:postcode" v="98012"/><tag k="addr:city" v="Bothell"/><tag k="addr:street" v="10th Drive Southeast"/></node>
<node id="-123" lat="47.831249332" lon="-122.221492929" visible="true"><tag k="addr:housenumber" v="18318"/><tag k="addr:postcode" v="98012"/><tag k="addr:city" v="Bothell"/><tag k="addr:street" v="8th Avenue Southeast"/></node>
<node id="-124" lat="47.831813527" lon="-122.218268736" visible="true"><tag k="addr:housenumber" v="923"/><tag k="addr:postcode" v="98012"/><tag k="addr:city" v="Bothell"/><tag k="addr:street" v="183rd Place Southeast"/></node>
<node id="-125" lat="47.831821734" lon="-122.215155881" visible="true"><tag k="addr:housenumber" v="1206"/><tag k="addr:postcode" v="98012"/><tag k="addr:city" v="Bothell"/><tag k="addr:street" v="183rd Street Southeast"/></node>
<node id="-126" lat="47.831814364" lon="-122.218595539" visible="true"><tag k="addr:housenumber" v="919"/><tag k="addr:postcode" v="98012"/><tag k="addr:city" v="Bothell"/><tag k="addr:street" v="183rd Place Southeast"/></node>
<node id="-127" lat="47.831759549" lon="-122.219498066" visible="true"><tag k="addr:housenumber" v="907"/><tag k="addr:postcode" v="98012"/><tag k="addr:city" v="Bothell"/><tag k="addr:street" v="183rd Place Southeast"/></node>
<node id="-128" lat="47.831737954" lon="-122.217716991" visible="true"><tag k="addr:housenumber" v="929"/><tag k="addr:postcode" v="98012"/><tag k="addr:city" v="Bothell"/><tag k="addr:street" v="183rd Place Southeast"/></node>
<node id="-129" lat="47.831863265" lon="-122.217784474" visible="true"><tag k="addr:housenumber" v="927"/><tag k="addr:postcode" v="98012"/><tag k="addr:city" v="Bothell"/><tag k="addr:street" v="183rd Place Southeast"/></node>
<node id="-130" lat="47.825127076" lon="-122.218408629" visible="true"><tag k="addr:housenumber" v="19020"/><tag k="addr:postcode" v="98012"/><tag k="addr:city" v="Bothell"/><tag k="addr:street" v="Waxen Road"/></node>
<node id="-131" lat="47.83188312" lon="-122.220782031" visible="true"><tag k="addr:housenumber" v="825"/><tag k="addr:postcode" v="98012"/><tag k="addr:city" v="Bothell"/><tag k="addr:street" v="183rd Place Southeast"/></node>
<node id="-132" lat="47.831884075" lon="-122.220985659" visible="true"><tag k="addr:housenumber" v="823"/><tag k="addr:postcode" v="98012"/><tag k="addr:city" v="Bothell"/><tag k="addr:street" v="183rd Place Southeast"/></node>
<node id="-133" lat="47.832273614" lon="-122.223568663" visible="true"><tag k="addr:housenumber" v="705"/><tag k="addr:postcode" v="98012"/><tag k="addr:city" v="Bothell"/><tag k="addr:street" v="183rd Street Southeast"/></node>
<node id="-134" lat="47.835968238" lon="-122.212198969" visible="true"><tag k="addr:housenumber" v="17818"/><tag k="addr:postcode" v="98012"/><tag k="addr:city" v="Bothell"/><tag k="addr:street" v="Bothell Everett Highway"/></node>
<node id="-135" lat="47.831906408" lon="-122.221968638" visible="true"><tag k="addr:housenumber" v="18302"/><tag k="addr:postcode" v="98012"/><tag k="addr:city" v="Bothell"/><tag k="addr:street" v="8th Avenue Southeast"/></node>
<node id="-136" lat="47.831884996" lon="-122.221756319" visible="true"><tag k="addr:housenumber" v="18300"/><tag k="addr:postcode" v="98012"/><tag k="addr:city" v="Bothell"/><tag k="addr:street" v="8th Avenue Southeast"/></node>
<node id="-137" lat="47.830914189" lon="-122.220924054" visible="true"><tag k="addr:housenumber" v="18326"/><tag k="addr:postcode" v="98012"/><tag k="addr:city" v="Bothell"/><tag k="addr:street" v="8th Avenue Southeast"/></node>
<node id="-138" lat="47.831927614" lon="-122.222254251" visible="true"><tag k="addr:housenumber" v="18304"/><tag k="addr:postcode" v="98012"/><tag k="addr:city" v="Bothell"/><tag k="addr:street" v="8th Avenue Southeast"/></node>
<node id="-139" lat="47.83115994" lon="-122.218522053" visible="true"><tag k="addr:housenumber" v="18402"/><tag k="addr:postcode" v="98012"/><tag k="addr:city" v="Bothell"/><tag k="addr:street" v="10th Drive Southeast"/></node>
<node id="-140" lat="47.831583456" lon="-122.220565315" visible="true"><tag k="addr:housenumber" v="828"/><tag k="addr:postcode" v="98012"/><tag k="addr:city" v="Bothell"/><tag k="addr:street" v="183rd Place Southeast"/></node>
<node id="-141" lat="47.831077388" lon="-122.217641316" visible="true"><tag k="addr:housenumber" v="18411"/><tag k="addr:postcode" v="98012"/><tag k="addr:city" v="Bothell"/><tag k="addr:street" v="10th Drive Southeast"/></node>
<node id="-142" lat="47.831636632" lon="-122.223603562" visible="true"><tag k="addr:housenumber" v="720"/><tag k="addr:postcode" v="98012"/><tag k="addr:city" v="Bothell"/><tag k="addr:street" v="183rd Street Southeast"/></node>
<node id="-143" lat="47.831183759" lon="-122.220852888" visible="true"><tag k="addr:housenumber" v="18327"/><tag k="addr:postcode" v="98012"/><tag k="addr:city" v="Bothell"/><tag k="addr:street" v="8th Avenue Southeast"/></node>
<node id="-144" lat="47.831447197" lon="-122.218518534" visible="true"><tag k="addr:housenumber" v="920"/><tag k="addr:postcode" v="98012"/><tag k="addr:city" v="Bothell"/><tag k="addr:street" v="183rd Place Southeast"/></node>
<node id="-145" lat="47.831575235" lon="-122.220960081" visible="true"><tag k="addr:housenumber" v="822"/><tag k="addr:postcode" v="98012"/><tag k="addr:city" v="Bothell"/><tag k="addr:street" v="183rd Place Southeast"/></node>
<node id="-146" lat="47.831740261" lon="-122.222328634" visible="true"><tag k="addr:housenumber" v="18306"/><tag k="addr:postcode" v="98012"/><tag k="addr:city" v="Bothell"/><tag k="addr:street" v="8th Avenue Southeast"/></node>
<node id="-147" lat="47.831887928" lon="-122.221402129" visible="true"><tag k="addr:housenumber" v="815"/><tag k="addr:postcode" v="98012"/><tag k="addr:city" v="Bothell"/><tag k="addr:street" v="183rd Place Southeast"/></node>
<node id="-148" lat="47.831878969" lon="-122.220163987" visible="true"><tag k="addr:housenumber" v="833"/><tag k="addr:postcode" v="98012"/><tag k="addr:city" v="Bothell"/><tag k="addr:street" v="183rd Place Southeast"/></node>
<node id="-149" lat="47.833160226" lon="-122.211485931" visible="true"><tag k="addr:housenumber" v="18108"/><tag k="addr:postcode" v="98012"/><tag k="addr:city" v="Bothell"/><tag k="addr:street" v="Bothell Everett Highway"/></node>
<node id="-150" lat="47.831364245" lon="-122.215204705" visible="true"><tag k="addr:housenumber" v="1214"/><tag k="addr:postcode" v="98012"/><tag k="addr:city" v="Bothell"/><tag k="addr:street" v="183rd Street Southeast"/></node>
<node id="-151" lat="47.833545692" lon="-122.222771214" visible="true"><tag k="addr:housenumber" v="707"/><tag k="addr:postcode" v="98012"/><tag k="addr:city" v="Bothell"/><tag k="addr:street" v="John Bailey Road"/></node>
<node id="-152" lat="47.833459376" lon="-122.210723231" visible="true"><tag k="addr:housenumber" v="18012"/><tag k="addr:postcode" v="98012"/><tag k="addr:city" v="Bothell"/><tag k="addr:street" v="Bothell Everett Highway"/></node>
<node id="-153" lat="47.831631407" lon="-122.219494638" visible="true"><tag k="addr:housenumber" v="903"/><tag k="addr:postcode" v="98012"/><tag k="addr:city" v="Bothell"/><tag k="addr:street" v="183rd Place Southeast"/></node>
<node id="-154" lat="47.837435132" lon="-122.213868448" visible="true"><tag k="addr:housenumber" v="17716"/><tag k="addr:postcode" v="98012"/><tag k="addr:unit" v="OFC"/><tag k="addr:city" v="Bothell"/><tag k="addr:street" v="Bothell Everett Highway"/></node>
<node id="-155" lat="47.823775204" lon="-122.222874428" visible="true"><tag k="addr:housenumber" v="19218"/><tag k="addr:postcode" v="98012"/><tag k="addr:city" v="Bothell"/><tag k="addr:street" v="Sprague Drive"/></node>
<node id="-156" lat="47.823805907" lon="-122.223453423" visible="true"><tag k="addr:housenumber" v="19228"/><tag k="addr:postcode" v="98012"/><tag k="addr:city" v="Bothell"/><tag k="addr:street" v="Sprague Drive"/></node>
<node id="-157" lat="47.824305523" lon="-122.222685099" visible="true"><tag k="addr:housenumber" v="19224"/><tag k="addr:postcode" v="98012"/><tag k="addr:city" v="Bothell"/><tag k="addr:street" v="Sprague Drive"/></node>
<node id="-158" lat="47.824083515" lon="-122.22237658" visible="true"><tag k="addr:housenumber" v="19222"/><tag k="addr:postcode" v="98012"/><tag k="addr:city" v="Bothell"/><tag k="addr:street" v="Sprague Drive"/></node>
<node id="-159" lat="47.824291666" lon="-122.220484116" visible="true"><tag k="addr:housenumber" v="19112"/><tag k="addr:postcode" v="98012"/><tag k="addr:city" v="Bothell"/><tag k="addr:street" v="Waxen Road"/></node>
<node id="-160" lat="47.82425293" lon="-122.21808296" visible="true"><tag k="addr:housenumber" v="19128"/><tag k="addr:postcode" v="98012"/><tag k="addr:city" v="Bothell"/><tag k="addr:street" v="Waxen Road"/></node>
<node id="-161" lat="47.824727825" lon="-122.224094793" visible="true"><tag k="addr:housenumber" v="525"/><tag k="addr:postcode" v="98012"/><tag k="addr:city" v="Bothell"/><tag k="addr:street" v="192nd Place Southeast"/></node>
<node id="-162" lat="47.829719559" lon="-122.210042671" visible="true"><tag k="addr:housenumber" v="18524"/><tag k="addr:postcode" v="98012"/><tag k="addr:city" v="Bothell"/><tag k="addr:street" v="Bothell Everett Highway"/></node>
<node id="-163" lat="47.830856723" lon="-122.209456751" visible="true"><tag k="addr:housenumber" v="18414"/><tag k="addr:postcode" v="98012"/><tag k="addr:city" v="Bothell"/><tag k="addr:street" v="Bothell Everett Highway"/></node>
<node id="-164" lat="47.826712927" lon="-122.226575012" visible="true"><tag k="addr:housenumber" v="333"/><tag k="addr:postcode" v="98012"/><tag k="addr:city" v="Bothell"/><tag k="addr:street" v="Poppy Road"/></node>
<node id="-165" lat="47.826726361" lon="-122.226735977" visible="true"><tag k="addr:housenumber" v="329"/><tag k="addr:postcode" v="98012"/><tag k="addr:city" v="Bothell"/><tag k="addr:street" v="Poppy Road"/></node>
<node id="-166" lat="47.826652544" lon="-122.227264328" visible="true"><tag k="addr:housenumber" v="315"/><tag k="addr:postcode" v="98012"/><tag k="addr:city" v="Bothell"/><tag k="addr:street" v="Poppy Road"/></node>
<node id="-167" lat="47.826645235" lon="-122.227426613" visible="true"><tag k="addr:housenumber" v="311"/><tag k="addr:postcode" v="98012"/><tag k="addr:city" v="Bothell"/><tag k="addr:street" v="Poppy Road"/></node>
<node id="-168" lat="47.82664175" lon="-122.227513102" visible="true"><tag k="addr:housenumber" v="309"/><tag k="addr:postcode" v="98012"/><tag k="addr:city" v="Bothell"/><tag k="addr:street" v="Poppy Road"/></node>
<node id="-169" lat="47.826731863" lon="-122.226809833" visible="true"><tag k="addr:housenumber" v="327"/><tag k="addr:postcode" v="98012"/><tag k="addr:city" v="Bothell"/><tag k="addr:street" v="Poppy Road"/></node>
<node id="-170" lat="47.826706817" lon="-122.227518108" visible="true"><tag k="addr:housenumber" v="301"/><tag k="addr:postcode" v="98012"/><tag k="addr:city" v="Bothell"/><tag k="addr:street" v="Poppy Road"/></node>
<node id="-171" lat="47.826800537" lon="-122.226773682" visible="true"><tag k="addr:housenumber" v="319"/><tag k="addr:postcode" v="98012"/><tag k="addr:city" v="Bothell"/><tag k="addr:street" v="Poppy Road"/></node>
<node id="-172" lat="47.826647478" lon="-122.227355613" visible="true"><tag k="addr:housenumber" v="313"/><tag k="addr:postcode" v="98012"/><tag k="addr:city" v="Bothell"/><tag k="addr:street" v="Poppy Road"/></node>
<node id="-173" lat="47.826709824" lon="-122.227408482" visible="true"><tag k="addr:housenumber" v="303"/><tag k="addr:postcode" v="98012"/><tag k="addr:city" v="Bothell"/><tag k="addr:street" v="Poppy Road"/></node>
<node id="-174" lat="47.826783348" lon="-122.226586127" visible="true"><tag k="addr:housenumber" v="323"/><tag k="addr:postcode" v="98012"/><tag k="addr:city" v="Bothell"/><tag k="addr:street" v="Poppy Road"/></node>
<node id="-175" lat="47.826771643" lon="-122.226506641" visible="true"><tag k="addr:housenumber" v="325"/><tag k="addr:postcode" v="98012"/><tag k="addr:city" v="Bothell"/><tag k="addr:street" v="Poppy Road"/></node>
<node id="-176" lat="47.826791967" lon="-122.226679775" visible="true"><tag k="addr:housenumber" v="321"/><tag k="addr:postcode" v="98012"/><tag k="addr:city" v="Bothell"/><tag k="addr:street" v="Poppy Road"/></node>
<node id="-177" lat="47.82672252" lon="-122.227204301" visible="true"><tag k="addr:housenumber" v="307"/><tag k="addr:postcode" v="98012"/><tag k="addr:city" v="Bothell"/><tag k="addr:street" v="Poppy Road"/></node>
<node id="-178" lat="47.826719537" lon="-122.227301487" visible="true"><tag k="addr:housenumber" v="305"/><tag k="addr:postcode" v="98012"/><tag k="addr:city" v="Bothell"/><tag k="addr:street" v="Poppy Road"/></node>
<node id="-179" lat="47.82665635" lon="-122.227183313" visible="true"><tag k="addr:housenumber" v="317"/><tag k="addr:postcode" v="98012"/><tag k="addr:city" v="Bothell"/><tag k="addr:street" v="Poppy Road"/></node>
<node id="-180" lat="47.826703589" lon="-122.226499297" visible="true"><tag k="addr:housenumber" v="401"/><tag k="addr:postcode" v="98012"/><tag k="addr:city" v="Bothell"/><tag k="addr:street" v="Poppy Road"/></node>
<node id="-181" lat="47.826717658" lon="-122.22665349" visible="true"><tag k="addr:housenumber" v="331"/><tag k="addr:postcode" v="98012"/><tag k="addr:city" v="Bothell"/><tag k="addr:street" v="Poppy Road"/></node>
<node id="-182" lat="47.83541902" lon="-122.211794878" visible="true"><tag k="addr:housenumber" v="17902"/><tag k="addr:postcode" v="98012"/><tag k="addr:city" v="Bothell"/><tag k="addr:street" v="Bothell Everett Highway"/></node>
<node id="-183" lat="47.834985268" lon="-122.212167397" visible="true"><tag k="addr:housenumber" v="17928"/><tag k="addr:postcode" v="98012"/><tag k="addr:unit" v="D"/><tag k="addr:city" v="Bothell"/><tag k="addr:street" v="Bothell Everett Highway"/></node>
<node id="-184" lat="47.834989337" lon="-122.211994816" visible="true"><tag k="addr:housenumber" v="17928"/><tag k="addr:postcode" v="98012"/><tag k="addr:unit" v="I"/><tag k="addr:city" v="Bothell"/><tag k="addr:street" v="Bothell Everett Highway"/></node>
<node id="-185" lat="47.837338541" lon="-122.213667907" visible="true"><tag k="addr:housenumber" v="17716"/><tag k="addr:postcode" v="98012"/><tag k="addr:city" v="Bothell"/><tag k="addr:street" v="Bothell Everett Highway"/></node>
<node id="-186" lat="47.834996713" lon="-122.211578692" visible="true"><tag k="addr:housenumber" v="17922"/><tag k="addr:postcode" v="98012"/><tag k="addr:city" v="Bothell"/><tag k="addr:street" v="Bothell Everett Highway"/></node>
<node id="-187" lat="47.834817407" lon="-122.212159978" visible="true"><tag k="addr:housenumber" v="17928"/><tag k="addr:postcode" v="98012"/><tag k="addr:unit" v="A"/><tag k="addr:city" v="Bothell"/><tag k="addr:street" v="Bothell Everett Highway"/></node>
<node id="-188" lat="47.834924785" lon="-122.211826314" visible="true"><tag k="addr:housenumber" v="17928"/><tag k="addr:postcode" v="98012"/><tag k="addr:city" v="Bothell"/><tag k="addr:street" v="Bothell Everett Highway"/></node>
<node id="-189" lat="47.834873112" lon="-122.212155556" visible="true"><tag k="addr:housenumber" v="17928"/><tag k="addr:postcode" v="98012"/><tag k="addr:unit" v="B"/><tag k="addr:city" v="Bothell"/><tag k="addr:street" v="Bothell Everett Highway"/></node>
<node id="-190" lat="47.835046976" lon="-122.211994874" visible="true"><tag k="addr:housenumber" v="17928"/><tag k="addr:postcode" v="98012"/><tag k="addr:unit" v="J"/><tag k="addr:city" v="Bothell"/><tag k="addr:street" v="Bothell Everett Highway"/></node>
<node id="-191" lat="47.834875124" lon="-122.211988825" visible="true"><tag k="addr:housenumber" v="17928"/><tag k="addr:postcode" v="98012"/><tag k="addr:unit" v="G"/><tag k="addr:city" v="Bothell"/><tag k="addr:street" v="Bothell Everett Highway"/></node>
<node id="-192" lat="47.834817503" lon="-122.211987292" visible="true"><tag k="addr:housenumber" v="17928"/><tag k="addr:postcode" v="98012"/><tag k="addr:unit" v="F"/><tag k="addr:city" v="Bothell"/><tag k="addr:street" v="Bothell Everett Highway"/></node>
<node id="-193" lat="47.83181067" lon="-122.217341479" visible="true"><tag k="addr:housenumber" v="1112"/><tag k="addr:postcode" v="98012"/><tag k="addr:city" v="Bothell"/><tag k="addr:street" v="183rd Street Southeast"/></node>
<node id="-194" lat="47.832333894" lon="-122.211684296" visible="true"><tag k="addr:housenumber" v="1517"/><tag k="addr:postcode" v="98012"/><tag k="addr:city" v="Bothell"/><tag k="addr:street" v="183rd Street Southeast"/></node>
<node id="-195" lat="47.83504491" lon="-122.212166033" visible="true"><tag k="addr:housenumber" v="17928"/><tag k="addr:postcode" v="98012"/><tag k="addr:unit" v="E"/><tag k="addr:city" v="Bothell"/><tag k="addr:street" v="Bothell Everett Highway"/></node>
<node id="-196" lat="47.834932709" lon="-122.211993309" visible="true"><tag k="addr:housenumber" v="17928"/><tag k="addr:postcode" v="98012"/><tag k="addr:unit" v="H"/><tag k="addr:city" v="Bothell"/><tag k="addr:street" v="Bothell Everett Highway"/></node>
<node id="-197" lat="47.834933679" lon="-122.21216012" visible="true"><tag k="addr:housenumber" v="17928"/><tag k="addr:postcode" v="98012"/><tag k="addr:unit" v="C"/><tag k="addr:city" v="Bothell"/><tag k="addr:street" v="Bothell Everett Highway"/></node>
<node id="-198" lat="47.83260683" lon="-122.214078578" visible="true"><tag k="addr:housenumber" v="1225"/><tag k="addr:postcode" v="98012"/><tag k="addr:city" v="Bothell"/><tag k="addr:street" v="183rd Street Southeast"/></node>
<node id="-199" lat="47.832372549" lon="-122.211232531" visible="true"><tag k="addr:housenumber" v="1521"/><tag k="addr:postcode" v="98012"/><tag k="addr:city" v="Bothell"/><tag k="addr:street" v="183rd Street Southeast"/></node>
<node id="-200" lat="47.832317829" lon="-122.212144804" visible="true"><tag k="addr:housenumber" v="1507"/><tag k="addr:postcode" v="98012"/><tag k="addr:city" v="Bothell"/><tag k="addr:street" v="183rd Street Southeast"/></node>
<node id="-201" lat="47.832487295" lon="-122.227193574" visible="true"><tag k="addr:housenumber" v="18218"/><tag k="addr:postcode" v="98012"/><tag k="addr:city" v="Bothell"/><tag k="addr:street" v="3rd Drive Southeast"/></node>
<node id="-202" lat="47.832716522" lon="-122.227182067" visible="true"><tag k="addr:housenumber" v="18210"/><tag k="addr:postcode" v="98012"/><tag k="addr:city" v="Bothell"/><tag k="addr:street" v="3rd Drive Southeast"/></node>
<node id="-203" lat="47.832606424" lon="-122.227183523" visible="true"><tag k="addr:housenumber" v="18214"/><tag k="addr:postcode" v="98012"/><tag k="addr:city" v="Bothell"/><tag k="addr:street" v="3rd Drive Southeast"/></node>
<node id="-204" lat="47.831595771" lon="-122.226771488" visible="true"><tag k="addr:housenumber" v="18319"/><tag k="addr:postcode" v="98012"/><tag k="addr:city" v="Bothell"/><tag k="addr:street" v="3rd Drive Southeast"/></node>
<node id="-205" lat="47.831686953" lon="-122.226854093" visible="true"><tag k="addr:housenumber" v="18315"/><tag k="addr:postcode" v="98012"/><tag k="addr:city" v="Bothell"/><tag k="addr:street" v="3rd Drive Southeast"/></node>
<node id="-206" lat="47.833233203" lon="-122.226883309" visible="true"><tag k="addr:housenumber" v="18121"/><tag k="addr:postcode" v="98012"/><tag k="addr:city" v="Bothell"/><tag k="addr:street" v="3rd Drive Southeast"/></node>
<node id="-207" lat="47.83168697" lon="-122.227194137" visible="true"><tag k="addr:housenumber" v="18316"/><tag k="addr:postcode" v="98012"/><tag k="addr:city" v="Bothell"/><tag k="addr:street" v="3rd Drive Southeast"/></node>
<node id="-208" lat="47.831497287" lon="-122.227319997" visible="true"><tag k="addr:housenumber" v="18324"/><tag k="addr:postcode" v="98012"/><tag k="addr:city" v="Bothell"/><tag k="addr:street" v="3rd Drive Southeast"/></node>
<node id="-209" lat="47.832454292" lon="-122.226874731" visible="true"><tag k="addr:housenumber" v="18221"/><tag k="addr:postcode" v="98012"/><tag k="addr:city" v="Bothell"/><tag k="addr:street" v="3rd Drive Southeast"/></node>
<node id="-210" lat="47.83268644" lon="-122.226867719" visible="true"><tag k="addr:housenumber" v="18213"/><tag k="addr:postcode" v="98012"/><tag k="addr:city" v="Bothell"/><tag k="addr:street" v="3rd Drive Southeast"/></node>
<node id="-211" lat="47.83334248" lon="-122.227261474" visible="true"><tag k="addr:housenumber" v="18118"/><tag k="addr:postcode" v="98012"/><tag k="addr:city" v="Bothell"/><tag k="addr:street" v="3rd Drive Southeast"/></node>
<node id="-212" lat="47.832903373" lon="-122.227190983" visible="true"><tag k="addr:housenumber" v="18202"/><tag k="addr:postcode" v="98012"/><tag k="addr:city" v="Bothell"/><tag k="addr:street" v="3rd Drive Southeast"/></node>
<node id="-213" lat="47.832160028" lon="-122.227193608" visible="true"><tag k="addr:housenumber" v="18230"/><tag k="addr:postcode" v="98012"/><tag k="addr:city" v="Bothell"/><tag k="addr:street" v="3rd Drive Southeast"/></node>
<node id="-214" lat="47.831934474" lon="-122.227147773" visible="true"><tag k="addr:housenumber" v="18308"/><tag k="addr:postcode" v="98012"/><tag k="addr:city" v="Bothell"/><tag k="addr:street" v="3rd Drive Southeast"/></node>
<node id="-215" lat="47.83289501" lon="-122.226842399" visible="true"><tag k="addr:housenumber" v="18205"/><tag k="addr:postcode" v="98012"/><tag k="addr:city" v="Bothell"/><tag k="addr:street" v="3rd Drive Southeast"/></node>
<node id="-216" lat="47.833144031" lon="-122.226876492" visible="true"><tag k="addr:housenumber" v="18125"/><tag k="addr:postcode" v="98012"/><tag k="addr:city" v="Bothell"/><tag k="addr:street" v="3rd Drive Southeast"/></node>
<node id="-217" lat="47.831352754" lon="-122.22711993" visible="true"><tag k="addr:housenumber" v="18330"/><tag k="addr:postcode" v="98012"/><tag k="addr:city" v="Bothell"/><tag k="addr:street" v="3rd Drive Southeast"/></node>
<node id="-218" lat="47.831322834" lon="-122.226792163" visible="true"><tag k="addr:housenumber" v="18327"/><tag k="addr:postcode" v="98012"/><tag k="addr:city" v="Bothell"/><tag k="addr:street" v="3rd Drive Southeast"/></node>
<node id="-219" lat="47.83192478" lon="-122.226869326" visible="true"><tag k="addr:housenumber" v="18307"/><tag k="addr:postcode" v="98012"/><tag k="addr:city" v="Bothell"/><tag k="addr:street" v="3rd Drive Southeast"/></node>
<node id="-220" lat="47.832129836" lon="-122.226888096" visible="true"><tag k="addr:housenumber" v="18231"/><tag k="addr:postcode" v="98012"/><tag k="addr:city" v="Bothell"/><tag k="addr:street" v="3rd Drive Southeast"/></node>
<node id="-221" lat="47.833456511" lon="-122.227300527" visible="true"><tag k="addr:housenumber" v="18114"/><tag k="addr:postcode" v="98012"/><tag k="addr:city" v="Bothell"/><tag k="addr:street" v="3rd Drive Southeast"/></node>
<node id="-222" lat="47.831791606" lon="-122.227152767" visible="true"><tag k="addr:housenumber" v="18312"/><tag k="addr:postcode" v="98012"/><tag k="addr:city" v="Bothell"/><tag k="addr:street" v="3rd Drive Southeast"/></node>
<node id="-223" lat="47.832823431" lon="-122.227198199" visible="true"><tag k="addr:housenumber" v="18206"/><tag k="addr:postcode" v="98012"/><tag k="addr:city" v="Bothell"/><tag k="addr:street" v="3rd Drive Southeast"/></node>
<node id="-224" lat="47.8320562" lon="-122.227168721" visible="true"><tag k="addr:housenumber" v="18304"/><tag k="addr:postcode" v="98012"/><tag k="addr:city" v="Bothell"/><tag k="addr:street" v="3rd Drive Southeast"/></node>
<node id="-225" lat="47.831359909" lon="-122.227265047" visible="true"><tag k="addr:housenumber" v="18328"/><tag k="addr:postcode" v="98012"/><tag k="addr:city" v="Bothell"/><tag k="addr:street" v="3rd Drive Southeast"/></node>
<node id="-226" lat="47.832249073" lon="-122.226869212" visible="true"><tag k="addr:housenumber" v="18227"/><tag k="addr:postcode" v="98012"/><tag k="addr:city" v="Bothell"/><tag k="addr:street" v="3rd Drive Southeast"/></node>
<node id="-227" lat="47.833008028" lon="-122.226845439" visible="true"><tag k="addr:housenumber" v="18129"/><tag k="addr:postcode" v="98012"/><tag k="addr:city" v="Bothell"/><tag k="addr:street" v="3rd Drive Southeast"/></node>
<node id="-228" lat="47.83157082" lon="-122.227301473" visible="true"><tag k="addr:housenumber" v="18320"/><tag k="addr:postcode" v="98012"/><tag k="addr:city" v="Bothell"/><tag k="addr:street" v="3rd Drive Southeast"/></node>
<node id="-229" lat="47.831270412" lon="-122.227480024" visible="true"><tag k="addr:housenumber" v="18326"/><tag k="addr:postcode" v="98012"/><tag k="addr:city" v="Bothell"/><tag k="addr:street" v="3rd Drive Southeast"/></node>
<node id="-230" lat="47.832350141" lon="-122.226876348" visible="true"><tag k="addr:housenumber" v="18225"/><tag k="addr:postcode" v="98012"/><tag k="addr:city" v="Bothell"/><tag k="addr:street" v="3rd Drive Southeast"/></node>
<node id="-231" lat="47.832564337" lon="-122.226877691" visible="true"><tag k="addr:housenumber" v="18217"/><tag k="addr:postcode" v="98012"/><tag k="addr:city" v="Bothell"/><tag k="addr:street" v="3rd Drive Southeast"/></node>
<node id="-232" lat="47.833237135" lon="-122.22721463" visible="true"><tag k="addr:housenumber" v="18122"/><tag k="addr:postcode" v="98012"/><tag k="addr:city" v="Bothell"/><tag k="addr:street" v="3rd Drive Southeast"/></node>
<node id="-233" lat="47.832279103" lon="-122.227187974" visible="true"><tag k="addr:housenumber" v="18226"/><tag k="addr:postcode" v="98012"/><tag k="addr:city" v="Bothell"/><tag k="addr:street" v="3rd Drive Southeast"/></node>
<node id="-234" lat="47.831320895" lon="-122.226951173" visible="true"><tag k="addr:housenumber" v="18329"/><tag k="addr:postcode" v="98012"/><tag k="addr:city" v="Bothell"/><tag k="addr:street" v="3rd Drive Southeast"/></node>
<node id="-235" lat="47.832017033" lon="-122.226867389" visible="true"><tag k="addr:housenumber" v="18303"/><tag k="addr:postcode" v="98012"/><tag k="addr:city" v="Bothell"/><tag k="addr:street" v="3rd Drive Southeast"/></node>
<node id="-236" lat="47.832790536" lon="-122.226870519" visible="true"><tag k="addr:housenumber" v="18209"/><tag k="addr:postcode" v="98012"/><tag k="addr:city" v="Bothell"/><tag k="addr:street" v="3rd Drive Southeast"/></node>
<node id="-237" lat="47.832374168" lon="-122.227199369" visible="true"><tag k="addr:housenumber" v="18222"/><tag k="addr:postcode" v="98012"/><tag k="addr:city" v="Bothell"/><tag k="addr:street" v="3rd Drive Southeast"/></node>
<node id="-238" lat="47.831479735" lon="-122.226771903" visible="true"><tag k="addr:housenumber" v="18323"/><tag k="addr:postcode" v="98012"/><tag k="addr:city" v="Bothell"/><tag k="addr:street" v="3rd Drive Southeast"/></node>
<node id="-239" lat="47.831800025" lon="-122.226852715" visible="true"><tag k="addr:housenumber" v="18311"/><tag k="addr:postcode" v="98012"/><tag k="addr:city" v="Bothell"/><tag k="addr:street" v="3rd Drive Southeast"/></node>
<node id="-240" lat="47.833360876" lon="-122.226904417" visible="true"><tag k="addr:housenumber" v="18117"/><tag k="addr:postcode" v="98012"/><tag k="addr:city" v="Bothell"/><tag k="addr:street" v="3rd Drive Southeast"/></node>
<node id="-241" lat="47.833458432" lon="-122.226955645" visible="true"><tag k="addr:housenumber" v="18113"/><tag k="addr:postcode" v="98012"/><tag k="addr:city" v="Bothell"/><tag k="addr:street" v="3rd Drive Southeast"/></node>
<node id="-242" lat="47.833555446" lon="-122.227304918" visible="true"><tag k="addr:housenumber" v="18112"/><tag k="addr:postcode" v="98012"/><tag k="addr:city" v="Bothell"/><tag k="addr:street" v="3rd Drive Southeast"/></node>
<node id="-243" lat="47.833881544" lon="-122.226616589" visible="true"><tag k="addr:housenumber" v="18027"/><tag k="addr:postcode" v="98012"/><tag k="addr:city" v="Bothell"/><tag k="addr:street" v="3rd Drive Southeast"/></node>
<node id="-244" lat="47.833865603" lon="-122.22697647" visible="true"><tag k="addr:housenumber" v="18029"/><tag k="addr:postcode" v="98012"/><tag k="addr:city" v="Bothell"/><tag k="addr:street" v="3rd Drive Southeast"/></node>
<node id="-245" lat="47.833746878" lon="-122.226607249" visible="true"><tag k="addr:housenumber" v="18105"/><tag k="addr:postcode" v="98012"/><tag k="addr:city" v="Bothell"/><tag k="addr:street" v="3rd Drive Southeast"/></node>
<node id="-246" lat="47.833761664" lon="-122.226973674" visible="true"><tag k="addr:housenumber" v="18103"/><tag k="addr:postcode" v="98012"/><tag k="addr:city" v="Bothell"/><tag k="addr:street" v="3rd Drive Southeast"/></node>
<node id="-247" lat="47.833604304" lon="-122.226614853" visible="true"><tag k="addr:housenumber" v="18109"/><tag k="addr:postcode" v="98012"/><tag k="addr:city" v="Bothell"/><tag k="addr:street" v="3rd Drive Southeast"/></node>
<node id="-248" lat="47.833866052" lon="-122.227335176" visible="true"><tag k="addr:housenumber" v="18030"/><tag k="addr:postcode" v="98012"/><tag k="addr:city" v="Bothell"/><tag k="addr:street" v="3rd Drive Southeast"/></node>
<node id="-249" lat="47.834082649" lon="-122.227347727" visible="true"><tag k="addr:housenumber" v="18022"/><tag k="addr:postcode" v="98012"/><tag k="addr:city" v="Bothell"/><tag k="addr:street" v="3rd Drive Southeast"/></node>
<node id="-250" lat="47.834181759" lon="-122.226799194" visible="true"><tag k="addr:housenumber" v="18019"/><tag k="addr:postcode" v="98012"/><tag k="addr:city" v="Bothell"/><tag k="addr:street" v="3rd Drive Southeast"/></node>
<node id="-251" lat="47.834047216" lon="-122.226609606" visible="true"><tag k="addr:housenumber" v="18025"/><tag k="addr:postcode" v="98012"/><tag k="addr:city" v="Bothell"/><tag k="addr:street" v="3rd Drive Southeast"/></node>
<node id="-252" lat="47.834298366" lon="-122.227342094" visible="true"><tag k="addr:housenumber" v="18014"/><tag k="addr:postcode" v="98012"/><tag k="addr:city" v="Bothell"/><tag k="addr:street" v="3rd Drive Southeast"/></node>
<node id="-253" lat="47.834418121" lon="-122.227311" visible="true"><tag k="addr:housenumber" v="18010"/><tag k="addr:postcode" v="98012"/><tag k="addr:city" v="Bothell"/><tag k="addr:street" v="3rd Drive Southeast"/></node>
<node id="-254" lat="47.834454347" lon="-122.227150958" visible="true"><tag k="addr:housenumber" v="18004"/><tag k="addr:postcode" v="98012"/><tag k="addr:city" v="Bothell"/><tag k="addr:street" v="3rd Drive Southeast"/></node>
<node id="-255" lat="47.833959392" lon="-122.22735013" visible="true"><tag k="addr:housenumber" v="18026"/><tag k="addr:postcode" v="98012"/><tag k="addr:city" v="Bothell"/><tag k="addr:street" v="3rd Drive Southeast"/></node>
<node id="-256" lat="47.834050871" lon="-122.226941419" visible="true"><tag k="addr:housenumber" v="18023"/><tag k="addr:postcode" v="98012"/><tag k="addr:city" v="Bothell"/><tag k="addr:street" v="3rd Drive Southeast"/></node>
<node id="-257" lat="47.833580733" lon="-122.226968807" visible="true"><tag k="addr:housenumber" v="18111"/><tag k="addr:postcode" v="98012"/><tag k="addr:city" v="Bothell"/><tag k="addr:street" v="3rd Drive Southeast"/></node>
<node id="-258" lat="47.834190647" lon="-122.227333476" visible="true"><tag k="addr:housenumber" v="18018"/><tag k="addr:postcode" v="98012"/><tag k="addr:city" v="Bothell"/><tag k="addr:street" v="3rd Drive Southeast"/></node>
<node id="-259" lat="47.834324194" lon="-122.226803025" visible="true"><tag k="addr:housenumber" v="18015"/><tag k="addr:postcode" v="98012"/><tag k="addr:city" v="Bothell"/><tag k="addr:street" v="3rd Drive Southeast"/></node>
<node id="-260" lat="47.831432515" lon="-122.213383975" visible="true"><tag k="addr:housenumber" v="1409"/><tag k="addr:postcode" v="98012"/><tag k="addr:city" v="Bothell"/><tag k="addr:street" v="183rd Place Southeast"/></node>
<node id="-261" lat="47.830884371" lon="-122.213364427" visible="true"><tag k="addr:housenumber" v="1417"/><tag k="addr:postcode" v="98012"/><tag k="addr:city" v="Bothell"/><tag k="addr:street" v="184th Place Southeast"/></node>
<node id="-262" lat="47.830891773" lon="-122.213539944" visible="true"><tag k="addr:housenumber" v="1409"/><tag k="addr:postcode" v="98012"/><tag k="addr:city" v="Bothell"/><tag k="addr:street" v="184th Place Southeast"/></node>
<node id="-263" lat="47.830696651" lon="-122.213141691" visible="true"><tag k="addr:housenumber" v="1426"/><tag k="addr:postcode" v="98012"/><tag k="addr:city" v="Bothell"/><tag k="addr:street" v="184th Place Southeast"/></node>
<node id="-264" lat="47.830440877" lon="-122.213113773" visible="true"><tag k="addr:housenumber" v="18424"/><tag k="addr:postcode" v="98012"/><tag k="addr:city" v="Bothell"/><tag k="addr:street" v="14th Drive Southeast"/></node>
<node id="-265" lat="47.831433343" lon="-122.21378837" visible="true"><tag k="addr:housenumber" v="1401"/><tag k="addr:postcode" v="98012"/><tag k="addr:city" v="Bothell"/><tag k="addr:street" v="183rd Place Southeast"/></node>
<node id="-266" lat="47.831271805" lon="-122.21372327" visible="true"><tag k="addr:housenumber" v="1402"/><tag k="addr:postcode" v="98012"/><tag k="addr:city" v="Bothell"/><tag k="addr:street" v="183rd Place Southeast"/></node>
<node id="-267" lat="47.830881118" lon="-122.213160743" visible="true"><tag k="addr:housenumber" v="1425"/><tag k="addr:postcode" v="98012"/><tag k="addr:city" v="Bothell"/><tag k="addr:street" v="184th Place Southeast"/></node>
<node id="-268" lat="47.831016522" lon="-122.214640438" visible="true"><tag k="addr:housenumber" v="18404"/><tag k="addr:postcode" v="98012"/><tag k="addr:city" v="Bothell"/><tag k="addr:street" v="13th Avenue Southeast"/></node>
<node id="-269" lat="47.830698229" lon="-122.21411267" visible="true"><tag k="addr:housenumber" v="1312"/><tag k="addr:postcode" v="98012"/><tag k="addr:city" v="Bothell"/><tag k="addr:street" v="184th Place Southeast"/></node>
<node id="-270" lat="47.830298389" lon="-122.213087358" visible="true"><tag k="addr:housenumber" v="18426"/><tag k="addr:postcode" v="98012"/><tag k="addr:city" v="Bothell"/><tag k="addr:street" v="14th Drive Southeast"/></node>
<node id="-271" lat="47.83065831" lon="-122.212808411" visible="true"><tag k="addr:housenumber" v="18415"/><tag k="addr:postcode" v="98012"/><tag k="addr:city" v="Bothell"/><tag k="addr:street" v="14th Drive Southeast"/></node>
<node id="-272" lat="47.831312212" lon="-122.214161237" visible="true"><tag k="addr:housenumber" v="18326"/><tag k="addr:postcode" v="98012"/><tag k="addr:city" v="Bothell"/><tag k="addr:street" v="13th Drive Southeast"/></node>
<node id="-273" lat="47.831275535" lon="-122.21388738" visible="true"><tag k="addr:housenumber" v="1324"/><tag k="addr:postcode" v="98012"/><tag k="addr:city" v="Bothell"/><tag k="addr:street" v="183rd Place Southeast"/></node>
<node id="-274" lat="47.830607308" lon="-122.214626702" visible="true"><tag k="addr:housenumber" v="18416"/><tag k="addr:postcode" v="98012"/><tag k="addr:city" v="Bothell"/><tag k="addr:street" v="13th Avenue Southeast"/></node>
<node id="-275" lat="47.830465188" lon="-122.214294189" visible="true"><tag k="addr:housenumber" v="18421"/><tag k="addr:postcode" v="98012"/><tag k="addr:city" v="Bothell"/><tag k="addr:street" v="13th Avenue Southeast"/></node>
<node id="-276" lat="47.830888733" lon="-122.212806063" visible="true"><tag k="addr:housenumber" v="18407"/><tag k="addr:postcode" v="98012"/><tag k="addr:city" v="Bothell"/><tag k="addr:street" v="14th Drive Southeast"/></node>
<node id="-277" lat="47.831766033" lon="-122.213043625" visible="true"><tag k="addr:housenumber" v="18305"/><tag k="addr:postcode" v="98012"/><tag k="addr:city" v="Bothell"/><tag k="addr:street" v="14th Drive Southeast"/></node>
<node id="-278" lat="47.831272052" lon="-122.213545126" visible="true"><tag k="addr:housenumber" v="1408"/><tag k="addr:postcode" v="98012"/><tag k="addr:city" v="Bothell"/><tag k="addr:street" v="183rd Place Southeast"/></node>
<node id="-279" lat="47.831270336" lon="-122.213214231" visible="true"><tag k="addr:housenumber" v="1422"/><tag k="addr:postcode" v="98012"/><tag k="addr:city" v="Bothell"/><tag k="addr:street" v="183rd Place Southeast"/></node>
<node id="-280" lat="47.831074106" lon="-122.214169031" visible="true"><tag k="addr:housenumber" v="18400"/><tag k="addr:postcode" v="98012"/><tag k="addr:city" v="Bothell"/><tag k="addr:street" v="13th Drive Southeast"/></node>
<node id="-281" lat="47.830875767" lon="-122.214628202" visible="true"><tag k="addr:housenumber" v="18408"/><tag k="addr:postcode" v="98012"/><tag k="addr:city" v="Bothell"/><tag k="addr:street" v="13th Avenue Southeast"/></node>
<node id="-282" lat="47.831428256" lon="-122.214169986" visible="true"><tag k="addr:housenumber" v="1311"/><tag k="addr:postcode" v="98012"/><tag k="addr:city" v="Bothell"/><tag k="addr:street" v="183rd Place Southeast"/></node>
<node id="-283" lat="47.831197866" lon="-122.214169501" visible="true"><tag k="addr:housenumber" v="18330"/><tag k="addr:postcode" v="98012"/><tag k="addr:city" v="Bothell"/><tag k="addr:street" v="13th Drive Southeast"/></node>
<node id="-284" lat="47.830742557" lon="-122.214621824" visible="true"><tag k="addr:housenumber" v="18412"/><tag k="addr:postcode" v="98012"/><tag k="addr:city" v="Bothell"/><tag k="addr:street" v="13th Avenue Southeast"/></node>
<node id="-285" lat="47.830456967" lon="-122.214619866" visible="true"><tag k="addr:housenumber" v="18420"/><tag k="addr:postcode" v="98012"/><tag k="addr:city" v="Bothell"/><tag k="addr:street" v="13th Avenue Southeast"/></node>
<node id="-286" lat="47.830770888" lon="-122.212788786" visible="true"><tag k="addr:housenumber" v="18411"/><tag k="addr:postcode" v="98012"/><tag k="addr:city" v="Bothell"/><tag k="addr:street" v="14th Drive Southeast"/></node>
<node id="-287" lat="47.831005016" lon="-122.212795019" visible="true"><tag k="addr:housenumber" v="18403"/><tag k="addr:postcode" v="98012"/><tag k="addr:city" v="Bothell"/><tag k="addr:street" v="14th Drive Southeast"/></node>
<node id="-288" lat="47.831665314" lon="-122.213460871" visible="true"><tag k="addr:housenumber" v="18306"/><tag k="addr:postcode" v="98012"/><tag k="addr:city" v="Bothell"/><tag k="addr:street" v="14th Drive Southeast"/></node>
<node id="-289" lat="47.830891729" lon="-122.213701126" visible="true"><tag k="addr:housenumber" v="1331"/><tag k="addr:postcode" v="98012"/><tag k="addr:city" v="Bothell"/><tag k="addr:street" v="184th Place Southeast"/></node>
<node id="-290" lat="47.830889578" lon="-122.213879216" visible="true"><tag k="addr:housenumber" v="1321"/><tag k="addr:postcode" v="98012"/><tag k="addr:city" v="Bothell"/><tag k="addr:street" v="184th Place Southeast"/></node>
<node id="-291" lat="47.830697514" lon="-122.213543253" visible="true"><tag k="addr:housenumber" v="1410"/><tag k="addr:postcode" v="98012"/><tag k="addr:city" v="Bothell"/><tag k="addr:street" v="184th Place Southeast"/></node>
<node id="-292" lat="47.830693989" lon="-122.213362184" visible="true"><tag k="addr:housenumber" v="1418"/><tag k="addr:postcode" v="98012"/><tag k="addr:city" v="Bothell"/><tag k="addr:street" v="184th Place Southeast"/></node>
<node id="-293" lat="47.831435699" lon="-122.213593316" visible="true"><tag k="addr:housenumber" v="1405"/><tag k="addr:postcode" v="98012"/><tag k="addr:city" v="Bothell"/><tag k="addr:street" v="183rd Place Southeast"/></node>
<node id="-294" lat="47.831440948" lon="-122.213946928" visible="true"><tag k="addr:housenumber" v="1327"/><tag k="addr:postcode" v="98012"/><tag k="addr:city" v="Bothell"/><tag k="addr:street" v="183rd Place Southeast"/></node>
<node id="-295" lat="47.830707328" lon="-122.214307006" visible="true"><tag k="addr:housenumber" v="1304"/><tag k="addr:postcode" v="98012"/><tag k="addr:city" v="Bothell"/><tag k="addr:street" v="184th Place Southeast"/></node>
<node id="-296" lat="47.830689268" lon="-122.21391064" visible="true"><tag k="addr:housenumber" v="1320"/><tag k="addr:postcode" v="98012"/><tag k="addr:city" v="Bothell"/><tag k="addr:street" v="184th Place Southeast"/></node>
<node id="-297" lat="47.830309869" lon="-122.212807618" visible="true"><tag k="addr:housenumber" v="18427"/><tag k="addr:postcode" v="98012"/><tag k="addr:city" v="Bothell"/><tag k="addr:street" v="14th Drive Southeast"/></node>
<node id="-298" lat="47.830547908" lon="-122.212805472" visible="true"><tag k="addr:housenumber" v="18419"/><tag k="addr:postcode" v="98012"/><tag k="addr:city" v="Bothell"/><tag k="addr:street" v="14th Drive Southeast"/></node>
<node id="-299" lat="47.831548347" lon="-122.214159046" visible="true"><tag k="addr:housenumber" v="1319"/><tag k="addr:postcode" v="98012"/><tag k="addr:city" v="Bothell"/><tag k="addr:street" v="183rd Place Southeast"/></node>
<node id="-300" lat="47.831275731" lon="-122.213398181" visible="true"><tag k="addr:housenumber" v="1412"/><tag k="addr:postcode" v="98012"/><tag k="addr:city" v="Bothell"/><tag k="addr:street" v="183rd Place Southeast"/></node>
<node id="-301" lat="47.830930757" lon="-122.2141707" visible="true"><tag k="addr:housenumber" v="18406"/><tag k="addr:postcode" v="98012"/><tag k="addr:city" v="Bothell"/><tag k="addr:street" v="13th Drive Southeast"/></node>
<node id="-302" lat="47.830685948" lon="-122.21371261" visible="true"><tag k="addr:housenumber" v="1328"/><tag k="addr:postcode" v="98012"/><tag k="addr:city" v="Bothell"/><tag k="addr:street" v="184th Place Southeast"/></node>
<node id="-303" lat="47.830424112" lon="-122.212807831" visible="true"><tag k="addr:housenumber" v="18423"/><tag k="addr:postcode" v="98012"/><tag k="addr:city" v="Bothell"/><tag k="addr:street" v="14th Drive Southeast"/></node>
<node id="-304" lat="47.831874514" lon="-122.213047927" visible="true"><tag k="addr:housenumber" v="18301"/><tag k="addr:postcode" v="98012"/><tag k="addr:city" v="Bothell"/><tag k="addr:street" v="14th Drive Southeast"/></node>
<node id="-305" lat="47.832639263" lon="-122.223225283" visible="true"><tag k="addr:housenumber" v="626"/><tag k="addr:postcode" v="98012"/><tag k="addr:city" v="Bothell"/><tag k="addr:street" v="182nd Street Southeast"/></node>
<node id="-306" lat="47.832642711" lon="-122.223724492" visible="true"><tag k="addr:housenumber" v="608"/><tag k="addr:postcode" v="98012"/><tag k="addr:city" v="Bothell"/><tag k="addr:street" v="182nd Street Southeast"/></node>
<node id="-307" lat="47.832644882" lon="-122.22338945" visible="true"><tag k="addr:housenumber" v="620"/><tag k="addr:postcode" v="98012"/><tag k="addr:city" v="Bothell"/><tag k="addr:street" v="182nd Street Southeast"/></node>
<node id="-308" lat="47.832641054" lon="-122.223547706" visible="true"><tag k="addr:housenumber" v="614"/><tag k="addr:postcode" v="98012"/><tag k="addr:city" v="Bothell"/><tag k="addr:street" v="182nd Street Southeast"/></node>
<node id="-309" lat="47.832643624" lon="-122.223023209" visible="true"><tag k="addr:housenumber" v="632"/><tag k="addr:postcode" v="98012"/><tag k="addr:city" v="Bothell"/><tag k="addr:street" v="182nd Street Southeast"/></node>
<node id="-310" lat="47.829757213" lon="-122.215768611" visible="true"><tag k="addr:housenumber" v="1128"/><tag k="addr:postcode" v="98012"/><tag k="addr:city" v="Bothell"/><tag k="addr:street" v="185th Place Southeast"/></node>
<node id="-311" lat="47.82983333" lon="-122.215539563" visible="true"><tag k="addr:housenumber" v="1132"/><tag k="addr:postcode" v="98012"/><tag k="addr:city" v="Bothell"/><tag k="addr:street" v="185th Place Southeast"/></node>
<node id="-312" lat="47.833158733" lon="-122.212121145" visible="true"><tag k="addr:housenumber" v="18124"/><tag k="addr:postcode" v="98012"/><tag k="addr:city" v="Bothell"/><tag k="addr:street" v="Bothell Everett Highway"/></node>
<node id="-313" lat="47.83046708" lon="-122.217264644" visible="true"><tag k="addr:housenumber" v="18430"/><tag k="addr:postcode" v="98012"/><tag k="addr:city" v="Bothell"/><tag k="addr:street" v="11th Drive Southeast"/></node>
<node id="-314" lat="47.829750101" lon="-122.216299801" visible="true"><tag k="addr:housenumber" v="1120"/><tag k="addr:postcode" v="98012"/><tag k="addr:city" v="Bothell"/><tag k="addr:street" v="185th Place Southeast"/></node>
<node id="-315" lat="47.829648401" lon="-122.214139714" visible="true"><tag k="addr:housenumber" v="1323"/><tag k="addr:postcode" v="98012"/><tag k="addr:city" v="Bothell"/><tag k="addr:street" v="186th Street Southeast"/></node>
<node id="-316" lat="47.83033782" lon="-122.216560821" visible="true"><tag k="addr:housenumber" v="1117"/><tag k="addr:postcode" v="98012"/><tag k="addr:city" v="Bothell"/><tag k="addr:street" v="185th Place Southeast"/></node>
<node id="-317" lat="47.830326699" lon="-122.21606375" visible="true"><tag k="addr:housenumber" v="1123"/><tag k="addr:postcode" v="98012"/><tag k="addr:city" v="Bothell"/><tag k="addr:street" v="185th Place Southeast"/></node>
<node id="-318" lat="47.830737168" lon="-122.217263714" visible="true"><tag k="addr:housenumber" v="18412"/><tag k="addr:postcode" v="98012"/><tag k="addr:city" v="Bothell"/><tag k="addr:street" v="11th Drive Southeast"/></node>
<node id="-319" lat="47.829824356" lon="-122.216564419" visible="true"><tag k="addr:housenumber" v="1118"/><tag k="addr:postcode" v="98012"/><tag k="addr:city" v="Bothell"/><tag k="addr:street" v="185th Place Southeast"/></node>
<node id="-320" lat="47.831309222" lon="-122.216044161" visible="true"><tag k="addr:housenumber" v="18330"/><tag k="addr:postcode" v="98012"/><tag k="addr:city" v="Bothell"/><tag k="addr:street" v="12th Drive Southeast"/></node>
<node id="-321" lat="47.831462509" lon="-122.216065558" visible="true"><tag k="addr:housenumber" v="18328"/><tag k="addr:postcode" v="98012"/><tag k="addr:city" v="Bothell"/><tag k="addr:street" v="12th Drive Southeast"/></node>
<node id="-322" lat="47.826548596" lon="-122.220117011" visible="true"><tag k="addr:housenumber" v="18904"/><tag k="addr:postcode" v="98012"/><tag k="addr:city" v="Bothell"/><tag k="addr:street" v="Waxen Road"/></node>
<node id="-323" lat="47.825737948" lon="-122.225882574" visible="true"><tag k="addr:housenumber" v="18931"/><tag k="addr:postcode" v="98012"/><tag k="addr:city" v="Bothell"/><tag k="addr:street" v="4th Drive Southeast"/></node>
<node id="-324" lat="47.82556598" lon="-122.225656047" visible="true"><tag k="addr:housenumber" v="19003"/><tag k="addr:postcode" v="98012"/><tag k="addr:city" v="Bothell"/><tag k="addr:street" v="4th Drive Southeast"/></node>
<node id="-325" lat="47.824954941" lon="-122.225236787" visible="true"><tag k="addr:housenumber" v="19033"/><tag k="addr:postcode" v="98012"/><tag k="addr:city" v="Bothell"/><tag k="addr:street" v="4th Drive Southeast"/></node>
<node id="-326" lat="47.825292198" lon="-122.225105874" visible="true"><tag k="addr:housenumber" v="19017"/><tag k="addr:postcode" v="98012"/><tag k="addr:city" v="Bothell"/><tag k="addr:street" v="4th Drive Southeast"/></node>
<node id="-327" lat="47.82625026" lon="-122.226667907" visible="true"><tag k="addr:housenumber" v="18907"/><tag k="addr:postcode" v="98012"/><tag k="addr:city" v="Bothell"/><tag k="addr:street" v="4th Drive Southeast"/></node>
<node id="-328" lat="47.82599045" lon="-122.22629221" visible="true"><tag k="addr:housenumber" v="18919"/><tag k="addr:postcode" v="98012"/><tag k="addr:city" v="Bothell"/><tag k="addr:street" v="4th Drive Southeast"/></node>
<node id="-329" lat="47.825415237" lon="-122.225385709" visible="true"><tag k="addr:housenumber" v="19011"/><tag k="addr:postcode" v="98012"/><tag k="addr:city" v="Bothell"/><tag k="addr:street" v="4th Drive Southeast"/></node>
<node id="-330" lat="47.82522019" lon="-122.224977625" visible="true"><tag k="addr:housenumber" v="19021"/><tag k="addr:postcode" v="98012"/><tag k="addr:city" v="Bothell"/><tag k="addr:street" v="4th Drive Southeast"/></node>
<node id="-331" lat="47.825477801" lon="-122.225534188" visible="true"><tag k="addr:housenumber" v="19007"/><tag k="addr:postcode" v="98012"/><tag k="addr:city" v="Bothell"/><tag k="addr:street" v="4th Drive Southeast"/></node>
<node id="-332" lat="47.826169103" lon="-122.226535993" visible="true"><tag k="addr:housenumber" v="18911"/><tag k="addr:postcode" v="98012"/><tag k="addr:city" v="Bothell"/><tag k="addr:street" v="4th Drive Southeast"/></node>
<node id="-333" lat="47.826090119" lon="-122.22641438" visible="true"><tag k="addr:housenumber" v="18915"/><tag k="addr:postcode" v="98012"/><tag k="addr:city" v="Bothell"/><tag k="addr:street" v="4th Drive Southeast"/></node>
<node id="-334" lat="47.825900431" lon="-122.226132747" visible="true"><tag k="addr:housenumber" v="18923"/><tag k="addr:postcode" v="98012"/><tag k="addr:city" v="Bothell"/><tag k="addr:street" v="4th Drive Southeast"/></node>
<node id="-335" lat="47.825821405" lon="-122.226014549" visible="true"><tag k="addr:housenumber" v="18927"/><tag k="addr:postcode" v="98012"/><tag k="addr:city" v="Bothell"/><tag k="addr:street" v="4th Drive Southeast"/></node>
<node id="-336" lat="47.825647388" lon="-122.225767481" visible="true"><tag k="addr:housenumber" v="19001"/><tag k="addr:postcode" v="98012"/><tag k="addr:city" v="Bothell"/><tag k="addr:street" v="4th Drive Southeast"/></node>
<node id="-337" lat="47.825120727" lon="-122.224838397" visible="true"><tag k="addr:housenumber" v="19025"/><tag k="addr:postcode" v="98012"/><tag k="addr:city" v="Bothell"/><tag k="addr:street" v="4th Drive Southeast"/></node>
<node id="-338" lat="47.825347951" lon="-122.225247344" visible="true"><tag k="addr:housenumber" v="19013"/><tag k="addr:postcode" v="98012"/><tag k="addr:city" v="Bothell"/><tag k="addr:street" v="4th Drive Southeast"/></node>
<node id="-339" lat="47.826328663" lon="-122.226837301" visible="true"><tag k="addr:housenumber" v="18903"/><tag k="addr:postcode" v="98012"/><tag k="addr:city" v="Bothell"/><tag k="addr:street" v="4th Drive Southeast"/></node>
<node id="-340" lat="47.82503253" lon="-122.225095487" visible="true"><tag k="addr:housenumber" v="19029"/><tag k="addr:postcode" v="98012"/><tag k="addr:city" v="Bothell"/><tag k="addr:street" v="4th Drive Southeast"/></node>
<node id="-341" lat="47.826415757" lon="-122.227047897" visible="true"><tag k="addr:housenumber" v="18901"/><tag k="addr:postcode" v="98012"/><tag k="addr:city" v="Bothell"/><tag k="addr:street" v="4th Drive Southeast"/></node>
<node id="-342" lat="47.828056794" lon="-122.227315512" visible="true"><tag k="addr:housenumber" v="18716"/><tag k="addr:postcode" v="98012"/><tag k="addr:city" v="Bothell"/><tag k="addr:street" v="2nd Drive Southeast"/></node>
<node id="-343" lat="47.835055261" lon="-122.214170782" visible="true"><tag k="addr:housenumber" v="17716"/><tag k="addr:postcode" v="98012"/><tag k="addr:unit" v="J"/><tag k="addr:city" v="Bothell"/><tag k="addr:street" v="Bothell Everett Highway"/></node>
<node id="-344" lat="47.835056951" lon="-122.214725997" visible="true"><tag k="addr:housenumber" v="17716"/><tag k="addr:postcode" v="98012"/><tag k="addr:unit" v="M"/><tag k="addr:city" v="Bothell"/><tag k="addr:street" v="Bothell Everett Highway"/></node>
<node id="-345" lat="47.836592343" lon="-122.212789469" visible="true"><tag k="addr:housenumber" v="17716"/><tag k="addr:postcode" v="98012"/><tag k="addr:unit" v="F"/><tag k="addr:city" v="Bothell"/><tag k="addr:street" v="Bothell Everett Highway"/></node>
<node id="-346" lat="47.83490149" lon="-122.212644643" visible="true"><tag k="addr:housenumber" v="17716"/><tag k="addr:postcode" v="98012"/><tag k="addr:unit" v="G"/><tag k="addr:city" v="Bothell"/><tag k="addr:street" v="Bothell Everett Highway"/></node>
<node id="-347" lat="47.837393211" lon="-122.214638576" visible="true"><tag k="addr:housenumber" v="17716"/><tag k="addr:postcode" v="98012"/><tag k="addr:unit" v="B"/><tag k="addr:city" v="Bothell"/><tag k="addr:street" v="Bothell Everett Highway"/></node>
<node id="-348" lat="47.837047494" lon="-122.213356782" visible="true"><tag k="addr:housenumber" v="17716"/><tag k="addr:postcode" v="98012"/><tag k="addr:unit" v="D"/><tag k="addr:city" v="Bothell"/><tag k="addr:street" v="Bothell Everett Highway"/></node>
<node id="-349" lat="47.837598287" lon="-122.214350848" visible="true"><tag k="addr:housenumber" v="17716"/><tag k="addr:postcode" v="98012"/><tag k="addr:unit" v="A"/><tag k="addr:city" v="Bothell"/><tag k="addr:street" v="Bothell Everett Highway"/></node>
<node id="-350" lat="47.836633014" lon="-122.213595264" visible="true"><tag k="addr:housenumber" v="17716"/><tag k="addr:postcode" v="98012"/><tag k="addr:unit" v="E"/><tag k="addr:city" v="Bothell"/><tag k="addr:street" v="Bothell Everett Highway"/></node>
<node id="-351" lat="47.832433484" lon="-122.214404309" visible="true"><tag k="addr:housenumber" v="1225"/><tag k="addr:postcode" v="98012"/><tag k="addr:unit" v="A"/><tag k="addr:city" v="Bothell"/><tag k="addr:street" v="183rd Street Southeast"/></node>
<node id="-352" lat="47.832882168" lon="-122.21631745" visible="true"><tag k="addr:housenumber" v="1225"/><tag k="addr:postcode" v="98012"/><tag k="addr:unit" v="G"/><tag k="addr:city" v="Bothell"/><tag k="addr:street" v="183rd Street Southeast"/></node>
<node id="-353" lat="47.835494436" lon="-122.214460404" visible="true"><tag k="addr:housenumber" v="17716"/><tag k="addr:postcode" v="98012"/><tag k="addr:unit" v="L"/><tag k="addr:city" v="Bothell"/><tag k="addr:street" v="Bothell Everett Highway"/></node>
<node id="-354" lat="47.832440991" lon="-122.217109596" visible="true"><tag k="addr:housenumber" v="1225"/><tag k="addr:postcode" v="98012"/><tag k="addr:unit" v="E"/><tag k="addr:city" v="Bothell"/><tag k="addr:street" v="183rd Street Southeast"/></node>
<node id="-355" lat="47.833691169" lon="-122.21384031" visible="true"><tag k="addr:housenumber" v="1225"/><tag k="addr:postcode" v="98012"/><tag k="addr:unit" v="K"/><tag k="addr:city" v="Bothell"/><tag k="addr:street" v="183rd Street Southeast"/></node>
<node id="-356" lat="47.833222877" lon="-122.214153752" visible="true"><tag k="addr:housenumber" v="1225"/><tag k="addr:postcode" v="98012"/><tag k="addr:unit" v="J"/><tag k="addr:city" v="Bothell"/><tag k="addr:street" v="183rd Street Southeast"/></node>
<node id="-357" lat="47.832937121" lon="-122.21479797" visible="true"><tag k="addr:housenumber" v="1225"/><tag k="addr:postcode" v="98012"/><tag k="addr:unit" v="I"/><tag k="addr:city" v="Bothell"/><tag k="addr:street" v="183rd Street Southeast"/></node>
<node id="-358" lat="47.832953669" lon="-122.214336695" visible="true"><tag k="addr:housenumber" v="1225"/><tag k="addr:postcode" v="98012"/><tag k="addr:unit" v="OFC"/><tag k="addr:city" v="Bothell"/><tag k="addr:street" v="183rd Street Southeast"/></node>
<node id="-359" lat="47.832488627" lon="-122.213775678" visible="true"><tag k="addr:housenumber" v="1225"/><tag k="addr:postcode" v="98012"/><tag k="addr:unit" v="R"/><tag k="addr:city" v="Bothell"/><tag k="addr:street" v="183rd Street Southeast"/></node>
<node id="-360" lat="47.832853947" lon="-122.21562684" visible="true"><tag k="addr:housenumber" v="1225"/><tag k="addr:postcode" v="98012"/><tag k="addr:unit" v="H"/><tag k="addr:city" v="Bothell"/><tag k="addr:street" v="183rd Street Southeast"/></node>
<node id="-361" lat="47.834093251" lon="-122.213557691" visible="true"><tag k="addr:housenumber" v="1225"/><tag k="addr:postcode" v="98012"/><tag k="addr:unit" v="L"/><tag k="addr:city" v="Bothell"/><tag k="addr:street" v="183rd Street Southeast"/></node>
<node id="-362" lat="47.83232853" lon="-122.215824666" visible="true"><tag k="addr:housenumber" v="1225"/><tag k="addr:postcode" v="98012"/><tag k="addr:unit" v="C"/><tag k="addr:city" v="Bothell"/><tag k="addr:street" v="183rd Street Southeast"/></node>
<node id="-363" lat="47.832325705" lon="-122.215151036" visible="true"><tag k="addr:housenumber" v="1225"/><tag k="addr:postcode" v="98012"/><tag k="addr:unit" v="B"/><tag k="addr:city" v="Bothell"/><tag k="addr:street" v="183rd Street Southeast"/></node>
<node id="-364" lat="47.833541029" lon="-122.213249652" visible="true"><tag k="addr:housenumber" v="1225"/><tag k="addr:postcode" v="98012"/><tag k="addr:unit" v="O"/><tag k="addr:city" v="Bothell"/><tag k="addr:street" v="183rd Street Southeast"/></node>
<node id="-365" lat="47.83325877" lon="-122.213301886" visible="true"><tag k="addr:housenumber" v="1225"/><tag k="addr:postcode" v="98012"/><tag k="addr:unit" v="P"/><tag k="addr:city" v="Bothell"/><tag k="addr:street" v="183rd Street Southeast"/></node>
<node id="-366" lat="47.834380968" lon="-122.212750541" visible="true"><tag k="addr:housenumber" v="1225"/><tag k="addr:postcode" v="98012"/><tag k="addr:unit" v="M"/><tag k="addr:city" v="Bothell"/><tag k="addr:street" v="183rd Street Southeast"/></node>
<node id="-367" lat="47.833791183" lon="-122.212827183" visible="true"><tag k="addr:housenumber" v="1225"/><tag k="addr:postcode" v="98012"/><tag k="addr:unit" v="N"/><tag k="addr:city" v="Bothell"/><tag k="addr:street" v="183rd Street Southeast"/></node>
<node id="-368" lat="47.832483735" lon="-122.216600138" visible="true"><tag k="addr:housenumber" v="1225"/><tag k="addr:postcode" v="98012"/><tag k="addr:unit" v="D"/><tag k="addr:city" v="Bothell"/><tag k="addr:street" v="183rd Street Southeast"/></node>
<node id="-369" lat="47.832991849" lon="-122.217227515" visible="true"><tag k="addr:housenumber" v="1225"/><tag k="addr:postcode" v="98012"/><tag k="addr:unit" v="F"/><tag k="addr:city" v="Bothell"/><tag k="addr:street" v="183rd Street Southeast"/></node>
<node id="-370" lat="47.832993038" lon="-122.213197033" visible="true"><tag k="addr:housenumber" v="1225"/><tag k="addr:postcode" v="98012"/><tag k="addr:unit" v="Q"/><tag k="addr:city" v="Bothell"/><tag k="addr:street" v="183rd Street Southeast"/></node>
<node id="-371" lat="47.826021439" lon="-122.219667243" visible="true"><tag k="addr:housenumber" v="18924"/><tag k="addr:postcode" v="98012"/><tag k="addr:city" v="Bothell"/><tag k="addr:street" v="Waxen Road"/></node>
<node id="-372" lat="47.835472785" lon="-122.214165665" visible="true"><tag k="addr:housenumber" v="17716"/><tag k="addr:postcode" v="98012"/><tag k="addr:unit" v="K"/><tag k="addr:city" v="Bothell"/><tag k="addr:street" v="Bothell Everett Highway"/></node>
<node id="-373" lat="47.837130805" lon="-122.214456912" visible="true"><tag k="addr:housenumber" v="17716"/><tag k="addr:postcode" v="98012"/><tag k="addr:unit" v="C"/><tag k="addr:city" v="Bothell"/><tag k="addr:street" v="Bothell Everett Highway"/></node>
<node id="-374" lat="47.824619308" lon="-122.218225073" visible="true"><tag k="addr:housenumber" v="19108"/><tag k="addr:postcode" v="98012"/><tag k="addr:city" v="Bothell"/><tag k="addr:street" v="Waxen Road"/></node>
<node id="-375" lat="47.832283224" lon="-122.22301868" visible="true"><tag k="addr:housenumber" v="711"/><tag k="addr:postcode" v="98012"/><tag k="addr:city" v="Bothell"/><tag k="addr:street" v="183rd Street Southeast"/></node>
<node id="-376" lat="47.832291554" lon="-122.222490099" visible="true"><tag k="addr:housenumber" v="717"/><tag k="addr:postcode" v="98012"/><tag k="addr:city" v="Bothell"/><tag k="addr:street" v="183rd Street Southeast"/></node>
<node id="-377" lat="47.832280439" lon="-122.223247661" visible="true"><tag k="addr:housenumber" v="709"/><tag k="addr:postcode" v="98012"/><tag k="addr:city" v="Bothell"/><tag k="addr:street" v="183rd Street Southeast"/></node>
<node id="-378" lat="47.832286351" lon="-122.222761431" visible="true"><tag k="addr:housenumber" v="713"/><tag k="addr:postcode" v="98012"/><tag k="addr:city" v="Bothell"/><tag k="addr:street" v="183rd Street Southeast"/></node>
</osm>