<?xml version="1.0"?>
<osm version="0.6" upload="false" generator="uvmogr2osm">
<node id="-1" lat="47.8387144" lon="-122.227257414" visible="true"><tag k="addr:housenumber" v="17519"/><tag k="addr:postcode" v="98012"/><tag k="addr:city" v="Bothell"/><tag k="addr:street" v="3rd Avenue Southeast"/></node>
<node id="-2" lat="47.83847041" lon="-122.227259687" visible="true"><tag k="addr:housenumber" v="17533"/><tag k="addr:postcode" v="98012"/><tag k="addr:city" v="Bothell"/><tag k="addr:street" v="3rd Avenue Southeast"/></node>
<node id="-3" lat="47.837696691" lon="-122.227274221" visible="true"><tag k="addr:housenumber" v="17627"/><tag k="addr:postcode" v="98012"/><tag k="addr:city" v="Bothell"/><tag k="addr:street" v="3rd Avenue Southeast"/></node>
<node id="-4" lat="47.837483036" lon="-122.227228702" visible="true"><tag k="addr:housenumber" v="17701"/><tag k="addr:postcode" v="98012"/><tag k="addr:city" v="Bothell"/><tag k="addr:street" v="3rd Avenue Southeast"/></node>
<node id="-5" lat="47.837110671" lon="-122.227267291" visible="true"><tag k="addr:housenumber" v="17713"/><tag k="addr:postcode" v="98012"/><tag k="addr:city" v="Bothell"/><tag k="addr:street" v="3rd Avenue Southeast"/></node>
<node id="-6" lat="47.836899611" lon="-122.227252774" visible="true"><tag k="addr:housenumber" v="17719"/><tag k="addr:postcode" v="98012"/><tag k="addr:city" v="Bothell"/><tag k="addr:street" v="3rd Avenue Southeast"/></node>
<node id="-7" lat="47.838592567" lon="-122.227245298" visible="true"><tag k="addr:housenumber" v="17525"/><tag k="addr:postcode" v="98012"/><tag k="addr:city" v="Bothell"/><tag k="addr:street" v="3rd Avenue Southeast"/></node>
<node id="-8" lat="47.837806736" lon="-122.227277182" visible="true"><tag k="addr:housenumber" v="17621"/><tag k="addr:postcode" v="98012"/><tag k="addr:city" v="Bothell"/><tag k="addr:street" v="3rd Avenue Southeast"/></node>
<node id="-9" lat="47.836688487" lon="-122.226999638" visible="true"><tag k="addr:housenumber" v="17723"/><tag k="addr:postcode" v="98012"/><tag k="addr:city" v="Bothell"/><tag k="addr:street" v="3rd Avenue Southeast"/></node>
<node id="-10" lat="47.836061969" lon="-122.227141861" visible="true"><tag k="addr:housenumber" v="17817"/><tag k="addr:postcode" v="98012"/><tag k="addr:city" v="Bothell"/><tag k="addr:street" v="3rd Avenue Southeast"/></node>
<node id="-11" lat="47.835380731" lon="-122.227379823" visible="true"><tag k="addr:housenumber" v="17911"/><tag k="addr:postcode" v="98012"/><tag k="addr:city" v="Bothell"/><tag k="addr:street" v="3rd Avenue Southeast"/></node>
<node id="-12" lat="47.838748882" lon="-122.226869465" visible="true"><tag k="addr:housenumber" v="17513"/><tag k="addr:postcode" v="98012"/><tag k="addr:city" v="Bothell"/><tag k="addr:street" v="3rd Avenue Southeast"/></node>
<node id="-13" lat="47.837595515" lon="-122.227275918" visible="true"><tag k="addr:housenumber" v="17631"/><tag k="addr:postcode" v="98012"/><tag k="addr:city" v="Bothell"/><tag k="addr:street" v="3rd Avenue Southeast"/></node>
<node id="-14" lat="47.837009332" lon="-122.22728224" visible="true"><tag k="addr:housenumber" v="17715"/><tag k="addr:postcode" v="98012"/><tag k="addr:city" v="Bothell"/><tag k="addr:street" v="3rd Avenue Southeast"/></node>
<node id="-15" lat="47.836282166" lon="-122.227138948" visible="true"><tag k="addr:housenumber" v="17809"/><tag k="addr:postcode" v="98012"/><tag k="addr:city" v="Bothell"/><tag k="addr:street" v="3rd Avenue Southeast"/></node>
<node id="-16" lat="47.835832688" lon="-122.227157787" visible="true"><tag k="addr:housenumber" v="17825"/><tag k="addr:postcode" v="98012"/><tag k="addr:city" v="Bothell"/><tag k="addr:street" v="3rd Avenue Southeast"/></node>
<node id="-17" lat="47.837182147" lon="-122.227017336" visible="true"><tag k="addr:housenumber" v="17707"/><tag k="addr:postcode" v="98012"/><tag k="addr:city" v="Bothell"/><tag k="addr:street" v="3rd Avenue Southeast"/></node>
<node id="-18" lat="47.836944213" lon="-122.227010936" visible="true"><tag k="addr:housenumber" v="17721"/><tag k="addr:postcode" v="98012"/><tag k="addr:city" v="Bothell"/><tag k="addr:street" v="3rd Avenue Southeast"/></node>
<node id="-19" lat="47.835347346" lon="-122.226945885" visible="true"><tag k="addr:housenumber" v="17905"/><tag k="addr:postcode" v="98012"/><tag k="addr:city" v="Bothell"/><tag k="addr:street" v="3rd Avenue Southeast"/></node>
<node id="-20" lat="47.835358931" lon="-122.227215742" visible="true"><tag k="addr:housenumber" v="17909"/><tag k="addr:postcode" v="98012"/><tag k="addr:city" v="Bothell"/><tag k="addr:street" v="3rd Avenue Southeast"/></node>
<node id="-21" lat="47.838357122" lon="-122.227278733" visible="true"><tag k="addr:housenumber" v="17601"/><tag k="addr:postcode" v="98012"/><tag k="addr:city" v="Bothell"/><tag k="addr:street" v="3rd Avenue Southeast"/></node>
<node id="-22" lat="47.838136978" lon="-122.22727723" visible="true"><tag k="addr:housenumber" v="17609"/><tag k="addr:postcode" v="98012"/><tag k="addr:city" v="Bothell"/><tag k="addr:street" v="3rd Avenue Southeast"/></node>
<node id="-23" lat="47.837919809" lon="-122.227275805" visible="true"><tag k="addr:housenumber" v="17617"/><tag k="addr:postcode" v="98012"/><tag k="addr:city" v="Bothell"/><tag k="addr:street" v="3rd Avenue Southeast"/></node>
<node id="-24" lat="47.836732788" lon="-122.227270381" visible="true"><tag k="addr:housenumber" v="17727"/><tag k="addr:postcode" v="98012"/><tag k="addr:city" v="Bothell"/><tag k="addr:street" v="3rd Avenue Southeast"/></node>
<node id="-25" lat="47.836513938" lon="-122.227162859" visible="true"><tag k="addr:housenumber" v="17801"/><tag k="addr:postcode" v="98012"/><tag k="addr:city" v="Bothell"/><tag k="addr:street" v="3rd Avenue Southeast"/></node>
<node id="-26" lat="47.836175043" lon="-122.227140485" visible="true"><tag k="addr:housenumber" v="17813"/><tag k="addr:postcode" v="98012"/><tag k="addr:city" v="Bothell"/><tag k="addr:street" v="3rd Avenue Southeast"/></node>
<node id="-27" lat="47.83595755" lon="-122.227165565" visible="true"><tag k="addr:housenumber" v="17821"/><tag k="addr:postcode" v="98012"/><tag k="addr:city" v="Bothell"/><tag k="addr:street" v="3rd Avenue Southeast"/></node>
<node id="-28" lat="47.835366841" lon="-122.227542943" visible="true"><tag k="addr:housenumber" v="17913"/><tag k="addr:postcode" v="98012"/><tag k="addr:city" v="Bothell"/><tag k="addr:street" v="3rd Avenue Southeast"/></node>
<node id="-29" lat="47.838250051" lon="-122.227275852" visible="true"><tag k="addr:housenumber" v="17605"/><tag k="addr:postcode" v="98012"/><tag k="addr:city" v="Bothell"/><tag k="addr:street" v="3rd Avenue Southeast"/></node>
<node id="-30" lat="47.838032774" lon="-122.227283263" visible="true"><tag k="addr:housenumber" v="17613"/><tag k="addr:postcode" v="98012"/><tag k="addr:city" v="Bothell"/><tag k="addr:street" v="3rd Avenue Southeast"/></node>
<node id="-31" lat="47.836613767" lon="-122.227271597" visible="true"><tag k="addr:housenumber" v="17733"/><tag k="addr:postcode" v="98012"/><tag k="addr:city" v="Bothell"/><tag k="addr:street" v="3rd Avenue Southeast"/></node>
<node id="-32" lat="47.83639524" lon="-122.227137572" visible="true"><tag k="addr:housenumber" v="17805"/><tag k="addr:postcode" v="98012"/><tag k="addr:city" v="Bothell"/><tag k="addr:street" v="3rd Avenue Southeast"/></node>
<node id="-33" lat="47.838980395" lon="-122.227158513" visible="true"><tag k="addr:housenumber" v="17511"/><tag k="addr:postcode" v="98012"/><tag k="addr:city" v="Bothell"/><tag k="addr:street" v="3rd Avenue Southeast"/></node>
<node id="-34" lat="47.838744023" lon="-122.227024002" visible="true"><tag k="addr:housenumber" v="17515"/><tag k="addr:postcode" v="98012"/><tag k="addr:city" v="Bothell"/><tag k="addr:street" v="3rd Avenue Southeast"/></node>
<node id="-35" lat="47.837376558" lon="-122.227177228" visible="true"><tag k="addr:housenumber" v="17703"/><tag k="addr:postcode" v="98012"/><tag k="addr:city" v="Bothell"/><tag k="addr:street" v="3rd Avenue Southeast"/></node>
<node id="-36" lat="47.837223582" lon="-122.227279168" visible="true"><tag k="addr:housenumber" v="17709"/><tag k="addr:postcode" v="98012"/><tag k="addr:city" v="Bothell"/><tag k="addr:street" v="3rd Avenue Southeast"/></node>
<node id="-37" lat="47.835720154" lon="-122.22711499" visible="true"><tag k="addr:housenumber" v="17829"/><tag k="addr:postcode" v="98012"/><tag k="addr:city" v="Bothell"/><tag k="addr:street" v="3rd Avenue Southeast"/></node>
<node id="-38" lat="47.835581283" lon="-122.227036135" visible="true"><tag k="addr:housenumber" v="17903"/><tag k="addr:postcode" v="98012"/><tag k="addr:city" v="Bothell"/><tag k="addr:street" v="3rd Avenue Southeast"/></node>
<node id="-39" lat="47.845354104" lon="-122.226459335" visible="true"><tag k="addr:housenumber" v="16815"/><tag k="addr:postcode" v="98012"/><tag k="addr:city" v="Bothell"/><tag k="addr:street" v="3rd Drive Southeast"/></node>
<node id="-40" lat="47.848237187" lon="-122.224729278" visible="true"><tag k="addr:housenumber" v="527"/><tag k="addr:postcode" v="98012"/><tag k="addr:city" v="Bothell"/><tag k="addr:street" v="166th Place Southeast"/></node>
<node id="-41" lat="47.848101918" lon="-122.226413017" visible="true"><tag k="addr:housenumber" v="405"/><tag k="addr:postcode" v="98012"/><tag k="addr:city" v="Bothell"/><tag k="addr:street" v="165th Place Southeast"/></node>
<node id="-42" lat="47.84699573" lon="-122.225353758" visible="true"><tag k="addr:housenumber" v="16618"/><tag k="addr:postcode" v="98012"/><tag k="addr:city" v="Bothell"/><tag k="addr:street" v="4th Drive Southeast"/></node>
<node id="-43" lat="47.844480943" lon="-122.226816963" visible="true"><tag k="addr:housenumber" v="318"/><tag k="addr:postcode" v="98012"/><tag k="addr:city" v="Bothell"/><tag k="addr:street" v="169th Street Southeast"/></node>
<node id="-44" lat="47.848237685" lon="-122.224181427" visible="true"><tag k="addr:housenumber" v="528"/><tag k="addr:postcode" v="98012"/><tag k="addr:city" v="Bothell"/><tag k="addr:street" v="166th Place Southeast"/></node>
<node id="-45" lat="47.848118967" lon="-122.225925019" visible="true"><tag k="addr:housenumber" v="417"/><tag k="addr:postcode" v="98012"/><tag k="addr:city" v="Bothell"/><tag k="addr:street" v="165th Place Southeast"/></node>
<node id="-46" lat="47.845521415" lon="-122.22693592" visible="true"><tag k="addr:housenumber" v="311"/><tag k="addr:postcode" v="98012"/><tag k="addr:city" v="Bothell"/><tag k="addr:street" v="168th Place Southeast"/></node>
<node id="-47" lat="47.848313181" lon="-122.224455351" visible="true"><tag k="addr:housenumber" v="530"/><tag k="addr:postcode" v="98012"/><tag k="addr:city" v="Bothell"/><tag k="addr:street" v="166th Place Southeast"/></node>
<node id="-48" lat="47.845517627" lon="-122.227190389" visible="true"><tag k="addr:housenumber" v="307"/><tag k="addr:postcode" v="98012"/><tag k="addr:city" v="Bothell"/><tag k="addr:street" v="168th Place Southeast"/></node>
<node id="-49" lat="47.847022363" lon="-122.227312007" visible="true"><tag k="addr:housenumber" v="313"/><tag k="addr:postcode" v="98012"/><tag k="addr:city" v="Bothell"/><tag k="addr:street" v="166th Place Southeast"/></node>
<node id="-50" lat="47.845848437" lon="-122.226075667" visible="true"><tag k="addr:housenumber" v="410"/><tag k="addr:postcode" v="98012"/><tag k="addr:city" v="Bothell"/><tag k="addr:street" v="167th Place Southeast"/></node>
<node id="-51" lat="47.845516542" lon="-122.227447985" visible="true"><tag k="addr:housenumber" v="305"/><tag k="addr:postcode" v="98012"/><tag k="addr:city" v="Bothell"/><tag k="addr:street" v="168th Place Southeast"/></node>
<node id="-52" lat="47.848820236" lon="-122.225316233" visible="true"><tag k="addr:housenumber" v="429"/><tag k="addr:postcode" v="98012"/><tag k="addr:city" v="Bothell"/><tag k="addr:street" v="164th Place Southeast"/></node>
<node id="-53" lat="47.848065966" lon="-122.227249122" visible="true"><tag k="addr:housenumber" v="16510"/><tag k="addr:postcode" v="98012"/><tag k="addr:city" v="Bothell"/><tag k="addr:street" v="3rd Drive Southeast"/></node>
<node id="-54" lat="47.848657934" lon="-122.226710056" visible="true"><tag k="addr:housenumber" v="16421"/><tag k="addr:postcode" v="98012"/><tag k="addr:city" v="Bothell"/><tag k="addr:street" v="3rd Drive Southeast"/></node>
<node id="-55" lat="47.845827847" lon="-122.226346543" visible="true"><tag k="addr:housenumber" v="404"/><tag k="addr:postcode" v="98012"/><tag k="addr:city" v="Bothell"/><tag k="addr:street" v="167th Place Southeast"/></node>
<node id="-56" lat="47.848415345" lon="-122.227266671" visible="true"><tag k="addr:housenumber" v="16432"/><tag k="addr:postcode" v="98012"/><tag k="addr:city" v="Bothell"/><tag k="addr:street" v="3rd Drive Southeast"/></node>
<node id="-57" lat="47.848611512" lon="-122.226019389" visible="true"><tag k="addr:housenumber" v="416"/><tag k="addr:postcode" v="98012"/><tag k="addr:city" v="Bothell"/><tag k="addr:street" v="164th Place Southeast"/></node>
<node id="-58" lat="47.846131151" lon="-122.225482249" visible="true"><tag k="addr:housenumber" v="16716"/><tag k="addr:postcode" v="98012"/><tag k="addr:city" v="Bothell"/><tag k="addr:street" v="4th Drive Southeast"/></node>
<node id="-59" lat="47.845947838" lon="-122.22593759" visible="true"><tag k="addr:housenumber" v="414"/><tag k="addr:postcode" v="98012"/><tag k="addr:city" v="Bothell"/><tag k="addr:street" v="167th Place Southeast"/></node>
<node id="-60" lat="47.849018034" lon="-122.225904045" visible="true"><tag k="addr:housenumber" v="419"/><tag k="addr:postcode" v="98012"/><tag k="addr:city" v="Bothell"/><tag k="addr:street" v="164th Place Southeast"/></node>
<node id="-61" lat="47.848980172" lon="-122.224904025" visible="true"><tag k="addr:housenumber" v="509"/><tag k="addr:postcode" v="98012"/><tag k="addr:city" v="Bothell"/><tag k="addr:street" v="164th Place Southeast"/></node>
<node id="-62" lat="47.848975341" lon="-122.224399813" visible="true"><tag k="addr:housenumber" v="525"/><tag k="addr:postcode" v="98012"/><tag k="addr:city" v="Bothell"/><tag k="addr:street" v="164th Place Southeast"/></node>
<node id="-63" lat="47.848751566" lon="-122.227295068" visible="true"><tag k="addr:housenumber" v="16420"/><tag k="addr:postcode" v="98012"/><tag k="addr:city" v="Bothell"/><tag k="addr:street" v="3rd Drive Southeast"/></node>
<node id="-64" lat="47.848906468" lon="-122.22515867" visible="true"><tag k="addr:housenumber" v="505"/><tag k="addr:postcode" v="98012"/><tag k="addr:city" v="Bothell"/><tag k="addr:street" v="164th Place Southeast"/></node>
<node id="-65" lat="47.848496726" lon="-122.226719976" visible="true"><tag k="addr:housenumber" v="16429"/><tag k="addr:postcode" v="98012"/><tag k="addr:city" v="Bothell"/><tag k="addr:street" v="3rd Drive Southeast"/></node>
<node id="-66" lat="47.849004564" lon="-122.224138882" visible="true"><tag k="addr:housenumber" v="529"/><tag k="addr:postcode" v="98012"/><tag k="addr:city" v="Bothell"/><tag k="addr:street" v="164th Place Southeast"/></node>
<node id="-67" lat="47.848335045" lon="-122.226712571" visible="true"><tag k="addr:housenumber" v="16503"/><tag k="addr:postcode" v="98012"/><tag k="addr:city" v="Bothell"/><tag k="addr:street" v="3rd Drive Southeast"/></node>
<node id="-68" lat="47.848974997" lon="-122.224653373" visible="true"><tag k="addr:housenumber" v="519"/><tag k="addr:postcode" v="98012"/><tag k="addr:city" v="Bothell"/><tag k="addr:street" v="164th Place Southeast"/></node>
<node id="-69" lat="47.848975098" lon="-122.225658486" visible="true"><tag k="addr:housenumber" v="421"/><tag k="addr:postcode" v="98012"/><tag k="addr:city" v="Bothell"/><tag k="addr:street" v="164th Place Southeast"/></node>
<node id="-70" lat="47.848919572" lon="-122.226165149" visible="true"><tag k="addr:housenumber" v="415"/><tag k="addr:postcode" v="98012"/><tag k="addr:city" v="Bothell"/><tag k="addr:street" v="164th Place Southeast"/></node>
<node id="-71" lat="47.847360051" lon="-122.224312645" visible="true"><tag k="addr:housenumber" v="432"/><tag k="addr:postcode" v="98012"/><tag k="addr:city" v="Bothell"/><tag k="addr:street" v="166th Place Southeast"/></node>
<node id="-72" lat="47.846314653" lon="-122.225555407" visible="true"><tag k="addr:housenumber" v="16710"/><tag k="addr:postcode" v="98012"/><tag k="addr:city" v="Bothell"/><tag k="addr:street" v="4th Drive Southeast"/></node>
<node id="-73" lat="47.8475071" lon="-122.224959154" visible="true"><tag k="addr:housenumber" v="431"/><tag k="addr:postcode" v="98012"/><tag k="addr:city" v="Bothell"/><tag k="addr:street" v="166th Place Southeast"/></node>
<node id="-74" lat="47.844483343" lon="-122.226638833" visible="true"><tag k="addr:housenumber" v="324"/><tag k="addr:postcode" v="98012"/><tag k="addr:city" v="Bothell"/><tag k="addr:street" v="169th Street Southeast"/></node>
<node id="-75" lat="47.847682813" lon="-122.224095245" visible="true"><tag k="addr:housenumber" v="510"/><tag k="addr:postcode" v="98012"/><tag k="addr:city" v="Bothell"/><tag k="addr:street" v="166th Place Southeast"/></node>
<node id="-76" lat="47.847510572" lon="-122.224166994" visible="true"><tag k="addr:housenumber" v="506"/><tag k="addr:postcode" v="98012"/><tag k="addr:city" v="Bothell"/><tag k="addr:street" v="166th Place Southeast"/></node>
<node id="-77" lat="47.845080778" lon="-122.225331827" visible="true"><tag k="addr:housenumber" v="425"/><tag k="addr:postcode" v="98012"/><tag k="addr:city" v="Bothell"/><tag k="addr:street" v="169th Street Southeast"/></node>
<node id="-78" lat="47.846790054" lon="-122.226762998" visible="true"><tag k="addr:housenumber" v="326"/><tag k="addr:postcode" v="98012"/><tag k="addr:city" v="Bothell"/><tag k="addr:street" v="166th Place Southeast"/></node>
<node id="-79" lat="47.846210709" lon="-122.224803148" visible="true"><tag k="addr:housenumber" v="16713"/><tag k="addr:postcode" v="98012"/><tag k="addr:city" v="Bothell"/><tag k="addr:street" v="4th Drive Southeast"/></node>
<node id="-80" lat="47.846496182" lon="-122.225565377" visible="true"><tag k="addr:housenumber" v="16704"/><tag k="addr:postcode" v="98012"/><tag k="addr:city" v="Bothell"/><tag k="addr:street" v="4th Drive Southeast"/></node>
<node id="-81" lat="47.846669573" lon="-122.225511994" visible="true"><tag k="addr:housenumber" v="16630"/><tag k="addr:postcode" v="98012"/><tag k="addr:city" v="Bothell"/><tag k="addr:street" v="4th Drive Southeast"/></node>
<node id="-82" lat="47.8451747" lon="-122.227315178" visible="true"><tag k="addr:housenumber" v="306"/><tag k="addr:postcode" v="98012"/><tag k="addr:city" v="Bothell"/><tag k="addr:street" v="168th Place Southeast"/></node>
<node id="-83" lat="47.846449146" lon="-122.226894012" visible="true"><tag k="addr:housenumber" v="16704"/><tag k="addr:postcode" v="98012"/><tag k="addr:city" v="Bothell"/><tag k="addr:street" v="3rd Drive Southeast"/></node>
<node id="-84" lat="47.847552959" lon="-122.227396324" visible="true"><tag k="addr:housenumber" v="308"/><tag k="addr:postcode" v="98012"/><tag k="addr:city" v="Bothell"/><tag k="addr:street" v="165th Place Southeast"/></node>
<node id="-85" lat="47.845170097" lon="-122.227224201" visible="true"><tag k="addr:housenumber" v="308"/><tag k="addr:postcode" v="98012"/><tag k="addr:city" v="Bothell"/><tag k="addr:street" v="168th Place Southeast"/></node>
<node id="-86" lat="47.846754865" lon="-122.227025452" visible="true"><tag k="addr:housenumber" v="320"/><tag k="addr:postcode" v="98012"/><tag k="addr:city" v="Bothell"/><tag k="addr:street" v="166th Place Southeast"/></node>
<node id="-87" lat="47.841621308" lon="-122.225177775" visible="true"><tag k="addr:housenumber" v="417"/><tag k="addr:postcode" v="98012"/><tag k="addr:city" v="Bothell"/><tag k="addr:street" v="172nd Place Southeast"/></node>
<node id="-88" lat="47.845081757" lon="-122.226095558" visible="true"><tag k="addr:housenumber" v="401"/><tag k="addr:postcode" v="98012"/><tag k="addr:city" v="Bothell"/><tag k="addr:street" v="169th Street Southeast"/></node>
<node id="-89" lat="47.846710094" lon="-122.227267962" visible="true"><tag k="addr:housenumber" v="314"/><tag k="addr:postcode" v="98012"/><tag k="addr:city" v="Bothell"/><tag k="addr:street" v="166th Place Southeast"/></node>
<node id="-90" lat="47.847863552" lon="-122.224733498" visible="true"><tag k="addr:housenumber" v="517"/><tag k="addr:postcode" v="98012"/><tag k="addr:city" v="Bothell"/><tag k="addr:street" v="166th Place Southeast"/></node>
<node id="-91" lat="47.841765274" lon="-122.225076316" visible="true"><tag k="addr:housenumber" v="421"/><tag k="addr:postcode" v="98012"/><tag k="addr:city" v="Bothell"/><tag k="addr:street" v="172nd Place Southeast"/></node>
<node id="-92" lat="47.841779303" lon="-122.224918757" visible="true"><tag k="addr:housenumber" v="425"/><tag k="addr:postcode" v="98012"/><tag k="addr:city" v="Bothell"/><tag k="addr:street" v="172nd Place Southeast"/></node>
<node id="-93" lat="47.841952978" lon="-122.227211004" visible="true"><tag k="addr:housenumber" v="17205"/><tag k="addr:postcode" v="98012"/><tag k="addr:city" v="Bothell"/><tag k="addr:street" v="3rd Avenue Southeast"/></node>
<node id="-94" lat="47.843111961" lon="-122.225130033" visible="true"><tag k="addr:housenumber" v="17022"/><tag k="addr:postcode" v="98012"/><tag k="addr:city" v="Bothell"/><tag k="addr:street" v="4th Avenue Southeast"/></node>
<node id="-95" lat="47.846133856" lon="-122.226029259" visible="true"><tag k="addr:housenumber" v="411"/><tag k="addr:postcode" v="98012"/><tag k="addr:city" v="Bothell"/><tag k="addr:street" v="167th Place Southeast"/></node>
<node id="-96" lat="47.841255687" lon="-122.225587111" visible="true"><tag k="addr:housenumber" v="408"/><tag k="addr:postcode" v="98012"/><tag k="addr:city" v="Bothell"/><tag k="addr:street" v="172nd Place Southeast"/></node>
<node id="-97" lat="47.841257297" lon="-122.22584883" visible="true"><tag k="addr:housenumber" v="402"/><tag k="addr:postcode" v="98012"/><tag k="addr:city" v="Bothell"/><tag k="addr:street" v="172nd Place Southeast"/></node>
<node id="-98" lat="47.847241655" lon="-122.224522294" visible="true"><tag k="addr:housenumber" v="428"/><tag k="addr:postcode" v="98012"/><tag k="addr:city" v="Bothell"/><tag k="addr:street" v="166th Place Southeast"/></node>
<node id="-99" lat="47.847686385" lon="-122.224759288" visible="true"><tag k="addr:housenumber" v="505"/><tag k="addr:postcode" v="98012"/><tag k="addr:city" v="Bothell"/><tag k="addr:street" v="166th Place Southeast"/></node>
<node id="-100" lat="47.846853377" lon="-122.227341402" visible="true"><tag k="addr:housenumber" v="310"/><tag k="addr:postcode" v="98012"/><tag k="addr:city" v="Bothell"/><tag k="addr:street" v="166th Place Southeast"/></node>
<node id="-101" lat="47.845312867" lon="-122.22706178" visible="true"><tag k="addr:housenumber" v="310"/><tag k="addr:postcode" v="98012"/><tag k="addr:city" v="Bothell"/><tag k="addr:street" v="168th Place Southeast"/></node>
<node id="-102" lat="47.845268398" lon="-122.227429427" visible="true"><tag k="addr:housenumber" v="304"/><tag k="addr:postcode" v="98012"/><tag k="addr:city" v="Bothell"/><tag k="addr:street" v="168th Place Southeast"/></node>
<node id="-103" lat="47.848062079" lon="-122.224078952" visible="true"><tag k="addr:housenumber" v="522"/><tag k="addr:postcode" v="98012"/><tag k="addr:city" v="Bothell"/><tag k="addr:street" v="166th Place Southeast"/></node>
<node id="-104" lat="47.848051715" lon="-122.224817982" visible="true"><tag k="addr:housenumber" v="521"/><tag k="addr:postcode" v="98012"/><tag k="addr:city" v="Bothell"/><tag k="addr:street" v="166th Place Southeast"/></node>
<node id="-105" lat="47.847853554" lon="-122.227310841" visible="true"><tag k="addr:housenumber" v="311"/><tag k="addr:postcode" v="98012"/><tag k="addr:city" v="Bothell"/><tag k="addr:street" v="165th Place Southeast"/></node>
<node id="-106" lat="47.845830127" lon="-122.226615659" visible="true"><tag k="addr:housenumber" v="328"/><tag k="addr:postcode" v="98012"/><tag k="addr:city" v="Bothell"/><tag k="addr:street" v="167th Place Southeast"/></node>
<node id="-107" lat="47.847874807" lon="-122.224090217" visible="true"><tag k="addr:housenumber" v="518"/><tag k="addr:postcode" v="98012"/><tag k="addr:city" v="Bothell"/><tag k="addr:street" v="166th Place Southeast"/></node>
<node id="-108" lat="47.842464418" lon="-122.225973937" visible="true"><tag k="addr:housenumber" v="17121"/><tag k="addr:postcode" v="98012"/><tag k="addr:city" v="Bothell"/><tag k="addr:street" v="3rd Avenue Southeast"/></node>
<node id="-109" lat="47.84074947" lon="-122.225258206" visible="true"><tag k="addr:housenumber" v="17329"/><tag k="addr:postcode" v="98012"/><tag k="addr:city" v="Bothell"/><tag k="addr:street" v="3rd Avenue Southeast"/></node>
<node id="-110" lat="47.845308389" lon="-122.226813766" visible="true"><tag k="addr:housenumber" v="312"/><tag k="addr:postcode" v="98012"/><tag k="addr:city" v="Bothell"/><tag k="addr:street" v="168th Place Southeast"/></node>
<node id="-111" lat="47.846841418" lon="-122.225472826" visible="true"><tag k="addr:housenumber" v="16624"/><tag k="addr:postcode" v="98012"/><tag k="addr:city" v="Bothell"/><tag k="addr:street" v="4th Drive Southeast"/></node>
<node id="-112" lat="47.844438181" lon="-122.224287134" visible="true"><tag k="addr:housenumber" v="16924"/><tag k="addr:postcode" v="98012"/><tag k="addr:city" v="Bothell"/><tag k="addr:street" v="5th Avenue Southeast"/></node>
<node id="-113" lat="47.840267926" lon="-122.227086134" visible="true"><tag k="addr:housenumber" v="17407"/><tag k="addr:postcode" v="98012"/><tag k="addr:city" v="Bothell"/><tag k="addr:street" v="3rd Avenue Southeast"/></node>
<node id="-114" lat="47.840891512" lon="-122.227270912" visible="true"><tag k="addr:housenumber" v="17317"/><tag k="addr:postcode" v="98012"/><tag k="addr:city" v="Bothell"/><tag k="addr:street" v="3rd Avenue Southeast"/></node>
<node id="-115" lat="47.841351381" lon="-122.224977745" visible="true"><tag k="addr:housenumber" v="422"/><tag k="addr:postcode" v="98012"/><tag k="addr:city" v="Bothell"/><tag k="addr:street" v="172nd Place Southeast"/></node>
<node id="-116" lat="47.846220369" lon="-122.227179769" visible="true"><tag k="addr:housenumber" v="317"/><tag k="addr:postcode" v="98012"/><tag k="addr:city" v="Bothell"/><tag k="addr:street" v="167th Place Southeast"/></node>
<node id="-117" lat="47.843167542" lon="-122.227069228" visible="true"><tag k="addr:housenumber" v="314"/><tag k="addr:postcode" v="98012"/><tag k="addr:city" v="Bothell"/><tag k="addr:street" v="171st Street Southeast"/></node>
<node id="-118" lat="47.844714606" lon="-122.226448868" visible="true"><tag k="addr:housenumber" v="330"/><tag k="addr:postcode" v="98012"/><tag k="addr:city" v="Bothell"/><tag k="addr:street" v="169th Street Southeast"/></node>
<node id="-119" lat="47.846243" lon="-122.226935308" visible="true"><tag k="addr:housenumber" v="323"/><tag k="addr:postcode" v="98012"/><tag k="addr:city" v="Bothell"/><tag k="addr:street" v="167th Place Southeast"/></node>
<node id="-120" lat="47.847129909" lon="-122.227205602" visible="true"><tag k="addr:housenumber" v="317"/><tag k="addr:postcode" v="98012"/><tag k="addr:city" v="Bothell"/><tag k="addr:street" v="166th Place Southeast"/></node>
<node id="-121" lat="47.842922389" lon="-122.227394008" visible="true"><tag k="addr:housenumber" v="17109"/><tag k="addr:postcode" v="98012"/><tag k="addr:city" v="Bothell"/><tag k="addr:street" v="3rd Avenue Southeast"/></node>
<node id="-122" lat="47.84353343" lon="-122.226863431" visible="true"><tag k="addr:housenumber" v="324"/><tag k="addr:postcode" v="98012"/><tag k="addr:city" v="Bothell"/><tag k="addr:street" v="170th Place Southeast"/></node>
<node id="-123" lat="47.843531608" lon="-122.227437557" visible="true"><tag k="addr:housenumber" v="304"/><tag k="addr:postcode" v="98012"/><tag k="addr:city" v="Bothell"/><tag k="addr:street" v="170th Place Southeast"/></node>
<node id="-124" lat="47.84318052" lon="-122.225454316" visible="true"><tag k="addr:housenumber" v="17018"/><tag k="addr:postcode" v="98012"/><tag k="addr:unit" v="A"/><tag k="addr:city" v="Bothell"/><tag k="addr:street" v="4th Avenue Southeast"/></node>
<node id="-125" lat="47.843146789" lon="-122.225315948" visible="true"><tag k="addr:housenumber" v="17018"/><tag k="addr:postcode" v="98012"/><tag k="addr:unit" v="B"/><tag k="addr:city" v="Bothell"/><tag k="addr:street" v="4th Avenue Southeast"/></node>
<node id="-126" lat="47.843566282" lon="-122.226673903" visible="true"><tag k="addr:housenumber" v="330"/><tag k="addr:postcode" v="98012"/><tag k="addr:city" v="Bothell"/><tag k="addr:street" v="170th Place Southeast"/></node>
<node id="-127" lat="47.843833179" lon="-122.227272119" visible="true"><tag k="addr:housenumber" v="309"/><tag k="addr:postcode" v="98012"/><tag k="addr:city" v="Bothell"/><tag k="addr:street" v="170th Place Southeast"/></node>
<node id="-128" lat="47.844190735" lon="-122.227501896" visible="true"><tag k="addr:housenumber" v="16917"/><tag k="addr:postcode" v="98012"/><tag k="addr:city" v="Bothell"/><tag k="addr:street" v="3rd Avenue Southeast"/></node>
<node id="-129" lat="47.843526014" lon="-122.227078081" visible="true"><tag k="addr:housenumber" v="316"/><tag k="addr:postcode" v="98012"/><tag k="addr:city" v="Bothell"/><tag k="addr:street" v="170th Place Southeast"/></node>
<node id="-130" lat="47.843530794" lon="-122.227285704" visible="true"><tag k="addr:housenumber" v="308"/><tag k="addr:postcode" v="98012"/><tag k="addr:city" v="Bothell"/><tag k="addr:street" v="170th Place Southeast"/></node>
<node id="-131" lat="47.844057772" lon="-122.227500353" visible="true"><tag k="addr:housenumber" v="16925"/><tag k="addr:postcode" v="98012"/><tag k="addr:city" v="Bothell"/><tag k="addr:street" v="3rd Avenue Southeast"/></node>
<node id="-132" lat="47.843828796" lon="-122.227412858" visible="true"><tag k="addr:housenumber" v="305"/><tag k="addr:postcode" v="98012"/><tag k="addr:city" v="Bothell"/><tag k="addr:street" v="170th Place Southeast"/></node>
<node id="-133" lat="47.842992465" lon="-122.226073778" visible="true"><tag k="addr:housenumber" v="404"/><tag k="addr:postcode" v="98012"/><tag k="addr:city" v="Bothell"/><tag k="addr:street" v="171st Street Southeast"/></node>
<node id="-134" lat="47.843041935" lon="-122.224857414" visible="true"><tag k="addr:housenumber" v="17026"/><tag k="addr:postcode" v="98012"/><tag k="addr:city" v="Bothell"/><tag k="addr:street" v="4th Avenue Southeast"/></node>
<node id="-135" lat="47.843553833" lon="-122.226226786" visible="true"><tag k="addr:housenumber" v="17010"/><tag k="addr:postcode" v="98012"/><tag k="addr:city" v="Bothell"/><tag k="addr:street" v="4th Avenue Southeast"/></node>
<node id="-136" lat="47.84395079" lon="-122.224864293" visible="true"><tag k="addr:housenumber" v="431"/><tag k="addr:postcode" v="98012"/><tag k="addr:city" v="Bothell"/><tag k="addr:street" v="170th Place Southeast"/></node>
<node id="-137" lat="47.843200278" lon="-122.22451332" visible="true"><tag k="addr:housenumber" v="17033"/><tag k="addr:postcode" v="98012"/><tag k="addr:city" v="Bothell"/><tag k="addr:street" v="4th Avenue Southeast"/></node>
<node id="-138" lat="47.84327678" lon="-122.224554407" visible="true"><tag k="addr:housenumber" v="17031"/><tag k="addr:postcode" v="98012"/><tag k="addr:city" v="Bothell"/><tag k="addr:street" v="4th Avenue Southeast"/></node>
<node id="-139" lat="47.843887096" lon="-122.225597871" visible="true"><tag k="addr:housenumber" v="414"/><tag k="addr:postcode" v="98012"/><tag k="addr:city" v="Bothell"/><tag k="addr:street" v="170th Place Southeast"/></node>
<node id="-140" lat="47.843772509" lon="-122.226000959" visible="true"><tag k="addr:housenumber" v="17007"/><tag k="addr:postcode" v="98012"/><tag k="addr:city" v="Bothell"/><tag k="addr:street" v="4th Avenue Southeast"/></node>
<node id="-141" lat="47.844086173" lon="-122.226143008" visible="true"><tag k="addr:housenumber" v="407"/><tag k="addr:postcode" v="98012"/><tag k="addr:city" v="Bothell"/><tag k="addr:street" v="170th Place Southeast"/></node>
<node id="-142" lat="47.84393046" lon="-122.226770703" visible="true"><tag k="addr:housenumber" v="325"/><tag k="addr:postcode" v="98012"/><tag k="addr:city" v="Bothell"/><tag k="addr:street" v="170th Place Southeast"/></node>
<node id="-143" lat="47.844057017" lon="-122.226341801" visible="true"><tag k="addr:housenumber" v="403"/><tag k="addr:postcode" v="98012"/><tag k="addr:city" v="Bothell"/><tag k="addr:street" v="170th Place Southeast"/></node>
<node id="-144" lat="47.843362898" lon="-122.224625167" visible="true"><tag k="addr:housenumber" v="17029"/><tag k="addr:postcode" v="98012"/><tag k="addr:city" v="Bothell"/><tag k="addr:street" v="4th Avenue Southeast"/></node>
<node id="-145" lat="47.843392694" lon="-122.225274472" visible="true"><tag k="addr:housenumber" v="17021"/><tag k="addr:postcode" v="98012"/><tag k="addr:city" v="Bothell"/><tag k="addr:street" v="4th Avenue Southeast"/></node>
<node id="-146" lat="47.843387147" lon="-122.224841798" visible="true"><tag k="addr:housenumber" v="17027"/><tag k="addr:postcode" v="98012"/><tag k="addr:city" v="Bothell"/><tag k="addr:street" v="4th Avenue Southeast"/></node>
<node id="-147" lat="47.84344901" lon="-122.225490833" visible="true"><tag k="addr:housenumber" v="17017"/><tag k="addr:postcode" v="98012"/><tag k="addr:city" v="Bothell"/><tag k="addr:street" v="4th Avenue Southeast"/></node>
<node id="-148" lat="47.844073765" lon="-122.224898031" visible="true"><tag k="addr:housenumber" v="429"/><tag k="addr:postcode" v="98012"/><tag k="addr:city" v="Bothell"/><tag k="addr:street" v="170th Place Southeast"/></node>
<node id="-149" lat="47.843515666" lon="-122.225702382" visible="true"><tag k="addr:housenumber" v="17015"/><tag k="addr:postcode" v="98012"/><tag k="addr:city" v="Bothell"/><tag k="addr:street" v="4th Avenue Southeast"/></node>
<node id="-150" lat="47.84382718" lon="-122.225395666" visible="true"><tag k="addr:housenumber" v="420"/><tag k="addr:postcode" v="98012"/><tag k="addr:city" v="Bothell"/><tag k="addr:street" v="170th Place Southeast"/></node>
<node id="-151" lat="47.84309309" lon="-122.224577984" visible="true"><tag k="addr:housenumber" v="17030"/><tag k="addr:postcode" v="98012"/><tag k="addr:city" v="Bothell"/><tag k="addr:street" v="4th Avenue Southeast"/></node>
<node id="-152" lat="47.843737432" lon="-122.225022612" visible="true"><tag k="addr:housenumber" v="428"/><tag k="addr:postcode" v="98012"/><tag k="addr:city" v="Bothell"/><tag k="addr:street" v="170th Place Southeast"/></node>
<node id="-153" lat="47.844136762" lon="-122.224972358" visible="true"><tag k="addr:housenumber" v="425"/><tag k="addr:postcode" v="98012"/><tag k="addr:city" v="Bothell"/><tag k="addr:street" v="170th Place Southeast"/></node>
<node id="-154" lat="47.844119577" lon="-122.225708095" visible="true"><tag k="addr:housenumber" v="415"/><tag k="addr:postcode" v="98012"/><tag k="addr:city" v="Bothell"/><tag k="addr:street" v="170th Place Southeast"/></node>
<node id="-155" lat="47.844112002" lon="-122.225935979" visible="true"><tag k="addr:housenumber" v="411"/><tag k="addr:postcode" v="98012"/><tag k="addr:city" v="Bothell"/><tag k="addr:street" v="170th Place Southeast"/></node>
<node id="-156" lat="47.844121755" lon="-122.225472935" visible="true"><tag k="addr:housenumber" v="419"/><tag k="addr:postcode" v="98012"/><tag k="addr:city" v="Bothell"/><tag k="addr:street" v="170th Place Southeast"/></node>
<node id="-157" lat="47.843046418" lon="-122.224695524" visible="true"><tag k="addr:housenumber" v="17028"/><tag k="addr:postcode" v="98012"/><tag k="addr:city" v="Bothell"/><tag k="addr:street" v="4th Avenue Southeast"/></node>
<node id="-158" lat="47.843355528" lon="-122.22506168" visible="true"><tag k="addr:housenumber" v="17025"/><tag k="addr:postcode" v="98012"/><tag k="addr:city" v="Bothell"/><tag k="addr:street" v="4th Avenue Southeast"/></node>
<node id="-159" lat="47.843640209" lon="-122.226301291" visible="true"><tag k="addr:housenumber" v="17004"/><tag k="addr:postcode" v="98012"/><tag k="addr:city" v="Bothell"/><tag k="addr:street" v="4th Avenue Southeast"/></node>
<node id="-160" lat="47.843846184" lon="-122.224879472" visible="true"><tag k="addr:housenumber" v="430"/><tag k="addr:postcode" v="98012"/><tag k="addr:city" v="Bothell"/><tag k="addr:street" v="170th Place Southeast"/></node>
<node id="-161" lat="47.84412807" lon="-122.225235853" visible="true"><tag k="addr:housenumber" v="423"/><tag k="addr:postcode" v="98012"/><tag k="addr:city" v="Bothell"/><tag k="addr:street" v="170th Place Southeast"/></node>
<node id="-162" lat="47.843215154" lon="-122.226024894" visible="true"><tag k="addr:housenumber" v="416"/><tag k="addr:postcode" v="98012"/><tag k="addr:city" v="Bothell"/><tag k="addr:street" v="171st Street Southeast"/></node>
<node id="-163" lat="47.843742255" lon="-122.225245738" visible="true"><tag k="addr:housenumber" v="424"/><tag k="addr:postcode" v="98012"/><tag k="addr:city" v="Bothell"/><tag k="addr:street" v="170th Place Southeast"/></node>
<node id="-164" lat="47.845271746" lon="-122.225523643" visible="true"><tag k="addr:housenumber" v="417"/><tag k="addr:postcode" v="98012"/><tag k="addr:city" v="Bothell"/><tag k="addr:street" v="169th Street Southeast"/></node>
<node id="-165" lat="47.846942972" lon="-122.223580596" visible="true"><tag k="addr:housenumber" v="16621"/><tag k="addr:postcode" v="98012"/><tag k="addr:city" v="Bothell"/><tag k="addr:street" v="6th Avenue Southeast"/></node>
<node id="-166" lat="47.84849325" lon="-122.225248606" visible="true"><tag k="addr:housenumber" v="16429"/><tag k="addr:postcode" v="98012"/><tag k="addr:city" v="Bothell"/><tag k="addr:street" v="4th Drive Southeast"/></node>
<node id="-167" lat="47.845511272" lon="-122.226568388" visible="true"><tag k="addr:housenumber" v="315"/><tag k="addr:postcode" v="98012"/><tag k="addr:city" v="Bothell"/><tag k="addr:street" v="168th Place Southeast"/></node>
<node id="-168" lat="47.845467132" lon="-122.225559103" visible="true"><tag k="addr:housenumber" v="413"/><tag k="addr:postcode" v="98012"/><tag k="addr:city" v="Bothell"/><tag k="addr:street" v="169th Street Southeast"/></node>
<node id="-169" lat="47.84856007" lon="-122.225740678" visible="true"><tag k="addr:housenumber" v="422"/><tag k="addr:postcode" v="98012"/><tag k="addr:city" v="Bothell"/><tag k="addr:street" v="164th Place Southeast"/></node>
<node id="-170" lat="47.845429087" lon="-122.225868656" visible="true"><tag k="addr:housenumber" v="409"/><tag k="addr:postcode" v="98012"/><tag k="addr:city" v="Bothell"/><tag k="addr:street" v="169th Street Southeast"/></node>
<node id="-171" lat="47.848602879" lon="-122.22495216" visible="true"><tag k="addr:housenumber" v="512"/><tag k="addr:postcode" v="98012"/><tag k="addr:city" v="Bothell"/><tag k="addr:street" v="164th Place Southeast"/></node>
<node id="-172" lat="47.845975193" lon="-122.223455564" visible="true"><tag k="addr:housenumber" v="16721"/><tag k="addr:postcode" v="98012"/><tag k="addr:city" v="Bothell"/><tag k="addr:street" v="6th Avenue Southeast"/></node>
<node id="-173" lat="47.848759919" lon="-122.226141168" visible="true"><tag k="addr:housenumber" v="412"/><tag k="addr:postcode" v="98012"/><tag k="addr:city" v="Bothell"/><tag k="addr:street" v="164th Place Southeast"/></node>
<node id="-174" lat="47.847025549" lon="-122.226232117" visible="true"><tag k="addr:housenumber" v="16617"/><tag k="addr:postcode" v="98012"/><tag k="addr:city" v="Bothell"/><tag k="addr:street" v="3rd Drive Southeast"/></node>
<node id="-175" lat="47.845899853" lon="-122.223603965" visible="true"><tag k="addr:housenumber" v="16723"/><tag k="addr:postcode" v="98012"/><tag k="addr:city" v="Bothell"/><tag k="addr:street" v="6th Avenue Southeast"/></node>
<node id="-176" lat="47.845899261" lon="-122.224075134" visible="true"><tag k="addr:housenumber" v="16722"/><tag k="addr:postcode" v="98012"/><tag k="addr:city" v="Bothell"/><tag k="addr:street" v="6th Avenue Southeast"/></node>
<node id="-177" lat="47.847195787" lon="-122.225343294" visible="true"><tag k="addr:housenumber" v="16610"/><tag k="addr:postcode" v="98012"/><tag k="addr:city" v="Bothell"/><tag k="addr:street" v="4th Drive Southeast"/></node>
<node id="-178" lat="47.848626045" lon="-122.224124985" visible="true"><tag k="addr:housenumber" v="602"/><tag k="addr:postcode" v="98012"/><tag k="addr:city" v="Bothell"/><tag k="addr:street" v="164th Place Southeast"/></node>
<node id="-179" lat="47.848636716" lon="-122.224374765" visible="true"><tag k="addr:housenumber" v="526"/><tag k="addr:postcode" v="98012"/><tag k="addr:city" v="Bothell"/><tag k="addr:street" v="164th Place Southeast"/></node>
<node id="-180" lat="47.848172238" lon="-122.225353355" visible="true"><tag k="addr:housenumber" v="16511"/><tag k="addr:postcode" v="98012"/><tag k="addr:city" v="Bothell"/><tag k="addr:street" v="4th Drive Southeast"/></node>
<node id="-181" lat="47.845840573" lon="-122.226808452" visible="true"><tag k="addr:housenumber" v="322"/><tag k="addr:postcode" v="98012"/><tag k="addr:city" v="Bothell"/><tag k="addr:street" v="167th Place Southeast"/></node>
<node id="-182" lat="47.845520744" lon="-122.22406435" visible="true"><tag k="addr:housenumber" v="16808"/><tag k="addr:postcode" v="98012"/><tag k="addr:city" v="Bothell"/><tag k="addr:street" v="5th Avenue Southeast"/></node>
<node id="-183" lat="47.845867804" lon="-122.224917036" visible="true"><tag k="addr:housenumber" v="16727"/><tag k="addr:postcode" v="98012"/><tag k="addr:city" v="Bothell"/><tag k="addr:street" v="4th Drive Southeast"/></node>
<node id="-184" lat="47.846108949" lon="-122.223454628" visible="true"><tag k="addr:housenumber" v="16717"/><tag k="addr:postcode" v="98012"/><tag k="addr:city" v="Bothell"/><tag k="addr:street" v="6th Avenue Southeast"/></node>
<node id="-185" lat="47.845514445" lon="-122.226739205" visible="true"><tag k="addr:housenumber" v="313"/><tag k="addr:postcode" v="98012"/><tag k="addr:city" v="Bothell"/><tag k="addr:street" v="168th Place Southeast"/></node>
<node id="-186" lat="47.845893992" lon="-122.224724039" visible="true"><tag k="addr:housenumber" v="16723"/><tag k="addr:postcode" v="98012"/><tag k="addr:city" v="Bothell"/><tag k="addr:street" v="4th Drive Southeast"/></node>
<node id="-187" lat="47.846043689" lon="-122.22473994" visible="true"><tag k="addr:housenumber" v="16719"/><tag k="addr:postcode" v="98012"/><tag k="addr:city" v="Bothell"/><tag k="addr:street" v="4th Drive Southeast"/></node>
<node id="-188" lat="47.846065038" lon="-122.22412473" visible="true"><tag k="addr:housenumber" v="16718"/><tag k="addr:postcode" v="98012"/><tag k="addr:city" v="Bothell"/><tag k="addr:street" v="6th Avenue Southeast"/></node>
<node id="-189" lat="47.845867255" lon="-122.225187321" visible="true"><tag k="addr:housenumber" v="16724"/><tag k="addr:postcode" v="98012"/><tag k="addr:city" v="Bothell"/><tag k="addr:street" v="4th Drive Southeast"/></node>
<node id="-190" lat="47.848929302" lon="-122.22683537" visible="true"><tag k="addr:housenumber" v="16415"/><tag k="addr:postcode" v="98012"/><tag k="addr:city" v="Bothell"/><tag k="addr:street" v="3rd Drive Southeast"/></node>
<node id="-191" lat="47.845894843" lon="-122.2238248" visible="true"><tag k="addr:housenumber" v="16726"/><tag k="addr:postcode" v="98012"/><tag k="addr:city" v="Bothell"/><tag k="addr:street" v="6th Avenue Southeast"/></node>
<node id="-192" lat="47.848985651" lon="-122.223859122" visible="true"><tag k="addr:housenumber" v="605"/><tag k="addr:postcode" v="98012"/><tag k="addr:city" v="Bothell"/><tag k="addr:street" v="164th Place Southeast"/></node>
<node id="-193" lat="47.845963977" lon="-122.225406701" visible="true"><tag k="addr:housenumber" v="16722"/><tag k="addr:postcode" v="98012"/><tag k="addr:city" v="Bothell"/><tag k="addr:street" v="4th Drive Southeast"/></node>
<node id="-194" lat="47.848901363" lon="-122.227221591" visible="true"><tag k="addr:housenumber" v="16416"/><tag k="addr:postcode" v="98012"/><tag k="addr:city" v="Bothell"/><tag k="addr:street" v="3rd Drive Southeast"/></node>
<node id="-195" lat="47.848854216" lon="-122.223825834" visible="true"><tag k="addr:housenumber" v="609"/><tag k="addr:postcode" v="98012"/><tag k="addr:city" v="Bothell"/><tag k="addr:street" v="164th Place Southeast"/></node>
<node id="-196" lat="47.847487579" lon="-122.226436778" visible="true"><tag k="addr:housenumber" v="16533"/><tag k="addr:postcode" v="98012"/><tag k="addr:city" v="Bothell"/><tag k="addr:street" v="3rd Drive Southeast"/></node>
<node id="-197" lat="47.848335836" lon="-122.225316" visible="true"><tag k="addr:housenumber" v="16503"/><tag k="addr:postcode" v="98012"/><tag k="addr:city" v="Bothell"/><tag k="addr:street" v="4th Drive Southeast"/></node>
<node id="-198" lat="47.846283576" lon="-122.223468479" visible="true"><tag k="addr:housenumber" v="16711"/><tag k="addr:postcode" v="98012"/><tag k="addr:city" v="Bothell"/><tag k="addr:street" v="6th Avenue Southeast"/></node>
<node id="-199" lat="47.844451031" lon="-122.225708971" visible="true"><tag k="addr:housenumber" v="410"/><tag k="addr:postcode" v="98012"/><tag k="addr:city" v="Bothell"/><tag k="addr:street" v="169th Street Southeast"/></node>
<node id="-200" lat="47.847600244" lon="-122.225728793" visible="true"><tag k="addr:housenumber" v="16526"/><tag k="addr:postcode" v="98012"/><tag k="addr:city" v="Bothell"/><tag k="addr:street" v="4th Drive Southeast"/></node>
<node id="-201" lat="47.846491342" lon="-122.224492752" visible="true"><tag k="addr:housenumber" v="524"/><tag k="addr:postcode" v="98012"/><tag k="addr:city" v="Bothell"/><tag k="addr:street" v="167th Street Southeast"/></node>
<node id="-202" lat="47.846421854" lon="-122.223937892" visible="true"><tag k="addr:housenumber" v="16706"/><tag k="addr:postcode" v="98012"/><tag k="addr:city" v="Bothell"/><tag k="addr:street" v="6th Avenue Southeast"/></node>
<node id="-203" lat="47.847553845" lon="-122.226930069" visible="true"><tag k="addr:housenumber" v="16530"/><tag k="addr:postcode" v="98012"/><tag k="addr:city" v="Bothell"/><tag k="addr:street" v="3rd Drive Southeast"/></node>
<node id="-204" lat="47.846467454" lon="-122.224258919" visible="true"><tag k="addr:housenumber" v="532"/><tag k="addr:postcode" v="98012"/><tag k="addr:city" v="Bothell"/><tag k="addr:street" v="167th Street Southeast"/></node>
<node id="-205" lat="47.846537872" lon="-122.224781162" visible="true"><tag k="addr:housenumber" v="514"/><tag k="addr:postcode" v="98012"/><tag k="addr:city" v="Bothell"/><tag k="addr:street" v="167th Street Southeast"/></node>
<node id="-206" lat="47.84895624" lon="-122.227062168" visible="true"><tag k="addr:housenumber" v="16412"/><tag k="addr:postcode" v="98012"/><tag k="addr:city" v="Bothell"/><tag k="addr:street" v="3rd Drive Southeast"/></node>
<node id="-207" lat="47.847804428" lon="-122.225351391" visible="true"><tag k="addr:housenumber" v="16521"/><tag k="addr:postcode" v="98012"/><tag k="addr:city" v="Bothell"/><tag k="addr:street" v="4th Drive Southeast"/></node>
<node id="-208" lat="47.846448061" lon="-122.223470857" visible="true"><tag k="addr:housenumber" v="16705"/><tag k="addr:postcode" v="98012"/><tag k="addr:city" v="Bothell"/><tag k="addr:street" v="6th Avenue Southeast"/></node>
<node id="-209" lat="47.846651344" lon="-122.223492662" visible="true"><tag k="addr:housenumber" v="16633"/><tag k="addr:postcode" v="98012"/><tag k="addr:city" v="Bothell"/><tag k="addr:street" v="6th Avenue Southeast"/></node>
<node id="-210" lat="47.847767214" lon="-122.226327418" visible="true"><tag k="addr:housenumber" v="406"/><tag k="addr:postcode" v="98012"/><tag k="addr:city" v="Bothell"/><tag k="addr:street" v="165th Place Southeast"/></node>
<node id="-211" lat="47.84521623" lon="-122.223889856" visible="true"><tag k="addr:housenumber" v="16811"/><tag k="addr:postcode" v="98012"/><tag k="addr:city" v="Bothell"/><tag k="addr:street" v="5th Avenue Southeast"/></node>
<node id="-212" lat="47.847655641" lon="-122.225267002" visible="true"><tag k="addr:housenumber" v="16527"/><tag k="addr:postcode" v="98012"/><tag k="addr:city" v="Bothell"/><tag k="addr:street" v="4th Drive Southeast"/></node>
<node id="-213" lat="47.845177599" lon="-122.224172917" visible="true"><tag k="addr:housenumber" v="16829"/><tag k="addr:postcode" v="98012"/><tag k="addr:city" v="Bothell"/><tag k="addr:street" v="5th Avenue Southeast"/></node>
<node id="-214" lat="47.847750404" lon="-122.225750481" visible="true"><tag k="addr:housenumber" v="16520"/><tag k="addr:postcode" v="98012"/><tag k="addr:city" v="Bothell"/><tag k="addr:street" v="4th Drive Southeast"/></node>
<node id="-215" lat="47.84667409" lon="-122.226216556" visible="true"><tag k="addr:housenumber" v="16627"/><tag k="addr:postcode" v="98012"/><tag k="addr:city" v="Bothell"/><tag k="addr:street" v="3rd Drive Southeast"/></node>
<node id="-216" lat="47.84510605" lon="-122.226783206" visible="true"><tag k="addr:housenumber" v="16830"/><tag k="addr:postcode" v="98012"/><tag k="addr:city" v="Bothell"/><tag k="addr:street" v="3rd Drive Southeast"/></node>
<node id="-217" lat="47.841579758" lon="-122.226062609" visible="true"><tag k="addr:housenumber" v="17218"/><tag k="addr:postcode" v="98012"/><tag k="addr:city" v="Bothell"/><tag k="addr:street" v="4th Drive Southeast"/></node>
<node id="-218" lat="47.84188249" lon="-122.225939286" visible="true"><tag k="addr:housenumber" v="17206"/><tag k="addr:postcode" v="98012"/><tag k="addr:city" v="Bothell"/><tag k="addr:street" v="4th Drive Southeast"/></node>
<node id="-219" lat="47.844511182" lon="-122.225479102" visible="true"><tag k="addr:housenumber" v="414"/><tag k="addr:postcode" v="98012"/><tag k="addr:city" v="Bothell"/><tag k="addr:street" v="169th Street Southeast"/></node>
<node id="-220" lat="47.848698868" lon="-122.223829922" visible="true"><tag k="addr:housenumber" v="606"/><tag k="addr:postcode" v="98012"/><tag k="addr:city" v="Bothell"/><tag k="addr:street" v="164th Place Southeast"/></node>
<node id="-221" lat="47.841785428" lon="-122.225672847" visible="true"><tag k="addr:housenumber" v="17211"/><tag k="addr:postcode" v="98012"/><tag k="addr:city" v="Bothell"/><tag k="addr:street" v="4th Drive Southeast"/></node>
<node id="-222" lat="47.843455409" lon="-122.22608464" visible="true"><tag k="addr:housenumber" v="17014"/><tag k="addr:postcode" v="98012"/><tag k="addr:city" v="Bothell"/><tag k="addr:street" v="4th Avenue Southeast"/></node>
<node id="-223" lat="47.841852479" lon="-122.226070733" visible="true"><tag k="addr:housenumber" v="17210"/><tag k="addr:postcode" v="98012"/><tag k="addr:city" v="Bothell"/><tag k="addr:street" v="4th Drive Southeast"/></node>
<node id="-224" lat="47.841283678" lon="-122.225183637" visible="true"><tag k="addr:housenumber" v="418"/><tag k="addr:postcode" v="98012"/><tag k="addr:city" v="Bothell"/><tag k="addr:street" v="172nd Place Southeast"/></node>
<node id="-225" lat="47.84730845" lon="-122.225485718" visible="true"><tag k="addr:housenumber" v="16606"/><tag k="addr:postcode" v="98012"/><tag k="addr:city" v="Bothell"/><tag k="addr:street" v="4th Drive Southeast"/></node>
<node id="-226" lat="47.847369035" lon="-122.226851778" visible="true"><tag k="addr:housenumber" v="16602"/><tag k="addr:postcode" v="98012"/><tag k="addr:city" v="Bothell"/><tag k="addr:street" v="3rd Drive Southeast"/></node>
<node id="-227" lat="47.847448086" lon="-122.225614724" visible="true"><tag k="addr:housenumber" v="16602"/><tag k="addr:postcode" v="98012"/><tag k="addr:city" v="Bothell"/><tag k="addr:street" v="4th Drive Southeast"/></node>
<node id="-228" lat="47.847170076" lon="-122.226278547" visible="true"><tag k="addr:housenumber" v="16611"/><tag k="addr:postcode" v="98012"/><tag k="addr:city" v="Bothell"/><tag k="addr:street" v="3rd Drive Southeast"/></node>
<node id="-229" lat="47.846219098" lon="-122.223982345" visible="true"><tag k="addr:housenumber" v="16714"/><tag k="addr:postcode" v="98012"/><tag k="addr:city" v="Bothell"/><tag k="addr:street" v="6th Avenue Southeast"/></node>
<node id="-230" lat="47.843638755" lon="-122.225895538" visible="true"><tag k="addr:housenumber" v="17011"/><tag k="addr:postcode" v="98012"/><tag k="addr:city" v="Bothell"/><tag k="addr:street" v="4th Avenue Southeast"/></node>
<node id="-231" lat="47.846780721" lon="-122.223494721" visible="true"><tag k="addr:housenumber" v="16625"/><tag k="addr:postcode" v="98012"/><tag k="addr:city" v="Bothell"/><tag k="addr:street" v="6th Avenue Southeast"/></node>
<node id="-232" lat="47.847934321" lon="-122.225436234" visible="true"><tag k="addr:housenumber" v="16517"/><tag k="addr:postcode" v="98012"/><tag k="addr:city" v="Bothell"/><tag k="addr:street" v="4th Drive Southeast"/></node>
<node id="-233" lat="47.846822025" lon="-122.224388149" visible="true"><tag k="addr:housenumber" v="523"/><tag k="addr:postcode" v="98012"/><tag k="addr:city" v="Bothell"/><tag k="addr:street" v="167th Street Southeast"/></node>
<node id="-234" lat="47.846807879" lon="-122.224142356" visible="true"><tag k="addr:housenumber" v="601"/><tag k="addr:postcode" v="98012"/><tag k="addr:city" v="Bothell"/><tag k="addr:street" v="167th Street Southeast"/></node>
<node id="-235" lat="47.846894884" lon="-122.223877217" visible="true"><tag k="addr:housenumber" v="16624"/><tag k="addr:postcode" v="98012"/><tag k="addr:city" v="Bothell"/><tag k="addr:street" v="6th Avenue Southeast"/></node>
<node id="-236" lat="47.846853238" lon="-122.226196934" visible="true"><tag k="addr:housenumber" v="16621"/><tag k="addr:postcode" v="98012"/><tag k="addr:city" v="Bothell"/><tag k="addr:street" v="3rd Drive Southeast"/></node>
<node id="-237" lat="47.846862024" lon="-122.224649909" visible="true"><tag k="addr:housenumber" v="517"/><tag k="addr:postcode" v="98012"/><tag k="addr:city" v="Bothell"/><tag k="addr:street" v="167th Street Southeast"/></node>
<node id="-238" lat="47.841740895" lon="-122.226071127" visible="true"><tag k="addr:housenumber" v="17214"/><tag k="addr:postcode" v="98012"/><tag k="addr:city" v="Bothell"/><tag k="addr:street" v="4th Drive Southeast"/></node>
<node id="-239" lat="47.844531639" lon="-122.225956878" visible="true"><tag k="addr:housenumber" v="406"/><tag k="addr:postcode" v="98012"/><tag k="addr:city" v="Bothell"/><tag k="addr:street" v="169th Street Southeast"/></node>
<node id="-240" lat="47.84586377" lon="-122.227042265" visible="true"><tag k="addr:housenumber" v="318"/><tag k="addr:postcode" v="98012"/><tag k="addr:city" v="Bothell"/><tag k="addr:street" v="167th Place Southeast"/></node>
<node id="-241" lat="47.844532636" lon="-122.224561547" visible="true"><tag k="addr:housenumber" v="16918"/><tag k="addr:postcode" v="98012"/><tag k="addr:city" v="Bothell"/><tag k="addr:street" v="5th Avenue Southeast"/></node>
<node id="-242" lat="47.843212249" lon="-122.225350517" visible="true"><tag k="addr:housenumber" v="17018"/><tag k="addr:postcode" v="98012"/><tag k="addr:city" v="Bothell"/><tag k="addr:street" v="4th Avenue Southeast"/></node>
<node id="-243" lat="47.839924892" lon="-122.227289985" visible="true"><tag k="addr:housenumber" v="17409"/><tag k="addr:postcode" v="98012"/><tag k="addr:city" v="Bothell"/><tag k="addr:street" v="3rd Avenue Southeast"/></node>
<node id="-244" lat="47.839645265" lon="-122.227286881" visible="true"><tag k="addr:housenumber" v="17419"/><tag k="addr:postcode" v="98012"/><tag k="addr:city" v="Bothell"/><tag k="addr:street" v="3rd Avenue Southeast"/></node>
<node id="-245" lat="47.839481685" lon="-122.227282479" visible="true"><tag k="addr:housenumber" v="17427"/><tag k="addr:postcode" v="98012"/><tag k="addr:city" v="Bothell"/><tag k="addr:street" v="3rd Avenue Southeast"/></node>
<node id="-246" lat="47.839913953" lon="-122.226967094" visible="true"><tag k="addr:housenumber" v="17413"/><tag k="addr:postcode" v="98012"/><tag k="addr:city" v="Bothell"/><tag k="addr:street" v="3rd Avenue Southeast"/></node>
<node id="-247" lat="47.839637571" lon="-122.226941981" visible="true"><tag k="addr:housenumber" v="17423"/><tag k="addr:postcode" v="98012"/><tag k="addr:city" v="Bothell"/><tag k="addr:street" v="3rd Avenue Southeast"/></node>
<node id="-248" lat="47.839756483" lon="-122.2269496" visible="true"><tag k="addr:housenumber" v="17415"/><tag k="addr:postcode" v="98012"/><tag k="addr:city" v="Bothell"/><tag k="addr:street" v="3rd Avenue Southeast"/></node>
<node id="-249" lat="47.839749307" lon="-122.227294099" visible="true"><tag k="addr:housenumber" v="17417"/><tag k="addr:postcode" v="98012"/><tag k="addr:city" v="Bothell"/><tag k="addr:street" v="3rd Avenue Southeast"/></node>
<node id="-250" lat="47.839491728" lon="-122.226946896" visible="true"><tag k="addr:housenumber" v="17425"/><tag k="addr:postcode" v="98012"/><tag k="addr:city" v="Bothell"/><tag k="addr:street" v="3rd Avenue Southeast"/></node>
<node id="-251" lat="47.839320971" lon="-122.227286992" visible="true"><tag k="addr:housenumber" v="17501"/><tag k="addr:postcode" v="98012"/><tag k="addr:city" v="Bothell"/><tag k="addr:street" v="3rd Avenue Southeast"/></node>
<node id="-252" lat="47.839327394" lon="-122.227004343" visible="true"><tag k="addr:housenumber" v="17431"/><tag k="addr:postcode" v="98012"/><tag k="addr:city" v="Bothell"/><tag k="addr:street" v="3rd Avenue Southeast"/></node>
<node id="-253" lat="47.839101636" lon="-122.227219223" visible="true"><tag k="addr:housenumber" v="17507"/><tag k="addr:postcode" v="98012"/><tag k="addr:city" v="Bothell"/><tag k="addr:street" v="3rd Avenue Southeast"/></node>
<node id="-254" lat="47.839228556" lon="-122.227302181" visible="true"><tag k="addr:housenumber" v="17503"/><tag k="addr:postcode" v="98012"/><tag k="addr:city" v="Bothell"/><tag k="addr:street" v="3rd Avenue Southeast"/></node>
<node id="-255" lat="47.848046528" lon="-122.226594491" visible="true"><tag k="addr:housenumber" v="329"/><tag k="addr:postcode" v="98012"/><tag k="addr:city" v="Bothell"/><tag k="addr:street" v="165th Place Southeast"/></node>
<node id="-256" lat="47.848110464" lon="-122.226161719" visible="true"><tag k="addr:housenumber" v="411"/><tag k="addr:postcode" v="98012"/><tag k="addr:city" v="Bothell"/><tag k="addr:street" v="165th Place Southeast"/></node>
<node id="-257" lat="47.848242611" lon="-122.227266096" visible="true"><tag k="addr:housenumber" v="16504"/><tag k="addr:postcode" v="98012"/><tag k="addr:city" v="Bothell"/><tag k="addr:street" v="3rd Drive Southeast"/></node>
<node id="-258" lat="47.84858191" lon="-122.22726708" visible="true"><tag k="addr:housenumber" v="16426"/><tag k="addr:postcode" v="98012"/><tag k="addr:city" v="Bothell"/><tag k="addr:street" v="3rd Drive Southeast"/></node>
<node id="-259" lat="47.846310725" lon="-122.226159151" visible="true"><tag k="addr:housenumber" v="16707"/><tag k="addr:postcode" v="98012"/><tag k="addr:city" v="Bothell"/><tag k="addr:street" v="3rd Drive Southeast"/></node>
<node id="-260" lat="47.841263208" lon="-122.227144702" visible="true"><tag k="addr:housenumber" v="308"/><tag k="addr:postcode" v="98012"/><tag k="addr:city" v="Bothell"/><tag k="addr:street" v="172nd Place Southeast"/></node>
<node id="-261" lat="47.844458134" lon="-122.227552878" visible="true"><tag k="addr:housenumber" v="16909"/><tag k="addr:postcode" v="98012"/><tag k="addr:city" v="Bothell"/><tag k="addr:street" v="3rd Avenue Southeast"/></node>
<node id="-262" lat="47.841258499" lon="-122.226631403" visible="true"><tag k="addr:housenumber" v="320"/><tag k="addr:postcode" v="98012"/><tag k="addr:city" v="Bothell"/><tag k="addr:street" v="172nd Place Southeast"/></node>
<node id="-263" lat="47.841253824" lon="-122.226115051" visible="true"><tag k="addr:housenumber" v="332"/><tag k="addr:postcode" v="98012"/><tag k="addr:city" v="Bothell"/><tag k="addr:street" v="172nd Place Southeast"/></node>
<node id="-264" lat="47.841261539" lon="-122.226888071" visible="true"><tag k="addr:housenumber" v="314"/><tag k="addr:postcode" v="98012"/><tag k="addr:city" v="Bothell"/><tag k="addr:street" v="172nd Place Southeast"/></node>
<node id="-265" lat="47.841256156" lon="-122.226373737" visible="true"><tag k="addr:housenumber" v="326"/><tag k="addr:postcode" v="98012"/><tag k="addr:city" v="Bothell"/><tag k="addr:street" v="172nd Place Southeast"/></node>
<node id="-266" lat="47.841279113" lon="-122.227370604" visible="true"><tag k="addr:housenumber" v="302"/><tag k="addr:postcode" v="98012"/><tag k="addr:city" v="Bothell"/><tag k="addr:street" v="172nd Place Southeast"/></node>
<node id="-267" lat="47.841264256" lon="-122.225333809" visible="true"><tag k="addr:housenumber" v="414"/><tag k="addr:postcode" v="98012"/><tag k="addr:city" v="Bothell"/><tag k="addr:street" v="172nd Place Southeast"/></node>
<node id="-268" lat="47.844714413" lon="-122.227064574" visible="true"><tag k="addr:housenumber" v="310"/><tag k="addr:postcode" v="98012"/><tag k="addr:city" v="Bothell"/><tag k="addr:street" v="169th Street Southeast"/></node>
<node id="-269" lat="47.840790079" lon="-122.225751083" visible="true"><tag k="addr:housenumber" v="17325"/><tag k="addr:postcode" v="98012"/><tag k="addr:city" v="Bothell"/><tag k="addr:street" v="3rd Avenue Southeast"/></node>
<node id="-270" lat="47.846073671" lon="-122.227242803" visible="true"><tag k="addr:housenumber" v="313"/><tag k="addr:postcode" v="98012"/><tag k="addr:city" v="Bothell"/><tag k="addr:street" v="167th Place Southeast"/></node>
<node id="-271" lat="47.840796287" lon="-122.226254234" visible="true"><tag k="addr:housenumber" v="17321"/><tag k="addr:postcode" v="98012"/><tag k="addr:city" v="Bothell"/><tag k="addr:street" v="3rd Avenue Southeast"/></node>
<node id="-272" lat="47.842382782" lon="-122.22661984" visible="true"><tag k="addr:housenumber" v="17111"/><tag k="addr:postcode" v="98012"/><tag k="addr:city" v="Bothell"/><tag k="addr:street" v="3rd Avenue Southeast"/></node>
<node id="-273" lat="47.843134031" lon="-122.22655061" visible="true"><tag k="addr:housenumber" v="322"/><tag k="addr:postcode" v="98012"/><tag k="addr:city" v="Bothell"/><tag k="addr:street" v="171st Street Southeast"/></node>
<node id="-274" lat="47.843164094" lon="-122.226796022" visible="true"><tag k="addr:housenumber" v="318"/><tag k="addr:postcode" v="98012"/><tag k="addr:city" v="Bothell"/><tag k="addr:street" v="171st Street Southeast"/></node>
<node id="-275" lat="47.842926638" lon="-122.22565657" visible="true"><tag k="addr:housenumber" v="408"/><tag k="addr:postcode" v="98012"/><tag k="addr:city" v="Bothell"/><tag k="addr:street" v="171st Street Southeast"/></node>
<node id="-276" lat="47.84294148" lon="-122.226594985" visible="true"><tag k="addr:housenumber" v="328"/><tag k="addr:postcode" v="98012"/><tag k="addr:city" v="Bothell"/><tag k="addr:street" v="171st Street Southeast"/></node>
<node id="-277" lat="47.842983725" lon="-122.226372224" visible="true"><tag k="addr:housenumber" v="330"/><tag k="addr:postcode" v="98012"/><tag k="addr:city" v="Bothell"/><tag k="addr:street" v="171st Street Southeast"/></node>
<node id="-278" lat="47.842859536" lon="-122.225344094" visible="true"><tag k="addr:housenumber" v="412"/><tag k="addr:postcode" v="98012"/><tag k="addr:city" v="Bothell"/><tag k="addr:street" v="171st Street Southeast"/></node>
<node id="-279" lat="47.845355803" lon="-122.223855248" visible="true"><tag k="addr:housenumber" v="16807"/><tag k="addr:postcode" v="98012"/><tag k="addr:city" v="Bothell"/><tag k="addr:street" v="5th Avenue Southeast"/></node>
<node id="-280" lat="47.844487403" lon="-122.223997574" visible="true"><tag k="addr:housenumber" v="16930"/><tag k="addr:postcode" v="98012"/><tag k="addr:city" v="Bothell"/><tag k="addr:street" v="5th Avenue Southeast"/></node>
<node id="-281" lat="47.845382926" lon="-122.224668222" visible="true"><tag k="addr:housenumber" v="16826"/><tag k="addr:postcode" v="98012"/><tag k="addr:city" v="Bothell"/><tag k="addr:street" v="5th Avenue Southeast"/></node>
<node id="-282" lat="47.848647373" lon="-122.224625564" visible="true"><tag k="addr:housenumber" v="520"/><tag k="addr:postcode" v="98012"/><tag k="addr:city" v="Bothell"/><tag k="addr:street" v="164th Place Southeast"/></node>
<node id="-283" lat="47.845180608" lon="-122.224808062" visible="true"><tag k="addr:housenumber" v="16832"/><tag k="addr:postcode" v="98012"/><tag k="addr:city" v="Bothell"/><tag k="addr:street" v="5th Avenue Southeast"/></node>
<node id="-284" lat="47.846499366" lon="-122.226266846" visible="true"><tag k="addr:housenumber" v="16701"/><tag k="addr:postcode" v="98012"/><tag k="addr:city" v="Bothell"/><tag k="addr:street" v="3rd Drive Southeast"/></node>
<node id="-285" lat="47.848846357" lon="-122.226660587" visible="true"><tag k="addr:housenumber" v="16417"/><tag k="addr:postcode" v="98012"/><tag k="addr:city" v="Bothell"/><tag k="addr:street" v="3rd Drive Southeast"/></node>
<node id="-286" lat="47.841534341" lon="-122.225383152" visible="true"><tag k="addr:housenumber" v="413"/><tag k="addr:postcode" v="98012"/><tag k="addr:city" v="Bothell"/><tag k="addr:street" v="172nd Place Southeast"/></node>
<node id="-287" lat="47.841496767" lon="-122.226636963" visible="true"><tag k="addr:housenumber" v="321"/><tag k="addr:postcode" v="98012"/><tag k="addr:city" v="Bothell"/><tag k="addr:street" v="172nd Place Southeast"/></node>
<node id="-288" lat="47.841501774" lon="-122.227125835" visible="true"><tag k="addr:housenumber" v="309"/><tag k="addr:postcode" v="98012"/><tag k="addr:city" v="Bothell"/><tag k="addr:street" v="172nd Place Southeast"/></node>
<node id="-289" lat="47.841494867" lon="-122.226399219" visible="true"><tag k="addr:housenumber" v="327"/><tag k="addr:postcode" v="98012"/><tag k="addr:city" v="Bothell"/><tag k="addr:street" v="172nd Place Southeast"/></node>
<node id="-290" lat="47.841499271" lon="-122.226881398" visible="true"><tag k="addr:housenumber" v="315"/><tag k="addr:postcode" v="98012"/><tag k="addr:city" v="Bothell"/><tag k="addr:street" v="172nd Place Southeast"/></node>
<node id="-291" lat="47.841504607" lon="-122.227372853" visible="true"><tag k="addr:housenumber" v="303"/><tag k="addr:postcode" v="98012"/><tag k="addr:city" v="Bothell"/><tag k="addr:street" v="172nd Place Southeast"/></node>
<node id="-292" lat="47.841497175" lon="-122.225620639" visible="true"><tag k="addr:housenumber" v="409"/><tag k="addr:postcode" v="98012"/><tag k="addr:city" v="Bothell"/><tag k="addr:street" v="172nd Place Southeast"/></node>
<node id="-293" lat="47.844615292" lon="-122.224716506" visible="true"><tag k="addr:housenumber" v="16910"/><tag k="addr:postcode" v="98012"/><tag k="addr:city" v="Bothell"/><tag k="addr:street" v="5th Avenue Southeast"/></node>
<node id="-294" lat="47.841912449" lon="-122.225755796" visible="true"><tag k="addr:housenumber" v="17207"/><tag k="addr:postcode" v="98012"/><tag k="addr:city" v="Bothell"/><tag k="addr:street" v="4th Drive Southeast"/></node>
<node id="-295" lat="47.844790323" lon="-122.223908631" visible="true"><tag k="addr:housenumber" v="16929"/><tag k="addr:postcode" v="98012"/><tag k="addr:city" v="Bothell"/><tag k="addr:street" v="5th Avenue Southeast"/></node>
<node id="-296" lat="47.844791963" lon="-122.224187001" visible="true"><tag k="addr:housenumber" v="16925"/><tag k="addr:postcode" v="98012"/><tag k="addr:city" v="Bothell"/><tag k="addr:street" v="5th Avenue Southeast"/></node>
<node id="-297" lat="47.844736908" lon="-122.224767971" visible="true"><tag k="addr:housenumber" v="16904"/><tag k="addr:postcode" v="98012"/><tag k="addr:city" v="Bothell"/><tag k="addr:street" v="5th Avenue Southeast"/></node>
<node id="-298" lat="47.84723673" lon="-122.226833736" visible="true"><tag k="addr:housenumber" v="16610"/><tag k="addr:postcode" v="98012"/><tag k="addr:city" v="Bothell"/><tag k="addr:street" v="3rd Drive Southeast"/></node>
<node id="-299" lat="47.84732866" lon="-122.226371405" visible="true"><tag k="addr:housenumber" v="16605"/><tag k="addr:postcode" v="98012"/><tag k="addr:city" v="Bothell"/><tag k="addr:street" v="3rd Drive Southeast"/></node>
<node id="-300" lat="47.844705684" lon="-122.225962236" visible="true"><tag k="addr:housenumber" v="402"/><tag k="addr:postcode" v="98012"/><tag k="addr:city" v="Bothell"/><tag k="addr:street" v="169th Street Southeast"/></node>
<node id="-301" lat="47.844781481" lon="-122.225329554" visible="true"><tag k="addr:housenumber" v="418"/><tag k="addr:postcode" v="98012"/><tag k="addr:city" v="Bothell"/><tag k="addr:street" v="169th Street Southeast"/></node>
<node id="-302" lat="47.845310289" lon="-122.22607353" visible="true"><tag k="addr:housenumber" v="405"/><tag k="addr:postcode" v="98012"/><tag k="addr:city" v="Bothell"/><tag k="addr:street" v="169th Street Southeast"/></node>
<node id="-303" lat="47.845450504" lon="-122.224353691" visible="true"><tag k="addr:housenumber" v="16816"/><tag k="addr:postcode" v="98012"/><tag k="addr:city" v="Bothell"/><tag k="addr:street" v="5th Avenue Southeast"/></node>
<node id="-304" lat="47.84466935" lon="-122.223822905" visible="true"><tag k="addr:housenumber" v="16931"/><tag k="addr:postcode" v="98012"/><tag k="addr:city" v="Bothell"/><tag k="addr:street" v="5th Avenue Southeast"/></node>
<node id="-305" lat="47.845926523" lon="-122.227208295" visible="true"><tag k="addr:housenumber" v="316"/><tag k="addr:postcode" v="98012"/><tag k="addr:city" v="Bothell"/><tag k="addr:street" v="167th Place Southeast"/></node>
</osm>