<?xml version="1.0"?>
<osm version="0.6" upload="false" generator="uvmogr2osm">
<node id="-1" lat="47.837797293" lon="-122.231422061" visible="true"><tag k="addr:housenumber" v="17622"/><tag k="addr:postcode" v="98012"/><tag k="addr:city" v="Bothell"/><tag k="addr:street" v="Clover Road"/></node>
<node id="-2" lat="47.83786538" lon="-122.230674964" visible="true"><tag k="addr:housenumber" v="17618"/><tag k="addr:postcode" v="98012"/><tag k="addr:city" v="Bothell"/><tag k="addr:street" v="Clover Road"/></node>
<node id="-3" lat="47.829617218" lon="-122.231709676" visible="true"><tag k="addr:housenumber" v="18505"/><tag k="addr:postcode" v="98012"/><tag k="addr:city" v="Bothell"/><tag k="addr:street" v="Baldwin Road"/></node>
<node id="-4" lat="47.829771113" lon="-122.23055165" visible="true"><tag k="addr:housenumber" v="18421"/><tag k="addr:postcode" v="98012"/><tag k="addr:city" v="Bothell"/><tag k="addr:street" v="Baldwin Road"/></node>
<node id="-5" lat="47.829863252" lon="-122.230132992" visible="true"><tag k="addr:housenumber" v="18419"/><tag k="addr:postcode" v="98012"/><tag k="addr:city" v="Bothell"/><tag k="addr:street" v="Baldwin Road"/></node>
<node id="-6" lat="47.832310798" lon="-122.229117844" visible="true"><tag k="addr:housenumber" v="18221"/><tag k="addr:postcode" v="98012"/><tag k="addr:city" v="Bothell"/><tag k="addr:street" v="Baldwin Road"/></node>
<node id="-7" lat="47.829861001" lon="-122.233825174" visible="true"><tag k="addr:housenumber" v="20"/><tag k="addr:postcode" v="98012"/><tag k="addr:city" v="Bothell"/><tag k="addr:street" v="South Bellflower Road"/></node>
<node id="-8" lat="47.829755882" lon="-122.231287216" visible="true"><tag k="addr:housenumber" v="18425"/><tag k="addr:postcode" v="98012"/><tag k="addr:city" v="Bothell"/><tag k="addr:street" v="Baldwin Road"/></node>
<node id="-9" lat="47.839041363" lon="-122.232548116" visible="true"><tag k="addr:housenumber" v="17512"/><tag k="addr:postcode" v="98012"/><tag k="addr:city" v="Bothell"/><tag k="addr:street" v="Clover Road"/></node>
<node id="-10" lat="47.829509565" lon="-122.233345417" visible="true"><tag k="addr:housenumber" v="12"/><tag k="addr:postcode" v="98012"/><tag k="addr:city" v="Bothell"/><tag k="addr:street" v="South Bellflower Road"/></node>
<node id="-11" lat="47.838094581" lon="-122.230822666" visible="true"><tag k="addr:housenumber" v="17612"/><tag k="addr:postcode" v="98012"/><tag k="addr:city" v="Bothell"/><tag k="addr:street" v="Clover Road"/></node>
<node id="-12" lat="47.829990446" lon="-122.235390213" visible="true"><tag k="addr:housenumber" v="212"/><tag k="addr:postcode" v="98012"/><tag k="addr:city" v="Bothell"/><tag k="addr:street" v="185th Place Southwest"/></node>
<node id="-13" lat="47.837393787" lon="-122.230934835" visible="true"><tag k="addr:housenumber" v="17710"/><tag k="addr:postcode" v="98012"/><tag k="addr:city" v="Bothell"/><tag k="addr:street" v="Clover Road"/></node>
<node id="-14" lat="47.830306503" lon="-122.231863145" visible="true"><tag k="addr:housenumber" v="18509"/><tag k="addr:postcode" v="98012"/><tag k="addr:city" v="Bothell"/><tag k="addr:street" v="Baldwin Road"/></node>
<node id="-15" lat="47.838211157" lon="-122.229754222" visible="true"><tag k="addr:housenumber" v="17609"/><tag k="addr:postcode" v="98012"/><tag k="addr:city" v="Bothell"/><tag k="addr:street" v="Clover Road"/></node>
<node id="-16" lat="47.830281587" lon="-122.236057179" visible="true"><tag k="addr:housenumber" v="221"/><tag k="addr:postcode" v="98012"/><tag k="addr:city" v="Bothell"/><tag k="addr:street" v="185th Place Southwest"/></node>
<node id="-17" lat="47.837825801" lon="-122.229643297" visible="true"><tag k="addr:housenumber" v="17623"/><tag k="addr:postcode" v="98012"/><tag k="addr:city" v="Bothell"/><tag k="addr:street" v="Clover Road"/></node>
<node id="-18" lat="47.837944232" lon="-122.232512996" visible="true"><tag k="addr:housenumber" v="17608"/><tag k="addr:postcode" v="98012"/><tag k="addr:city" v="Bothell"/><tag k="addr:street" v="Clover Road"/></node>
<node id="-19" lat="47.830035127" lon="-122.229596366" visible="true"><tag k="addr:housenumber" v="18415"/><tag k="addr:postcode" v="98012"/><tag k="addr:city" v="Bothell"/><tag k="addr:street" v="Baldwin Road"/></node>
<node id="-20" lat="47.830259392" lon="-122.236431875" visible="true"><tag k="addr:housenumber" v="229"/><tag k="addr:postcode" v="98012"/><tag k="addr:city" v="Bothell"/><tag k="addr:street" v="185th Place Southwest"/></node>
<node id="-21" lat="47.838081951" lon="-122.235418213" visible="true"><tag k="addr:housenumber" v="17619"/><tag k="addr:postcode" v="98012"/><tag k="addr:city" v="Bothell"/><tag k="addr:street" v="North Road"/></node>
<node id="-22" lat="47.830054269" lon="-122.237617243" visible="true"><tag k="addr:housenumber" v="311"/><tag k="addr:postcode" v="98012"/><tag k="addr:city" v="Bothell"/><tag k="addr:street" v="South Bellflower Road"/></node>
<node id="-23" lat="47.830343392" lon="-122.230686679" visible="true"><tag k="addr:housenumber" v="18417"/><tag k="addr:postcode" v="98012"/><tag k="addr:city" v="Bothell"/><tag k="addr:street" v="Baldwin Road"/></node>
<node id="-24" lat="47.831157841" lon="-122.2371748" visible="true"><tag k="addr:housenumber" v="18405"/><tag k="addr:postcode" v="98012"/><tag k="addr:city" v="Bothell"/><tag k="addr:street" v="North Road"/></node>
<node id="-25" lat="47.83006463" lon="-122.236730411" visible="true"><tag k="addr:housenumber" v="230"/><tag k="addr:postcode" v="98012"/><tag k="addr:city" v="Bothell"/><tag k="addr:street" v="185th Place Southwest"/></node>
<node id="-26" lat="47.830449498" lon="-122.228799974" visible="true"><tag k="addr:housenumber" v="18407"/><tag k="addr:postcode" v="98012"/><tag k="addr:city" v="Bothell"/><tag k="addr:street" v="Baldwin Road"/></node>
<node id="-27" lat="47.833794061" lon="-122.235398463" visible="true"><tag k="addr:housenumber" v="126"/><tag k="addr:postcode" v="98012"/><tag k="addr:city" v="Bothell"/><tag k="addr:street" v="181st Street Southwest"/></node>
<node id="-28" lat="47.834391078" lon="-122.228568139" visible="true"><tag k="addr:housenumber" v="18011"/><tag k="addr:postcode" v="98012"/><tag k="addr:city" v="Bothell"/><tag k="addr:street" v="Baldwin Road"/></node>
<node id="-29" lat="47.830022393" lon="-122.236039077" visible="true"><tag k="addr:housenumber" v="218"/><tag k="addr:postcode" v="98012"/><tag k="addr:city" v="Bothell"/><tag k="addr:street" v="185th Place Southwest"/></node>
<node id="-30" lat="47.830263063" lon="-122.235090158" visible="true"><tag k="addr:housenumber" v="207"/><tag k="addr:postcode" v="98012"/><tag k="addr:city" v="Bothell"/><tag k="addr:street" v="185th Place Southwest"/></node>
<node id="-31" lat="47.830126322" lon="-122.231289923" visible="true"><tag k="addr:housenumber" v="18423"/><tag k="addr:postcode" v="98012"/><tag k="addr:city" v="Bothell"/><tag k="addr:street" v="Baldwin Road"/></node>
<node id="-32" lat="47.831226544" lon="-122.230113763" visible="true"><tag k="addr:housenumber" v="18330"/><tag k="addr:postcode" v="98012"/><tag k="addr:city" v="Bothell"/><tag k="addr:street" v="Baldwin Road"/></node>
<node id="-33" lat="47.831386769" lon="-122.23706495" visible="true"><tag k="addr:housenumber" v="18329"/><tag k="addr:postcode" v="98012"/><tag k="addr:city" v="Bothell"/><tag k="addr:street" v="North Road"/></node>
<node id="-34" lat="47.833601805" lon="-122.230025883" visible="true"><tag k="addr:housenumber" v="18116"/><tag k="addr:postcode" v="98012"/><tag k="addr:city" v="Bothell"/><tag k="addr:street" v="Baldwin Road"/></node>
<node id="-35" lat="47.834359721" lon="-122.229507985" visible="true"><tag k="addr:housenumber" v="18008"/><tag k="addr:postcode" v="98012"/><tag k="addr:city" v="Bothell"/><tag k="addr:street" v="Baldwin Road"/></node>
<node id="-36" lat="47.831660677" lon="-122.229926954" visible="true"><tag k="addr:housenumber" v="18324"/><tag k="addr:postcode" v="98012"/><tag k="addr:city" v="Bothell"/><tag k="addr:street" v="Baldwin Road"/></node>
<node id="-37" lat="47.833552247" lon="-122.229581356" visible="true"><tag k="addr:housenumber" v="18120"/><tag k="addr:postcode" v="98012"/><tag k="addr:city" v="Bothell"/><tag k="addr:street" v="Baldwin Road"/></node>
<node id="-38" lat="47.833793534" lon="-122.235050275" visible="true"><tag k="addr:housenumber" v="120"/><tag k="addr:postcode" v="98012"/><tag k="addr:city" v="Bothell"/><tag k="addr:street" v="181st Street Southwest"/></node>
<node id="-39" lat="47.834145253" lon="-122.235100513" visible="true"><tag k="addr:housenumber" v="119"/><tag k="addr:postcode" v="98012"/><tag k="addr:city" v="Bothell"/><tag k="addr:street" v="181st Street Southwest"/></node>
<node id="-40" lat="47.83378284" lon="-122.234636656" visible="true"><tag k="addr:housenumber" v="114"/><tag k="addr:postcode" v="98012"/><tag k="addr:city" v="Bothell"/><tag k="addr:street" v="181st Street Southwest"/></node>
<node id="-41" lat="47.830436745" lon="-122.229956061" visible="true"><tag k="addr:housenumber" v="18411"/><tag k="addr:postcode" v="98012"/><tag k="addr:city" v="Bothell"/><tag k="addr:street" v="Baldwin Road"/></node>
<node id="-42" lat="47.834136166" lon="-122.236480304" visible="true"><tag k="addr:housenumber" v="18031"/><tag k="addr:postcode" v="98012"/><tag k="addr:city" v="Bothell"/><tag k="addr:street" v="North Road"/></node>
<node id="-43" lat="47.831135564" lon="-122.228507684" visible="true"><tag k="addr:housenumber" v="18331"/><tag k="addr:postcode" v="98012"/><tag k="addr:city" v="Bothell"/><tag k="addr:street" v="Baldwin Road"/></node>
<node id="-44" lat="47.831425986" lon="-122.230004104" visible="true"><tag k="addr:housenumber" v="18328"/><tag k="addr:postcode" v="98012"/><tag k="addr:city" v="Bothell"/><tag k="addr:street" v="Baldwin Road"/></node>
<node id="-45" lat="47.834172237" lon="-122.234632935" visible="true"><tag k="addr:housenumber" v="113"/><tag k="addr:postcode" v="98012"/><tag k="addr:city" v="Bothell"/><tag k="addr:street" v="181st Street Southwest"/></node>
<node id="-46" lat="47.835139128" lon="-122.233652207" visible="true"><tag k="addr:housenumber" v="17924"/><tag k="addr:postcode" v="98012"/><tag k="addr:city" v="Bothell"/><tag k="addr:street" v="Bellflower Road"/></node>
<node id="-47" lat="47.833790513" lon="-122.235743487" visible="true"><tag k="addr:housenumber" v="202"/><tag k="addr:postcode" v="98012"/><tag k="addr:city" v="Bothell"/><tag k="addr:street" v="181st Street Southwest"/></node>
<node id="-48" lat="47.834131418" lon="-122.235781221" visible="true"><tag k="addr:housenumber" v="201"/><tag k="addr:postcode" v="98012"/><tag k="addr:city" v="Bothell"/><tag k="addr:street" v="181st Street Southwest"/></node>
<node id="-49" lat="47.836232821" lon="-122.235747495" visible="true"><tag k="addr:housenumber" v="131"/><tag k="addr:postcode" v="98012"/><tag k="addr:city" v="Bothell"/><tag k="addr:street" v="Bellflower Road"/></node>
<node id="-50" lat="47.831188084" lon="-122.229165985" visible="true"><tag k="addr:housenumber" v="18333"/><tag k="addr:postcode" v="98012"/><tag k="addr:city" v="Bothell"/><tag k="addr:street" v="Baldwin Road"/></node>
<node id="-51" lat="47.831757274" lon="-122.237036756" visible="true"><tag k="addr:housenumber" v="302"/><tag k="addr:postcode" v="98012"/><tag k="addr:city" v="Bothell"/><tag k="addr:street" v="183rd Street Southwest"/></node>
<node id="-52" lat="47.834029155" lon="-122.228623548" visible="true"><tag k="addr:housenumber" v="18029"/><tag k="addr:postcode" v="98012"/><tag k="addr:city" v="Bothell"/><tag k="addr:street" v="Baldwin Road"/></node>
<node id="-53" lat="47.836171755" lon="-122.236102868" visible="true"><tag k="addr:housenumber" v="207"/><tag k="addr:postcode" v="98012"/><tag k="addr:city" v="Bothell"/><tag k="addr:street" v="Bellflower Road"/></node>
<node id="-54" lat="47.829083567" lon="-122.237343572" visible="true"><tag k="addr:housenumber" v="18611"/><tag k="addr:postcode" v="98012"/><tag k="addr:city" v="Bothell"/><tag k="addr:street" v="North Road"/></node>
<node id="-55" lat="47.830779707" lon="-122.229432897" visible="true"><tag k="addr:housenumber" v="18403"/><tag k="addr:postcode" v="98012"/><tag k="addr:city" v="Bothell"/><tag k="addr:street" v="Baldwin Road"/></node>
<node id="-56" lat="47.83438384" lon="-122.227925547" visible="true"><tag k="addr:housenumber" v="18019"/><tag k="addr:postcode" v="98012"/><tag k="addr:city" v="Bothell"/><tag k="addr:street" v="Baldwin Road"/></node>
<node id="-57" lat="47.831584381" lon="-122.229102347" visible="true"><tag k="addr:housenumber" v="18317"/><tag k="addr:postcode" v="98012"/><tag k="addr:city" v="Bothell"/><tag k="addr:street" v="Baldwin Road"/></node>
<node id="-58" lat="47.831749689" lon="-122.236724134" visible="true"><tag k="addr:housenumber" v="224"/><tag k="addr:postcode" v="98012"/><tag k="addr:city" v="Bothell"/><tag k="addr:street" v="183rd Street Southwest"/></node>
<node id="-59" lat="47.830841785" lon="-122.231139708" visible="true"><tag k="addr:housenumber" v="18414"/><tag k="addr:postcode" v="98012"/><tag k="addr:city" v="Bothell"/><tag k="addr:street" v="Baldwin Road"/></node>
<node id="-60" lat="47.834134729" lon="-122.235455532" visible="true"><tag k="addr:housenumber" v="125"/><tag k="addr:postcode" v="98012"/><tag k="addr:city" v="Bothell"/><tag k="addr:street" v="181st Street Southwest"/></node>
<node id="-61" lat="47.836685448" lon="-122.235197663" visible="true"><tag k="addr:housenumber" v="117"/><tag k="addr:postcode" v="98012"/><tag k="addr:city" v="Bothell"/><tag k="addr:street" v="Bellflower Road"/></node>
<node id="-62" lat="47.834054845" lon="-122.227922799" visible="true"><tag k="addr:housenumber" v="18025"/><tag k="addr:postcode" v="98012"/><tag k="addr:city" v="Bothell"/><tag k="addr:street" v="Baldwin Road"/></node>
<node id="-63" lat="47.831753529" lon="-122.236299726" visible="true"><tag k="addr:housenumber" v="216"/><tag k="addr:postcode" v="98012"/><tag k="addr:city" v="Bothell"/><tag k="addr:street" v="183rd Street Southwest"/></node>
<node id="-64" lat="47.836716579" lon="-122.23662555" visible="true"><tag k="addr:housenumber" v="17733"/><tag k="addr:postcode" v="98012"/><tag k="addr:city" v="Bothell"/><tag k="addr:street" v="North Road"/></node>
<node id="-65" lat="47.834062889" lon="-122.229896124" visible="true"><tag k="addr:housenumber" v="18020"/><tag k="addr:postcode" v="98012"/><tag k="addr:city" v="Bothell"/><tag k="addr:street" v="Baldwin Road"/></node>
<node id="-66" lat="47.836146333" lon="-122.235151358" visible="true"><tag k="addr:housenumber" v="113"/><tag k="addr:postcode" v="98012"/><tag k="addr:city" v="Bothell"/><tag k="addr:street" v="Bellflower Road"/></node>
<node id="-67" lat="47.831788901" lon="-122.230316237" visible="true"><tag k="addr:housenumber" v="18304"/><tag k="addr:postcode" v="98012"/><tag k="addr:city" v="Bothell"/><tag k="addr:street" v="Baldwin Road"/></node>
<node id="-68" lat="47.830890195" lon="-122.231845637" visible="true"><tag k="addr:housenumber" v="18405"/><tag k="addr:postcode" v="98012"/><tag k="addr:city" v="Bothell"/><tag k="addr:street" v="Bellflower Road"/></node>
<node id="-69" lat="47.833787662" lon="-122.236087513" visible="true"><tag k="addr:housenumber" v="208"/><tag k="addr:postcode" v="98012"/><tag k="addr:city" v="Bothell"/><tag k="addr:street" v="181st Street Southwest"/></node>
<node id="-70" lat="47.836779944" lon="-122.230408013" visible="true"><tag k="addr:housenumber" v="17730"/><tag k="addr:postcode" v="98012"/><tag k="addr:city" v="Bothell"/><tag k="addr:street" v="Clover Road"/></node>
<node id="-71" lat="47.836185326" lon="-122.234766553" visible="true"><tag k="addr:housenumber" v="109"/><tag k="addr:postcode" v="98012"/><tag k="addr:city" v="Bothell"/><tag k="addr:street" v="Bellflower Road"/></node>
<node id="-72" lat="47.83670214" lon="-122.228713498" visible="true"><tag k="addr:housenumber" v="17727"/><tag k="addr:postcode" v="98012"/><tag k="addr:city" v="Bothell"/><tag k="addr:street" v="Clover Road"/></node>
<node id="-73" lat="47.835390994" lon="-122.235864185" visible="true"><tag k="addr:housenumber" v="17913"/><tag k="addr:postcode" v="98012"/><tag k="addr:city" v="Bothell"/><tag k="addr:street" v="North Road"/></node>
<node id="-74" lat="47.829194032" lon="-122.236905582" visible="true"><tag k="addr:housenumber" v="18609"/><tag k="addr:postcode" v="98012"/><tag k="addr:city" v="Bothell"/><tag k="addr:street" v="North Road"/></node>
<node id="-75" lat="47.834789149" lon="-122.235202689" visible="true"><tag k="addr:housenumber" v="18001"/><tag k="addr:postcode" v="98012"/><tag k="addr:city" v="Bothell"/><tag k="addr:street" v="North Road"/></node>
<node id="-76" lat="47.833925024" lon="-122.229572625" visible="true"><tag k="addr:housenumber" v="18024"/><tag k="addr:postcode" v="98012"/><tag k="addr:city" v="Bothell"/><tag k="addr:street" v="Baldwin Road"/></node>
<node id="-77" lat="47.830024264" lon="-122.236351987" visible="true"><tag k="addr:housenumber" v="226"/><tag k="addr:postcode" v="98012"/><tag k="addr:city" v="Bothell"/><tag k="addr:street" v="185th Place Southwest"/></node>
<node id="-78" lat="47.834326644" lon="-122.230195304" visible="true"><tag k="addr:housenumber" v="18012"/><tag k="addr:postcode" v="98012"/><tag k="addr:city" v="Bothell"/><tag k="addr:street" v="Baldwin Road"/></node>
<node id="-79" lat="47.836422546" lon="-122.230034542" visible="true"><tag k="addr:housenumber" v="17816"/><tag k="addr:postcode" v="98012"/><tag k="addr:city" v="Bothell"/><tag k="addr:street" v="Clover Road"/></node>
<node id="-80" lat="47.831125322" lon="-122.230655663" visible="true"><tag k="addr:housenumber" v="18410"/><tag k="addr:postcode" v="98012"/><tag k="addr:city" v="Bothell"/><tag k="addr:street" v="Baldwin Road"/></node>
<node id="-81" lat="47.829245376" lon="-122.236532645" visible="true"><tag k="addr:housenumber" v="18607"/><tag k="addr:postcode" v="98012"/><tag k="addr:city" v="Bothell"/><tag k="addr:street" v="North Road"/></node>
<node id="-82" lat="47.831879943" lon="-122.230494808" visible="true"><tag k="addr:housenumber" v="18302"/><tag k="addr:postcode" v="98012"/><tag k="addr:city" v="Bothell"/><tag k="addr:street" v="Baldwin Road"/></node>
<node id="-83" lat="47.831987346" lon="-122.229110148" visible="true"><tag k="addr:housenumber" v="18305"/><tag k="addr:postcode" v="98012"/><tag k="addr:city" v="Bothell"/><tag k="addr:street" v="Baldwin Road"/></node>
<node id="-84" lat="47.835706976" lon="-122.23564265" visible="true"><tag k="addr:housenumber" v="130"/><tag k="addr:postcode" v="98012"/><tag k="addr:city" v="Bothell"/><tag k="addr:street" v="Bellflower Road"/></node>
<node id="-85" lat="47.832179084" lon="-122.235509501" visible="true"><tag k="addr:housenumber" v="129"/><tag k="addr:postcode" v="98012"/><tag k="addr:city" v="Bothell"/><tag k="addr:street" v="183rd Street Southwest"/></node>
<node id="-86" lat="47.837151073" lon="-122.236605172" visible="true"><tag k="addr:housenumber" v="17627"/><tag k="addr:postcode" v="98012"/><tag k="addr:city" v="Bothell"/><tag k="addr:street" v="North Road"/></node>
<node id="-87" lat="47.835713638" lon="-122.234764218" visible="true"><tag k="addr:housenumber" v="112"/><tag k="addr:postcode" v="98012"/><tag k="addr:city" v="Bothell"/><tag k="addr:street" v="Bellflower Road"/></node>
<node id="-88" lat="47.832407169" lon="-122.236752576" visible="true"><tag k="addr:housenumber" v="18228"/><tag k="addr:postcode" v="98012"/><tag k="addr:city" v="Bothell"/><tag k="addr:street" v="2nd Place West"/></node>
<node id="-89" lat="47.837247113" lon="-122.235429807" visible="true"><tag k="addr:housenumber" v="17721"/><tag k="addr:postcode" v="98012"/><tag k="addr:city" v="Bothell"/><tag k="addr:street" v="North Road"/></node>
<node id="-90" lat="47.835710151" lon="-122.235216156" visible="true"><tag k="addr:housenumber" v="122"/><tag k="addr:postcode" v="98012"/><tag k="addr:city" v="Bothell"/><tag k="addr:street" v="Bellflower Road"/></node>
<node id="-91" lat="47.831019028" lon="-122.230322966" visible="true"><tag k="addr:housenumber" v="18406"/><tag k="addr:postcode" v="98012"/><tag k="addr:city" v="Bothell"/><tag k="addr:street" v="Baldwin Road"/></node>
<node id="-92" lat="47.837417631" lon="-122.229552351" visible="true"><tag k="addr:housenumber" v="17625"/><tag k="addr:postcode" v="98012"/><tag k="addr:city" v="Bothell"/><tag k="addr:street" v="Clover Road"/></node>
<node id="-93" lat="47.832430803" lon="-122.228328036" visible="true"><tag k="addr:housenumber" v="18217"/><tag k="addr:postcode" v="98012"/><tag k="addr:city" v="Bothell"/><tag k="addr:street" v="Baldwin Road"/></node>
<node id="-94" lat="47.837115684" lon="-122.236056307" visible="true"><tag k="addr:housenumber" v="17719"/><tag k="addr:postcode" v="98012"/><tag k="addr:city" v="Bothell"/><tag k="addr:street" v="North Road"/></node>
<node id="-95" lat="47.838819582" lon="-122.230448488" visible="true"><tag k="addr:housenumber" v="17517"/><tag k="addr:postcode" v="98012"/><tag k="addr:city" v="Bothell"/><tag k="addr:street" v="Clover Road"/></node>
<node id="-96" lat="47.838505005" lon="-122.231528861" visible="true"><tag k="addr:housenumber" v="17530"/><tag k="addr:postcode" v="98012"/><tag k="addr:city" v="Bothell"/><tag k="addr:street" v="Clover Road"/></node>
<node id="-97" lat="47.8325851" lon="-122.23599489" visible="true"><tag k="addr:housenumber" v="212"/><tag k="addr:postcode" v="98012"/><tag k="addr:city" v="Bothell"/><tag k="addr:street" v="182nd Place Southwest"/></node>
<node id="-98" lat="47.832186384" lon="-122.235082129" visible="true"><tag k="addr:housenumber" v="117"/><tag k="addr:postcode" v="98012"/><tag k="addr:city" v="Bothell"/><tag k="addr:street" v="183rd Street Southwest"/></node>
<node id="-99" lat="47.835705813" lon="-122.236184244" visible="true"><tag k="addr:housenumber" v="206"/><tag k="addr:postcode" v="98012"/><tag k="addr:city" v="Bothell"/><tag k="addr:street" v="Bellflower Road"/></node>
<node id="-100" lat="47.832067302" lon="-122.236946747" visible="true"><tag k="addr:housenumber" v="231"/><tag k="addr:postcode" v="98012"/><tag k="addr:city" v="Bothell"/><tag k="addr:street" v="183rd Street Southwest"/></node>
<node id="-101" lat="47.832505063" lon="-122.235590603" visible="true"><tag k="addr:housenumber" v="128"/><tag k="addr:postcode" v="98012"/><tag k="addr:city" v="Bothell"/><tag k="addr:street" v="182nd Place Southwest"/></node>
<node id="-102" lat="47.831595944" lon="-122.228533191" visible="true"><tag k="addr:housenumber" v="18313"/><tag k="addr:postcode" v="98012"/><tag k="addr:city" v="Bothell"/><tag k="addr:street" v="Baldwin Road"/></node>
<node id="-103" lat="47.83179642" lon="-122.228466882" visible="true"><tag k="addr:housenumber" v="18309"/><tag k="addr:postcode" v="98012"/><tag k="addr:city" v="Bothell"/><tag k="addr:street" v="Baldwin Road"/></node>
<node id="-104" lat="47.829223334" lon="-122.231384969" visible="true"><tag k="addr:housenumber" v="18429"/><tag k="addr:postcode" v="98012"/><tag k="addr:city" v="Bothell"/><tag k="addr:street" v="Baldwin Road"/></node>
<node id="-105" lat="47.838419447" lon="-122.229674162" visible="true"><tag k="addr:housenumber" v="17533"/><tag k="addr:postcode" v="98012"/><tag k="addr:city" v="Bothell"/><tag k="addr:street" v="Clover Road"/></node>
<node id="-106" lat="47.83192836" lon="-122.229898539" visible="true"><tag k="addr:housenumber" v="18306"/><tag k="addr:postcode" v="98012"/><tag k="addr:city" v="Bothell"/><tag k="addr:street" v="Baldwin Road"/></node>
<node id="-107" lat="47.832429187" lon="-122.233206284" visible="true"><tag k="addr:housenumber" v="18220"/><tag k="addr:postcode" v="98012"/><tag k="addr:city" v="Bothell"/><tag k="addr:street" v="Bellflower Road"/></node>
<node id="-108" lat="47.832764411" lon="-122.231334703" visible="true"><tag k="addr:housenumber" v="18207"/><tag k="addr:postcode" v="98012"/><tag k="addr:city" v="Bothell"/><tag k="addr:street" v="Bellflower Road"/></node>
<node id="-109" lat="47.833366302" lon="-122.232986254" visible="true"><tag k="addr:housenumber" v="18120"/><tag k="addr:postcode" v="98012"/><tag k="addr:city" v="Bothell"/><tag k="addr:street" v="Bellflower Road"/></node>
<node id="-110" lat="47.832994968" lon="-122.231315473" visible="true"><tag k="addr:housenumber" v="18203"/><tag k="addr:postcode" v="98012"/><tag k="addr:city" v="Bothell"/><tag k="addr:street" v="Bellflower Road"/></node>
<node id="-111" lat="47.832245782" lon="-122.231396123" visible="true"><tag k="addr:housenumber" v="18225"/><tag k="addr:postcode" v="98012"/><tag k="addr:city" v="Bothell"/><tag k="addr:street" v="Bellflower Road"/></node>
<node id="-112" lat="47.833029301" lon="-122.232107152" visible="true"><tag k="addr:housenumber" v="18202"/><tag k="addr:postcode" v="98012"/><tag k="addr:city" v="Bothell"/><tag k="addr:street" v="Bellflower Road"/></node>
<node id="-113" lat="47.832520194" lon="-122.231378077" visible="true"><tag k="addr:housenumber" v="18217"/><tag k="addr:postcode" v="98012"/><tag k="addr:city" v="Bothell"/><tag k="addr:street" v="Bellflower Road"/></node>
<node id="-114" lat="47.835339229" lon="-122.234705647" visible="true"><tag k="addr:housenumber" v="17922"/><tag k="addr:postcode" v="98012"/><tag k="addr:city" v="Bothell"/><tag k="addr:street" v="Bellflower Road"/></node>
<node id="-115" lat="47.835276243" lon="-122.232277884" visible="true"><tag k="addr:housenumber" v="17921"/><tag k="addr:postcode" v="98012"/><tag k="addr:city" v="Bothell"/><tag k="addr:street" v="Bellflower Road"/></node>
<node id="-116" lat="47.835094194" lon="-122.231622593" visible="true"><tag k="addr:housenumber" v="17933"/><tag k="addr:postcode" v="98012"/><tag k="addr:city" v="Bothell"/><tag k="addr:street" v="Bellflower Road"/></node>
<node id="-117" lat="47.835893293" lon="-122.233371977" visible="true"><tag k="addr:housenumber" v="17917"/><tag k="addr:postcode" v="98012"/><tag k="addr:city" v="Bothell"/><tag k="addr:street" v="Bellflower Road"/></node>
<node id="-118" lat="47.835685697" lon="-122.232756001" visible="true"><tag k="addr:housenumber" v="17919"/><tag k="addr:postcode" v="98012"/><tag k="addr:city" v="Bothell"/><tag k="addr:street" v="Bellflower Road"/></node>
<node id="-119" lat="47.834311103" lon="-122.231347238" visible="true"><tag k="addr:housenumber" v="18025"/><tag k="addr:postcode" v="98012"/><tag k="addr:city" v="Bothell"/><tag k="addr:street" v="Bellflower Road"/></node>
<node id="-120" lat="47.834642855" lon="-122.235878658" visible="true"><tag k="addr:housenumber" v="18005"/><tag k="addr:postcode" v="98012"/><tag k="addr:city" v="Bothell"/><tag k="addr:street" v="North Road"/></node>
<node id="-121" lat="47.834696495" lon="-122.23169908" visible="true"><tag k="addr:housenumber" v="18009"/><tag k="addr:postcode" v="98012"/><tag k="addr:city" v="Bothell"/><tag k="addr:street" v="Bellflower Road"/></node>
<node id="-122" lat="47.830959902" lon="-122.23737771" visible="true"><tag k="addr:housenumber" v="18413"/><tag k="addr:postcode" v="98012"/><tag k="addr:city" v="Bothell"/><tag k="addr:street" v="North Road"/></node>
<node id="-123" lat="47.830438732" lon="-122.237094577" visible="true"><tag k="addr:housenumber" v="231"/><tag k="addr:postcode" v="98012"/><tag k="addr:city" v="Bothell"/><tag k="addr:street" v="South Bellflower Road"/></node>
<node id="-124" lat="47.830272919" lon="-122.237595514" visible="true"><tag k="addr:housenumber" v="18431"/><tag k="addr:postcode" v="98012"/><tag k="addr:unit" v="B"/><tag k="addr:city" v="Bothell"/><tag k="addr:street" v="North Road"/></node>
<node id="-125" lat="47.8303921" lon="-122.237705209" visible="true"><tag k="addr:housenumber" v="18431"/><tag k="addr:postcode" v="98012"/><tag k="addr:city" v="Bothell"/><tag k="addr:street" v="North Road"/></node>
<node id="-126" lat="47.830739471" lon="-122.237507384" visible="true"><tag k="addr:housenumber" v="18423"/><tag k="addr:postcode" v="98012"/><tag k="addr:city" v="Bothell"/><tag k="addr:street" v="North Road"/></node>
<node id="-127" lat="47.830402464" lon="-122.237559154" visible="true"><tag k="addr:housenumber" v="18431"/><tag k="addr:postcode" v="98012"/><tag k="addr:unit" v="A"/><tag k="addr:city" v="Bothell"/><tag k="addr:street" v="North Road"/></node>
<node id="-128" lat="47.836493218" lon="-122.235704185" visible="true"><tag k="addr:housenumber" v="129"/><tag k="addr:postcode" v="98012"/><tag k="addr:city" v="Bothell"/><tag k="addr:street" v="Bellflower Road"/></node>
<node id="-129" lat="47.833405225" lon="-122.234903238" visible="true"><tag k="addr:housenumber" v="121"/><tag k="addr:postcode" v="98012"/><tag k="addr:city" v="Bothell"/><tag k="addr:street" v="182nd Street Southwest"/></node>
<node id="-130" lat="47.833714869" lon="-122.233365421" visible="true"><tag k="addr:housenumber" v="18118"/><tag k="addr:postcode" v="98012"/><tag k="addr:city" v="Bothell"/><tag k="addr:street" v="Bellflower Road"/></node>
<node id="-131" lat="47.831740527" lon="-122.235958141" visible="true"><tag k="addr:housenumber" v="204"/><tag k="addr:postcode" v="98012"/><tag k="addr:unit" v="B"/><tag k="addr:city" v="Bothell"/><tag k="addr:street" v="183rd Street Southwest"/></node>
<node id="-132" lat="47.83173606" lon="-122.235435721" visible="true"><tag k="addr:housenumber" v="128"/><tag k="addr:postcode" v="98012"/><tag k="addr:city" v="Bothell"/><tag k="addr:street" v="183rd Street Southwest"/></node>
<node id="-133" lat="47.83337799" lon="-122.23581942" visible="true"><tag k="addr:housenumber" v="201"/><tag k="addr:postcode" v="98012"/><tag k="addr:city" v="Bothell"/><tag k="addr:street" v="182nd Street Southwest"/></node>
<node id="-134" lat="47.833402738" lon="-122.234584296" visible="true"><tag k="addr:housenumber" v="109"/><tag k="addr:postcode" v="98012"/><tag k="addr:city" v="Bothell"/><tag k="addr:street" v="182nd Street Southwest"/></node>
<node id="-135" lat="47.834199538" lon="-122.232286478" visible="true"><tag k="addr:housenumber" v="18024"/><tag k="addr:postcode" v="98012"/><tag k="addr:city" v="Bothell"/><tag k="addr:street" v="Bellflower Road"/></node>
<node id="-136" lat="47.832851046" lon="-122.233791824" visible="true"><tag k="addr:housenumber" v="18204"/><tag k="addr:postcode" v="98012"/><tag k="addr:city" v="Bothell"/><tag k="addr:street" v="Bellflower Road"/></node>
<node id="-137" lat="47.832171944" lon="-122.235805891" visible="true"><tag k="addr:housenumber" v="205"/><tag k="addr:postcode" v="98012"/><tag k="addr:unit" v="B"/><tag k="addr:city" v="Bothell"/><tag k="addr:street" v="183rd Street Southwest"/></node>
<node id="-138" lat="47.834081014" lon="-122.231273026" visible="true"><tag k="addr:housenumber" v="18105"/><tag k="addr:postcode" v="98012"/><tag k="addr:city" v="Bothell"/><tag k="addr:street" v="Bellflower Road"/></node>
<node id="-139" lat="47.832533092" lon="-122.230296604" visible="true"><tag k="addr:housenumber" v="18218"/><tag k="addr:postcode" v="98012"/><tag k="addr:city" v="Bothell"/><tag k="addr:street" v="Baldwin Road"/></node>
<node id="-140" lat="47.831822991" lon="-122.235852893" visible="true"><tag k="addr:housenumber" v="204"/><tag k="addr:postcode" v="98012"/><tag k="addr:city" v="Bothell"/><tag k="addr:street" v="183rd Street Southwest"/></node>
<node id="-141" lat="47.835170132" lon="-122.236365549" visible="true"><tag k="addr:housenumber" v="17927"/><tag k="addr:postcode" v="98012"/><tag k="addr:city" v="Bothell"/><tag k="addr:street" v="North Road"/></node>
<node id="-142" lat="47.835150834" lon="-122.236020464" visible="true"><tag k="addr:housenumber" v="17929"/><tag k="addr:postcode" v="98012"/><tag k="addr:city" v="Bothell"/><tag k="addr:street" v="North Road"/></node>
<node id="-143" lat="47.832146627" lon="-122.236292385" visible="true"><tag k="addr:housenumber" v="18231"/><tag k="addr:postcode" v="98012"/><tag k="addr:unit" v="B"/><tag k="addr:city" v="Bothell"/><tag k="addr:street" v="2nd Place West"/></node>
<node id="-144" lat="47.832848404" lon="-122.236596323" visible="true"><tag k="addr:housenumber" v="18208"/><tag k="addr:postcode" v="98012"/><tag k="addr:city" v="Bothell"/><tag k="addr:street" v="2nd Place West"/></node>
<node id="-145" lat="47.832857317" lon="-122.230195903" visible="true"><tag k="addr:housenumber" v="18201"/><tag k="addr:postcode" v="98012"/><tag k="addr:city" v="Bothell"/><tag k="addr:street" v="Bellflower Road"/></node>
<node id="-146" lat="47.832258655" lon="-122.230316691" visible="true"><tag k="addr:housenumber" v="18226"/><tag k="addr:postcode" v="98012"/><tag k="addr:city" v="Bothell"/><tag k="addr:street" v="Baldwin Road"/></node>
<node id="-147" lat="47.832222645" lon="-122.236397377" visible="true"><tag k="addr:housenumber" v="18231"/><tag k="addr:postcode" v="98012"/><tag k="addr:city" v="Bothell"/><tag k="addr:street" v="2nd Place West"/></node>
<node id="-148" lat="47.833394616" lon="-122.234234096" visible="true"><tag k="addr:housenumber" v="103"/><tag k="addr:postcode" v="98012"/><tag k="addr:city" v="Bothell"/><tag k="addr:street" v="182nd Street Southwest"/></node>
<node id="-149" lat="47.83377295" lon="-122.232858192" visible="true"><tag k="addr:housenumber" v="18112"/><tag k="addr:postcode" v="98012"/><tag k="addr:city" v="Bothell"/><tag k="addr:street" v="Bellflower Road"/></node>
<node id="-150" lat="47.831743137" lon="-122.235745448" visible="true"><tag k="addr:housenumber" v="204"/><tag k="addr:postcode" v="98012"/><tag k="addr:unit" v="A"/><tag k="addr:city" v="Bothell"/><tag k="addr:street" v="183rd Street Southwest"/></node>
<node id="-151" lat="47.831736415" lon="-122.234600087" visible="true"><tag k="addr:housenumber" v="108"/><tag k="addr:postcode" v="98012"/><tag k="addr:city" v="Bothell"/><tag k="addr:street" v="183rd Street Southwest"/></node>
<node id="-152" lat="47.835090604" lon="-122.235597122" visible="true"><tag k="addr:housenumber" v="17931"/><tag k="addr:postcode" v="98012"/><tag k="addr:city" v="Bothell"/><tag k="addr:street" v="North Road"/></node>
<node id="-153" lat="47.831808243" lon="-122.232881134" visible="true"><tag k="addr:housenumber" v="18320"/><tag k="addr:postcode" v="98012"/><tag k="addr:city" v="Bothell"/><tag k="addr:street" v="Bellflower Road"/></node>
<node id="-154" lat="47.831660944" lon="-122.233397019" visible="true"><tag k="addr:housenumber" v="18322"/><tag k="addr:postcode" v="98012"/><tag k="addr:city" v="Bothell"/><tag k="addr:street" v="Bellflower Road"/></node>
<node id="-155" lat="47.832127741" lon="-122.234678169" visible="true"><tag k="addr:housenumber" v="107"/><tag k="addr:postcode" v="98012"/><tag k="addr:city" v="Bothell"/><tag k="addr:street" v="183rd Street Southwest"/></node>
<node id="-156" lat="47.831851226" lon="-122.23441582" visible="true"><tag k="addr:housenumber" v="102"/><tag k="addr:postcode" v="98012"/><tag k="addr:city" v="Bothell"/><tag k="addr:street" v="183rd Street Southwest"/></node>
<node id="-157" lat="47.832658301" lon="-122.236552717" visible="true"><tag k="addr:housenumber" v="18216"/><tag k="addr:postcode" v="98012"/><tag k="addr:city" v="Bothell"/><tag k="addr:street" v="2nd Place West"/></node>
<node id="-158" lat="47.833560687" lon="-122.236516074" visible="true"><tag k="addr:housenumber" v="18121"/><tag k="addr:postcode" v="98012"/><tag k="addr:city" v="Bothell"/><tag k="addr:street" v="North Road"/></node>
<node id="-159" lat="47.833767705" lon="-122.231295453" visible="true"><tag k="addr:housenumber" v="18113"/><tag k="addr:postcode" v="98012"/><tag k="addr:city" v="Bothell"/><tag k="addr:street" v="Bellflower Road"/></node>
<node id="-160" lat="47.832025993" lon="-122.232125539" visible="true"><tag k="addr:housenumber" v="18316"/><tag k="addr:postcode" v="98012"/><tag k="addr:city" v="Bothell"/><tag k="addr:street" v="Bellflower Road"/></node>
<node id="-161" lat="47.832016392" lon="-122.235873202" visible="true"><tag k="addr:housenumber" v="205"/><tag k="addr:postcode" v="98012"/><tag k="addr:city" v="Bothell"/><tag k="addr:street" v="183rd Street Southwest"/></node>
<node id="-162" lat="47.833419723" lon="-122.235261191" visible="true"><tag k="addr:housenumber" v="125"/><tag k="addr:postcode" v="98012"/><tag k="addr:city" v="Bothell"/><tag k="addr:street" v="182nd Street Southwest"/></node>
<node id="-163" lat="47.831731722" lon="-122.23500702" visible="true"><tag k="addr:housenumber" v="116"/><tag k="addr:postcode" v="98012"/><tag k="addr:city" v="Bothell"/><tag k="addr:street" v="183rd Street Southwest"/></node>
<node id="-164" lat="47.832053607" lon="-122.234498634" visible="true"><tag k="addr:housenumber" v="103"/><tag k="addr:postcode" v="98012"/><tag k="addr:city" v="Bothell"/><tag k="addr:street" v="183rd Street Southwest"/></node>
<node id="-165" lat="47.829336953" lon="-122.233464863" visible="true"><tag k="addr:housenumber" v="14"/><tag k="addr:postcode" v="98012"/><tag k="addr:city" v="Bothell"/><tag k="addr:street" v="South Bellflower Road"/></node>
<node id="-166" lat="47.829533284" lon="-122.233750903" visible="true"><tag k="addr:housenumber" v="16"/><tag k="addr:postcode" v="98012"/><tag k="addr:city" v="Bothell"/><tag k="addr:street" v="South Bellflower Road"/></node>
<node id="-167" lat="47.832612007" lon="-122.236718522" visible="true"><tag k="addr:housenumber" v="18216"/><tag k="addr:postcode" v="98012"/><tag k="addr:unit" v="A"/><tag k="addr:city" v="Bothell"/><tag k="addr:street" v="2nd Place West"/></node>
<node id="-168" lat="47.829362432" lon="-122.234462027" visible="true"><tag k="addr:housenumber" v="113"/><tag k="addr:postcode" v="98012"/><tag k="addr:city" v="Bothell"/><tag k="addr:street" v="185th Place Southwest"/></node>
<node id="-169" lat="47.829771227" lon="-122.234888754" visible="true"><tag k="addr:housenumber" v="122"/><tag k="addr:postcode" v="98012"/><tag k="addr:city" v="Bothell"/><tag k="addr:street" v="185th Place Southwest"/></node>
<node id="-170" lat="47.829897697" lon="-122.235028583" visible="true"><tag k="addr:housenumber" v="126"/><tag k="addr:postcode" v="98012"/><tag k="addr:city" v="Bothell"/><tag k="addr:street" v="185th Place Southwest"/></node>
<node id="-171" lat="47.834083812" lon="-122.23412966" visible="true"><tag k="addr:housenumber" v="101"/><tag k="addr:postcode" v="98012"/><tag k="addr:city" v="Bothell"/><tag k="addr:street" v="181st Street Southwest"/></node>
<node id="-172" lat="47.829692773" lon="-122.234466888" visible="true"><tag k="addr:housenumber" v="121"/><tag k="addr:postcode" v="98012"/><tag k="addr:city" v="Bothell"/><tag k="addr:street" v="185th Place Southwest"/></node>
<node id="-173" lat="47.835409417" lon="-122.233579084" visible="true"><tag k="addr:housenumber" v="17920"/><tag k="addr:postcode" v="98012"/><tag k="addr:city" v="Bothell"/><tag k="addr:street" v="Bellflower Road"/></node>
<node id="-174" lat="47.829195452" lon="-122.234923965" visible="true"><tag k="addr:housenumber" v="106"/><tag k="addr:postcode" v="98012"/><tag k="addr:city" v="Bothell"/><tag k="addr:street" v="185th Place Southwest"/></node>
<node id="-175" lat="47.829599044" lon="-122.234843377" visible="true"><tag k="addr:housenumber" v="118"/><tag k="addr:postcode" v="98012"/><tag k="addr:city" v="Bothell"/><tag k="addr:street" v="185th Place Southwest"/></node>
<node id="-176" lat="47.834125247" lon="-122.234328283" visible="true"><tag k="addr:housenumber" v="107"/><tag k="addr:postcode" v="98012"/><tag k="addr:city" v="Bothell"/><tag k="addr:street" v="181st Street Southwest"/></node>
<node id="-177" lat="47.829528288" lon="-122.234464476" visible="true"><tag k="addr:housenumber" v="117"/><tag k="addr:postcode" v="98012"/><tag k="addr:city" v="Bothell"/><tag k="addr:street" v="185th Place Southwest"/></node>
<node id="-178" lat="47.833851487" lon="-122.234125414" visible="true"><tag k="addr:housenumber" v="102"/><tag k="addr:postcode" v="98012"/><tag k="addr:city" v="Bothell"/><tag k="addr:street" v="181st Street Southwest"/></node>
<node id="-179" lat="47.829237546" lon="-122.234466341" visible="true"><tag k="addr:housenumber" v="109"/><tag k="addr:postcode" v="98012"/><tag k="addr:city" v="Bothell"/><tag k="addr:street" v="185th Place Southwest"/></node>
<node id="-180" lat="47.835628077" lon="-122.234306819" visible="true"><tag k="addr:housenumber" v="102"/><tag k="addr:postcode" v="98012"/><tag k="addr:city" v="Bothell"/><tag k="addr:street" v="Bellflower Road"/></node>
<node id="-181" lat="47.829859725" lon="-122.234491762" visible="true"><tag k="addr:housenumber" v="125"/><tag k="addr:postcode" v="98012"/><tag k="addr:city" v="Bothell"/><tag k="addr:street" v="185th Place Southwest"/></node>
<node id="-182" lat="47.8338045" lon="-122.234323682" visible="true"><tag k="addr:housenumber" v="108"/><tag k="addr:postcode" v="98012"/><tag k="addr:city" v="Bothell"/><tag k="addr:street" v="181st Street Southwest"/></node>
<node id="-183" lat="47.829098033" lon="-122.234508263" visible="true"><tag k="addr:housenumber" v="105"/><tag k="addr:postcode" v="98012"/><tag k="addr:city" v="Bothell"/><tag k="addr:street" v="185th Place Southwest"/></node>
<node id="-184" lat="47.830018403" lon="-122.234520484" visible="true"><tag k="addr:housenumber" v="129"/><tag k="addr:postcode" v="98012"/><tag k="addr:city" v="Bothell"/><tag k="addr:street" v="185th Place Southwest"/></node>
<node id="-185" lat="47.834642181" lon="-122.233275354" visible="true"><tag k="addr:housenumber" v="18008"/><tag k="addr:postcode" v="98012"/><tag k="addr:city" v="Bothell"/><tag k="addr:street" v="Bellflower Road"/></node>
<node id="-186" lat="47.829488185" lon="-122.235113646" visible="true"><tag k="addr:housenumber" v="114"/><tag k="addr:postcode" v="98012"/><tag k="addr:city" v="Bothell"/><tag k="addr:street" v="185th Place Southwest"/></node>
<node id="-187" lat="47.834446054" lon="-122.233689524" visible="true"><tag k="addr:housenumber" v="18016"/><tag k="addr:postcode" v="98012"/><tag k="addr:city" v="Bothell"/><tag k="addr:street" v="Bellflower Road"/></node>
<node id="-188" lat="47.829359932" lon="-122.236211424" visible="true"><tag k="addr:housenumber" v="18605"/><tag k="addr:postcode" v="98012"/><tag k="addr:city" v="Bothell"/><tag k="addr:street" v="North Road"/></node>
<node id="-189" lat="47.830191336" lon="-122.234852612" visible="true"><tag k="addr:housenumber" v="203"/><tag k="addr:postcode" v="98012"/><tag k="addr:city" v="Bothell"/><tag k="addr:street" v="185th Place Southwest"/></node>
<node id="-190" lat="47.829105997" lon="-122.234691034" visible="true"><tag k="addr:housenumber" v="101"/><tag k="addr:postcode" v="98012"/><tag k="addr:city" v="Bothell"/><tag k="addr:street" v="185th Place Southwest"/></node>
<node id="-191" lat="47.835488017" lon="-122.23398946" visible="true"><tag k="addr:housenumber" v="17916"/><tag k="addr:postcode" v="98012"/><tag k="addr:city" v="Bothell"/><tag k="addr:street" v="Bellflower Road"/></node>
<node id="-192" lat="47.832931163" lon="-122.234885892" visible="true"><tag k="addr:housenumber" v="115"/><tag k="addr:postcode" v="98012"/><tag k="addr:unit" v="B"/><tag k="addr:city" v="Bothell"/><tag k="addr:street" v="182nd Place Southwest"/></node>
<node id="-193" lat="47.832922534" lon="-122.234565537" visible="true"><tag k="addr:housenumber" v="105"/><tag k="addr:postcode" v="98012"/><tag k="addr:unit" v="B"/><tag k="addr:city" v="Bothell"/><tag k="addr:street" v="182nd Place Southwest"/></node>
<node id="-194" lat="47.832781994" lon="-122.234404624" visible="true"><tag k="addr:housenumber" v="103"/><tag k="addr:postcode" v="98012"/><tag k="addr:unit" v="B"/><tag k="addr:city" v="Bothell"/><tag k="addr:street" v="182nd Place Southwest"/></node>
<node id="-195" lat="47.832529951" lon="-122.234660572" visible="true"><tag k="addr:housenumber" v="110"/><tag k="addr:postcode" v="98012"/><tag k="addr:unit" v="A"/><tag k="addr:city" v="Bothell"/><tag k="addr:street" v="182nd Place Southwest"/></node>
<node id="-196" lat="47.832879471" lon="-122.234653546" visible="true"><tag k="addr:housenumber" v="105"/><tag k="addr:postcode" v="98012"/><tag k="addr:city" v="Bothell"/><tag k="addr:street" v="182nd Place Southwest"/></node>
<node id="-197" lat="47.832857765" lon="-122.234988645" visible="true"><tag k="addr:housenumber" v="115"/><tag k="addr:postcode" v="98012"/><tag k="addr:city" v="Bothell"/><tag k="addr:street" v="182nd Place Southwest"/></node>
<node id="-198" lat="47.832932575" lon="-122.234678358" visible="true"><tag k="addr:housenumber" v="105"/><tag k="addr:postcode" v="98012"/><tag k="addr:unit" v="A"/><tag k="addr:city" v="Bothell"/><tag k="addr:street" v="182nd Place Southwest"/></node>
<node id="-199" lat="47.832526236" lon="-122.234839193" visible="true"><tag k="addr:housenumber" v="110"/><tag k="addr:postcode" v="98012"/><tag k="addr:unit" v="B"/><tag k="addr:city" v="Bothell"/><tag k="addr:street" v="182nd Place Southwest"/></node>
<node id="-200" lat="47.832902104" lon="-122.236564975" visible="true"><tag k="addr:housenumber" v="18208"/><tag k="addr:postcode" v="98012"/><tag k="addr:unit" v="B"/><tag k="addr:city" v="Bothell"/><tag k="addr:street" v="2nd Place West"/></node>
<node id="-201" lat="47.832931879" lon="-122.235082053" visible="true"><tag k="addr:housenumber" v="115"/><tag k="addr:postcode" v="98012"/><tag k="addr:unit" v="A"/><tag k="addr:city" v="Bothell"/><tag k="addr:street" v="182nd Place Southwest"/></node>
<node id="-202" lat="47.832801331" lon="-122.234610071" visible="true"><tag k="addr:housenumber" v="103"/><tag k="addr:postcode" v="98012"/><tag k="addr:city" v="Bothell"/><tag k="addr:street" v="182nd Place Southwest"/></node>
<node id="-203" lat="47.83266517" lon="-122.234608784" visible="true"><tag k="addr:housenumber" v="102"/><tag k="addr:postcode" v="98012"/><tag k="addr:city" v="Bothell"/><tag k="addr:street" v="182nd Place Southwest"/></node>
<node id="-204" lat="47.832608545" lon="-122.234775036" visible="true"><tag k="addr:housenumber" v="110"/><tag k="addr:postcode" v="98012"/><tag k="addr:city" v="Bothell"/><tag k="addr:street" v="182nd Place Southwest"/></node>
<node id="-205" lat="47.83042763" lon="-122.235768743" visible="true"><tag k="addr:housenumber" v="215"/><tag k="addr:postcode" v="98012"/><tag k="addr:city" v="Bothell"/><tag k="addr:street" v="185th Place Southwest"/></node>
<node id="-206" lat="47.832884914" lon="-122.236662354" visible="true"><tag k="addr:housenumber" v="18208"/><tag k="addr:postcode" v="98012"/><tag k="addr:unit" v="A"/><tag k="addr:city" v="Bothell"/><tag k="addr:street" v="2nd Place West"/></node>
<node id="-207" lat="47.830678616" lon="-122.234208057" visible="true"><tag k="addr:housenumber" v="29"/><tag k="addr:postcode" v="98012"/><tag k="addr:city" v="Bothell"/><tag k="addr:street" v="South Bellflower Road"/></node>
<node id="-208" lat="47.830216775" lon="-122.234625949" visible="true"><tag k="addr:housenumber" v="133"/><tag k="addr:postcode" v="98012"/><tag k="addr:city" v="Bothell"/><tag k="addr:street" v="185th Place Southwest"/></node>
<node id="-209" lat="47.830401352" lon="-122.235172908" visible="true"><tag k="addr:housenumber" v="211"/><tag k="addr:postcode" v="98012"/><tag k="addr:city" v="Bothell"/><tag k="addr:street" v="185th Place Southwest"/></node>
<node id="-210" lat="47.830150368" lon="-122.234559965" visible="true"><tag k="addr:housenumber" v="131"/><tag k="addr:postcode" v="98012"/><tag k="addr:city" v="Bothell"/><tag k="addr:street" v="185th Place Southwest"/></node>
<node id="-211" lat="47.830652576" lon="-122.235362546" visible="true"><tag k="addr:housenumber" v="124"/><tag k="addr:postcode" v="98012"/><tag k="addr:city" v="Bothell"/><tag k="addr:street" v="South Bellflower Road"/></node>
<node id="-212" lat="47.83055297" lon="-122.233335975" visible="true"><tag k="addr:housenumber" v="7"/><tag k="addr:postcode" v="98012"/><tag k="addr:city" v="Bothell"/><tag k="addr:street" v="South Bellflower Road"/></node>
<node id="-213" lat="47.830423911" lon="-122.235857603" visible="true"><tag k="addr:housenumber" v="217"/><tag k="addr:postcode" v="98012"/><tag k="addr:city" v="Bothell"/><tag k="addr:street" v="185th Place Southwest"/></node>
<node id="-214" lat="47.830598619" lon="-122.233837268" visible="true"><tag k="addr:housenumber" v="25"/><tag k="addr:postcode" v="98012"/><tag k="addr:city" v="Bothell"/><tag k="addr:street" v="South Bellflower Road"/></node>
<node id="-215" lat="47.83196392" lon="-122.231448635" visible="true"><tag k="addr:housenumber" v="18305"/><tag k="addr:postcode" v="98012"/><tag k="addr:city" v="Bothell"/><tag k="addr:street" v="Bellflower Road"/></node>
<node id="-216" lat="47.830132218" lon="-122.23292373" visible="true"><tag k="addr:housenumber" v="4"/><tag k="addr:postcode" v="98012"/><tag k="addr:city" v="Bothell"/><tag k="addr:street" v="South Bellflower Road"/></node>
<node id="-217" lat="47.832563398" lon="-122.235193792" visible="true"><tag k="addr:housenumber" v="120"/><tag k="addr:postcode" v="98012"/><tag k="addr:city" v="Bothell"/><tag k="addr:street" v="182nd Place Southwest"/></node>
<node id="-218" lat="47.830206571" lon="-122.233870897" visible="true"><tag k="addr:housenumber" v="22"/><tag k="addr:postcode" v="98012"/><tag k="addr:city" v="Bothell"/><tag k="addr:street" v="South Bellflower Road"/></node>
<node id="-219" lat="47.830114919" lon="-122.233338503" visible="true"><tag k="addr:housenumber" v="6"/><tag k="addr:postcode" v="98012"/><tag k="addr:city" v="Bothell"/><tag k="addr:street" v="South Bellflower Road"/></node>
<node id="-220" lat="47.831072516" lon="-122.234253319" visible="true"><tag k="addr:housenumber" v="31"/><tag k="addr:postcode" v="98012"/><tag k="addr:city" v="Bothell"/><tag k="addr:street" v="South Bellflower Road"/></node>
<node id="-221" lat="47.83083929" lon="-122.234757367" visible="true"><tag k="addr:housenumber" v="107"/><tag k="addr:postcode" v="98012"/><tag k="addr:city" v="Bothell"/><tag k="addr:street" v="South Bellflower Road"/></node>
<node id="-222" lat="47.830156806" lon="-122.232418364" visible="true"><tag k="addr:housenumber" v="10"/><tag k="addr:postcode" v="98012"/><tag k="addr:city" v="Bothell"/><tag k="addr:street" v="South Bellflower Road"/></node>
<node id="-223" lat="47.831337276" lon="-122.232139803" visible="true"><tag k="addr:housenumber" v="18324"/><tag k="addr:postcode" v="98012"/><tag k="addr:city" v="Bothell"/><tag k="addr:street" v="Bellflower Road"/></node>
<node id="-224" lat="47.83113026" lon="-122.23451956" visible="true"><tag k="addr:housenumber" v="103"/><tag k="addr:postcode" v="98012"/><tag k="addr:city" v="Bothell"/><tag k="addr:street" v="South Bellflower Road"/></node>
<node id="-225" lat="47.831414386" lon="-122.231516405" visible="true"><tag k="addr:housenumber" v="18325"/><tag k="addr:postcode" v="98012"/><tag k="addr:city" v="Bothell"/><tag k="addr:street" v="Bellflower Road"/></node>
<node id="-226" lat="47.83113965" lon="-122.231560911" visible="true"><tag k="addr:housenumber" v="18333"/><tag k="addr:postcode" v="98012"/><tag k="addr:city" v="Bothell"/><tag k="addr:street" v="Bellflower Road"/></node>
<node id="-227" lat="47.831690766" lon="-122.231505539" visible="true"><tag k="addr:housenumber" v="18315"/><tag k="addr:postcode" v="98012"/><tag k="addr:city" v="Bothell"/><tag k="addr:street" v="Bellflower Road"/></node>
<node id="-228" lat="47.838620306" lon="-122.235435186" visible="true"><tag k="addr:housenumber" v="17611"/><tag k="addr:postcode" v="98012"/><tag k="addr:city" v="Bothell"/><tag k="addr:street" v="North Road"/></node>
<node id="-229" lat="47.838695637" lon="-122.235030605" visible="true"><tag k="addr:housenumber" v="17603"/><tag k="addr:postcode" v="98012"/><tag k="addr:city" v="Bothell"/><tag k="addr:street" v="North Road"/></node>
<node id="-230" lat="47.832898337" lon="-122.235345381" visible="true"><tag k="addr:housenumber" v="127"/><tag k="addr:postcode" v="98012"/><tag k="addr:city" v="Bothell"/><tag k="addr:street" v="182nd Place Southwest"/></node>
<node id="-231" lat="47.833657461" lon="-122.229069809" visible="true"><tag k="addr:housenumber" v="18103"/><tag k="addr:postcode" v="98012"/><tag k="addr:city" v="Bothell"/><tag k="addr:street" v="Baldwin Road"/></node>
<node id="-232" lat="47.833709299" lon="-122.228663582" visible="true"><tag k="addr:housenumber" v="310"/><tag k="addr:postcode" v="98012"/><tag k="addr:city" v="Bothell"/><tag k="addr:street" v="181st Street Southeast"/></node>
<node id="-233" lat="47.833183401" lon="-122.22817756" visible="true"><tag k="addr:housenumber" v="319"/><tag k="addr:postcode" v="98012"/><tag k="addr:city" v="Bothell"/><tag k="addr:street" v="182nd Street Southeast"/></node>
<node id="-234" lat="47.833173946" lon="-122.228005731" visible="true"><tag k="addr:housenumber" v="323"/><tag k="addr:postcode" v="98012"/><tag k="addr:city" v="Bothell"/><tag k="addr:street" v="182nd Street Southeast"/></node>
<node id="-235" lat="47.833699704" lon="-122.228503187" visible="true"><tag k="addr:housenumber" v="314"/><tag k="addr:postcode" v="98012"/><tag k="addr:city" v="Bothell"/><tag k="addr:street" v="181st Street Southeast"/></node>
<node id="-236" lat="47.833655755" lon="-122.228175884" visible="true"><tag k="addr:housenumber" v="320"/><tag k="addr:postcode" v="98012"/><tag k="addr:city" v="Bothell"/><tag k="addr:street" v="181st Street Southeast"/></node>
<node id="-237" lat="47.833638322" lon="-122.228026715" visible="true"><tag k="addr:housenumber" v="322"/><tag k="addr:postcode" v="98012"/><tag k="addr:city" v="Bothell"/><tag k="addr:street" v="181st Street Southeast"/></node>
<node id="-238" lat="47.833185437" lon="-122.228326312" visible="true"><tag k="addr:housenumber" v="315"/><tag k="addr:postcode" v="98012"/><tag k="addr:city" v="Bothell"/><tag k="addr:street" v="182nd Street Southeast"/></node>
<node id="-239" lat="47.832923292" lon="-122.228882806" visible="true"><tag k="addr:housenumber" v="230"/><tag k="addr:postcode" v="98012"/><tag k="addr:city" v="Bothell"/><tag k="addr:street" v="182nd Street Southeast"/></node>
<node id="-240" lat="47.83295086" lon="-122.227699865" visible="true"><tag k="addr:housenumber" v="328"/><tag k="addr:postcode" v="98012"/><tag k="addr:city" v="Bothell"/><tag k="addr:street" v="182nd Street Southeast"/></node>
<node id="-241" lat="47.833621097" lon="-122.227860396" visible="true"><tag k="addr:housenumber" v="326"/><tag k="addr:postcode" v="98012"/><tag k="addr:city" v="Bothell"/><tag k="addr:street" v="181st Street Southeast"/></node>
<node id="-242" lat="47.833162453" lon="-122.229124049" visible="true"><tag k="addr:housenumber" v="223"/><tag k="addr:postcode" v="98012"/><tag k="addr:city" v="Bothell"/><tag k="addr:street" v="182nd Street Southeast"/></node>
<node id="-243" lat="47.832954543" lon="-122.228357492" visible="true"><tag k="addr:housenumber" v="314"/><tag k="addr:postcode" v="98012"/><tag k="addr:city" v="Bothell"/><tag k="addr:street" v="182nd Street Southeast"/></node>
<node id="-244" lat="47.833600022" lon="-122.227693973" visible="true"><tag k="addr:housenumber" v="328"/><tag k="addr:postcode" v="98012"/><tag k="addr:city" v="Bothell"/><tag k="addr:street" v="181st Street Southeast"/></node>
<node id="-245" lat="47.833164343" lon="-122.228969304" visible="true"><tag k="addr:housenumber" v="227"/><tag k="addr:postcode" v="98012"/><tag k="addr:city" v="Bothell"/><tag k="addr:street" v="182nd Street Southeast"/></node>
<node id="-246" lat="47.832948601" lon="-122.228528904" visible="true"><tag k="addr:housenumber" v="310"/><tag k="addr:postcode" v="98012"/><tag k="addr:city" v="Bothell"/><tag k="addr:street" v="182nd Street Southeast"/></node>
<node id="-247" lat="47.832945158" lon="-122.228179947" visible="true"><tag k="addr:housenumber" v="318"/><tag k="addr:postcode" v="98012"/><tag k="addr:city" v="Bothell"/><tag k="addr:street" v="182nd Street Southeast"/></node>
<node id="-248" lat="47.833547233" lon="-122.229103666" visible="true"><tag k="addr:housenumber" v="18107"/><tag k="addr:postcode" v="98012"/><tag k="addr:city" v="Bothell"/><tag k="addr:street" v="Baldwin Road"/></node>
<node id="-249" lat="47.832939413" lon="-122.228019658" visible="true"><tag k="addr:housenumber" v="322"/><tag k="addr:postcode" v="98012"/><tag k="addr:city" v="Bothell"/><tag k="addr:street" v="182nd Street Southeast"/></node>
<node id="-250" lat="47.832941576" lon="-122.227842423" visible="true"><tag k="addr:housenumber" v="326"/><tag k="addr:postcode" v="98012"/><tag k="addr:city" v="Bothell"/><tag k="addr:street" v="182nd Street Southeast"/></node>
<node id="-251" lat="47.833682438" lon="-122.228326418" visible="true"><tag k="addr:housenumber" v="318"/><tag k="addr:postcode" v="98012"/><tag k="addr:city" v="Bothell"/><tag k="addr:street" v="181st Street Southeast"/></node>
<node id="-252" lat="47.833168392" lon="-122.228637704" visible="true"><tag k="addr:housenumber" v="307"/><tag k="addr:postcode" v="98012"/><tag k="addr:city" v="Bothell"/><tag k="addr:street" v="182nd Street Southeast"/></node>
<node id="-253" lat="47.832922952" lon="-122.229225943" visible="true"><tag k="addr:housenumber" v="222"/><tag k="addr:postcode" v="98012"/><tag k="addr:city" v="Bothell"/><tag k="addr:street" v="182nd Street Southeast"/></node>
<node id="-254" lat="47.833170217" lon="-122.228803607" visible="true"><tag k="addr:housenumber" v="303"/><tag k="addr:postcode" v="98012"/><tag k="addr:city" v="Bothell"/><tag k="addr:street" v="182nd Street Southeast"/></node>
<node id="-255" lat="47.833187263" lon="-122.228492216" visible="true"><tag k="addr:housenumber" v="311"/><tag k="addr:postcode" v="98012"/><tag k="addr:city" v="Bothell"/><tag k="addr:street" v="182nd Street Southeast"/></node>
<node id="-256" lat="47.832929035" lon="-122.229043097" visible="true"><tag k="addr:housenumber" v="226"/><tag k="addr:postcode" v="98012"/><tag k="addr:city" v="Bothell"/><tag k="addr:street" v="182nd Street Southeast"/></node>
<node id="-257" lat="47.832936934" lon="-122.228711602" visible="true"><tag k="addr:housenumber" v="306"/><tag k="addr:postcode" v="98012"/><tag k="addr:city" v="Bothell"/><tag k="addr:street" v="182nd Street Southeast"/></node>
<node id="-258" lat="47.8334466" lon="-122.229135016" visible="true"><tag k="addr:housenumber" v="18111"/><tag k="addr:postcode" v="98012"/><tag k="addr:city" v="Bothell"/><tag k="addr:street" v="Baldwin Road"/></node>
<node id="-259" lat="47.83317583" lon="-122.227851367" visible="true"><tag k="addr:housenumber" v="327"/><tag k="addr:postcode" v="98012"/><tag k="addr:city" v="Bothell"/><tag k="addr:street" v="182nd Street Southeast"/></node>
<node id="-260" lat="47.833177853" lon="-122.227685566" visible="true"><tag k="addr:housenumber" v="329"/><tag k="addr:postcode" v="98012"/><tag k="addr:city" v="Bothell"/><tag k="addr:street" v="182nd Street Southeast"/></node>
<node id="-261" lat="47.830979607" lon="-122.23510705" visible="true"><tag k="addr:housenumber" v="111"/><tag k="addr:postcode" v="98012"/><tag k="addr:city" v="Bothell"/><tag k="addr:street" v="184th Place Southwest"/></node>
<node id="-262" lat="47.831129217" lon="-122.235083379" visible="true"><tag k="addr:housenumber" v="113"/><tag k="addr:postcode" v="98012"/><tag k="addr:city" v="Bothell"/><tag k="addr:street" v="184th Place Southwest"/></node>
<node id="-263" lat="47.831246024" lon="-122.234904163" visible="true"><tag k="addr:housenumber" v="115"/><tag k="addr:postcode" v="98012"/><tag k="addr:city" v="Bothell"/><tag k="addr:street" v="184th Place Southwest"/></node>
<node id="-264" lat="47.831280029" lon="-122.235069033" visible="true"><tag k="addr:housenumber" v="117"/><tag k="addr:postcode" v="98012"/><tag k="addr:city" v="Bothell"/><tag k="addr:street" v="184th Place Southwest"/></node>
<node id="-265" lat="47.831312779" lon="-122.235258815" visible="true"><tag k="addr:housenumber" v="121"/><tag k="addr:postcode" v="98012"/><tag k="addr:city" v="Bothell"/><tag k="addr:street" v="184th Place Southwest"/></node>
<node id="-266" lat="47.831310195" lon="-122.235469412" visible="true"><tag k="addr:housenumber" v="125"/><tag k="addr:postcode" v="98012"/><tag k="addr:city" v="Bothell"/><tag k="addr:street" v="184th Place Southwest"/></node>
<node id="-267" lat="47.831307611" lon="-122.23568001" visible="true"><tag k="addr:housenumber" v="129"/><tag k="addr:postcode" v="98012"/><tag k="addr:city" v="Bothell"/><tag k="addr:street" v="184th Place Southwest"/></node>
<node id="-268" lat="47.831308962" lon="-122.235874082" visible="true"><tag k="addr:housenumber" v="203"/><tag k="addr:postcode" v="98012"/><tag k="addr:city" v="Bothell"/><tag k="addr:street" v="184th Place Southwest"/></node>
<node id="-269" lat="47.831315366" lon="-122.236112642" visible="true"><tag k="addr:housenumber" v="207"/><tag k="addr:postcode" v="98012"/><tag k="addr:city" v="Bothell"/><tag k="addr:street" v="184th Place Southwest"/></node>
<node id="-270" lat="47.831311017" lon="-122.236314876" visible="true"><tag k="addr:housenumber" v="213"/><tag k="addr:postcode" v="98012"/><tag k="addr:city" v="Bothell"/><tag k="addr:street" v="184th Place Southwest"/></node>
<node id="-271" lat="47.831303612" lon="-122.236496045" visible="true"><tag k="addr:housenumber" v="217"/><tag k="addr:postcode" v="98012"/><tag k="addr:city" v="Bothell"/><tag k="addr:street" v="184th Place Southwest"/></node>
<node id="-272" lat="47.831017974" lon="-122.236740122" visible="true"><tag k="addr:housenumber" v="222"/><tag k="addr:postcode" v="98012"/><tag k="addr:city" v="Bothell"/><tag k="addr:street" v="184th Place Southwest"/></node>
<node id="-273" lat="47.830985352" lon="-122.236564991" visible="true"><tag k="addr:housenumber" v="218"/><tag k="addr:postcode" v="98012"/><tag k="addr:city" v="Bothell"/><tag k="addr:street" v="184th Place Southwest"/></node>
<node id="-274" lat="47.831052389" lon="-122.235564376" visible="true"><tag k="addr:housenumber" v="112"/><tag k="addr:postcode" v="98012"/><tag k="addr:city" v="Bothell"/><tag k="addr:street" v="184th Place Southwest"/></node>
<node id="-275" lat="47.83295945" lon="-122.235876752" visible="true"><tag k="addr:housenumber" v="203"/><tag k="addr:postcode" v="98012"/><tag k="addr:city" v="Bothell"/><tag k="addr:street" v="182nd Place Southwest"/></node>
<node id="-276" lat="47.832271822" lon="-122.236238087" visible="true"><tag k="addr:housenumber" v="18231"/><tag k="addr:postcode" v="98012"/><tag k="addr:unit" v="A"/><tag k="addr:city" v="Bothell"/><tag k="addr:street" v="2nd Place West"/></node>
<node id="-277" lat="47.832172508" lon="-122.235958495" visible="true"><tag k="addr:housenumber" v="205"/><tag k="addr:postcode" v="98012"/><tag k="addr:unit" v="A"/><tag k="addr:city" v="Bothell"/><tag k="addr:street" v="183rd Street Southwest"/></node>
<node id="-278" lat="47.832944114" lon="-122.23623265" visible="true"><tag k="addr:housenumber" v="211"/><tag k="addr:postcode" v="98012"/><tag k="addr:city" v="Bothell"/><tag k="addr:street" v="182nd Place Southwest"/></node>
<node id="-279" lat="47.832739129" lon="-122.236681017" visible="true"><tag k="addr:housenumber" v="18216"/><tag k="addr:postcode" v="98012"/><tag k="addr:unit" v="B"/><tag k="addr:city" v="Bothell"/><tag k="addr:street" v="2nd Place West"/></node>
<node id="-280" lat="47.832903788" lon="-122.23441018" visible="true"><tag k="addr:housenumber" v="103"/><tag k="addr:postcode" v="98012"/><tag k="addr:unit" v="A"/><tag k="addr:city" v="Bothell"/><tag k="addr:street" v="182nd Place Southwest"/></node>
<node id="-281" lat="47.832574264" lon="-122.234475472" visible="true"><tag k="addr:housenumber" v="102"/><tag k="addr:postcode" v="98012"/><tag k="addr:unit" v="B"/><tag k="addr:city" v="Bothell"/><tag k="addr:street" v="182nd Place Southwest"/></node>
<node id="-282" lat="47.832667297" lon="-122.234416566" visible="true"><tag k="addr:housenumber" v="102"/><tag k="addr:postcode" v="98012"/><tag k="addr:unit" v="A"/><tag k="addr:city" v="Bothell"/><tag k="addr:street" v="182nd Place Southwest"/></node>
<node id="-283" lat="47.840142482" lon="-122.233367962" visible="true"><tag k="addr:housenumber" v="17403"/><tag k="addr:postcode" v="98012"/><tag k="addr:city" v="Bothell"/><tag k="addr:street" v="Gravenstein Road"/></node>
<node id="-284" lat="47.839991236" lon="-122.231822039" visible="true"><tag k="addr:housenumber" v="17421"/><tag k="addr:postcode" v="98012"/><tag k="addr:city" v="Bothell"/><tag k="addr:street" v="Clover Road"/></node>
<node id="-285" lat="47.839060885" lon="-122.231737174" visible="true"><tag k="addr:housenumber" v="17516"/><tag k="addr:postcode" v="98012"/><tag k="addr:city" v="Bothell"/><tag k="addr:street" v="Clover Road"/></node>
<node id="-286" lat="47.840046118" lon="-122.230991993" visible="true"><tag k="addr:housenumber" v="17417"/><tag k="addr:postcode" v="98012"/><tag k="addr:city" v="Bothell"/><tag k="addr:street" v="Clover Road"/></node>
<node id="-287" lat="47.839351084" lon="-122.232613498" visible="true"><tag k="addr:housenumber" v="17508"/><tag k="addr:postcode" v="98012"/><tag k="addr:city" v="Bothell"/><tag k="addr:street" v="Clover Road"/></node>
<node id="-288" lat="47.84144772" lon="-122.231344432" visible="true"><tag k="addr:housenumber" v="111"/><tag k="addr:postcode" v="98012"/><tag k="addr:city" v="Bothell"/><tag k="addr:street" v="172nd Place Southeast"/></node>
<node id="-289" lat="47.840305835" lon="-122.233014996" visible="true"><tag k="addr:housenumber" v="17319"/><tag k="addr:postcode" v="98012"/><tag k="addr:city" v="Bothell"/><tag k="addr:street" v="Gravenstein Road"/></node>
<node id="-290" lat="47.84046497" lon="-122.231158057" visible="true"><tag k="addr:housenumber" v="17325"/><tag k="addr:postcode" v="98012"/><tag k="addr:city" v="Bothell"/><tag k="addr:street" v="Clover Road"/></node>
<node id="-291" lat="47.841260777" lon="-122.230712177" visible="true"><tag k="addr:housenumber" v="115"/><tag k="addr:postcode" v="98012"/><tag k="addr:city" v="Bothell"/><tag k="addr:street" v="172nd Place Southeast"/></node>
<node id="-292" lat="47.839270423" lon="-122.234540744" visible="true"><tag k="addr:housenumber" v="17519"/><tag k="addr:postcode" v="98012"/><tag k="addr:city" v="Bothell"/><tag k="addr:street" v="Gravenstein Road"/></node>
<node id="-293" lat="47.840702445" lon="-122.231581921" visible="true"><tag k="addr:housenumber" v="108"/><tag k="addr:postcode" v="98012"/><tag k="addr:city" v="Bothell"/><tag k="addr:street" v="172nd Place Southeast"/></node>
<node id="-294" lat="47.839511176" lon="-122.230796786" visible="true"><tag k="addr:housenumber" v="17427"/><tag k="addr:postcode" v="98012"/><tag k="addr:city" v="Bothell"/><tag k="addr:street" v="Clover Road"/></node>
<node id="-295" lat="47.840726319" lon="-122.232711736" visible="true"><tag k="addr:housenumber" v="17313"/><tag k="addr:postcode" v="98012"/><tag k="addr:city" v="Bothell"/><tag k="addr:street" v="Gravenstein Road"/></node>
<node id="-296" lat="47.841847813" lon="-122.229512269" visible="true"><tag k="addr:housenumber" v="17210"/><tag k="addr:postcode" v="98012"/><tag k="addr:city" v="Bothell"/><tag k="addr:street" v="3rd Avenue Southeast"/></node>
<node id="-297" lat="47.841917085" lon="-122.23108776" visible="true"><tag k="addr:housenumber" v="17205"/><tag k="addr:postcode" v="98012"/><tag k="addr:city" v="Bothell"/><tag k="addr:street" v="Gravenstein Road"/></node>
<node id="-298" lat="47.841893937" lon="-122.227980087" visible="true"><tag k="addr:housenumber" v="17204"/><tag k="addr:postcode" v="98012"/><tag k="addr:city" v="Bothell"/><tag k="addr:street" v="3rd Avenue Southeast"/></node>
<node id="-299" lat="47.840801977" lon="-122.23123435" visible="true"><tag k="addr:housenumber" v="112"/><tag k="addr:postcode" v="98012"/><tag k="addr:city" v="Bothell"/><tag k="addr:street" v="172nd Place Southeast"/></node>
<node id="-300" lat="47.840818378" lon="-122.230621843" visible="true"><tag k="addr:housenumber" v="118"/><tag k="addr:postcode" v="98012"/><tag k="addr:city" v="Bothell"/><tag k="addr:street" v="172nd Place Southeast"/></node>
<node id="-301" lat="47.841132012" lon="-122.230703612" visible="true"><tag k="addr:housenumber" v="117"/><tag k="addr:postcode" v="98012"/><tag k="addr:city" v="Bothell"/><tag k="addr:street" v="172nd Place Southeast"/></node>
<node id="-302" lat="47.841002661" lon="-122.230686886" visible="true"><tag k="addr:housenumber" v="119"/><tag k="addr:postcode" v="98012"/><tag k="addr:city" v="Bothell"/><tag k="addr:street" v="172nd Place Southeast"/></node>
<node id="-303" lat="47.840803133" lon="-122.23102769" visible="true"><tag k="addr:housenumber" v="114"/><tag k="addr:postcode" v="98012"/><tag k="addr:city" v="Bothell"/><tag k="addr:street" v="172nd Place Southeast"/></node>
<node id="-304" lat="47.840844865" lon="-122.23165093" visible="true"><tag k="addr:housenumber" v="106"/><tag k="addr:postcode" v="98012"/><tag k="addr:city" v="Bothell"/><tag k="addr:street" v="172nd Place Southeast"/></node>
<node id="-305" lat="47.841054525" lon="-122.231490622" visible="true"><tag k="addr:housenumber" v="104"/><tag k="addr:postcode" v="98012"/><tag k="addr:city" v="Bothell"/><tag k="addr:street" v="172nd Place Southeast"/></node>
<node id="-306" lat="47.840919476" lon="-122.228742951" visible="true"><tag k="addr:housenumber" v="209"/><tag k="addr:postcode" v="98012"/><tag k="addr:city" v="Bothell"/><tag k="addr:street" v="173rd Place Southeast"/></node>
<node id="-307" lat="47.841026853" lon="-122.229324177" visible="true"><tag k="addr:housenumber" v="133"/><tag k="addr:postcode" v="98012"/><tag k="addr:city" v="Bothell"/><tag k="addr:street" v="173rd Place Southeast"/></node>
<node id="-308" lat="47.840396912" lon="-122.232686547" visible="true"><tag k="addr:housenumber" v="17328"/><tag k="addr:postcode" v="98012"/><tag k="addr:city" v="Bothell"/><tag k="addr:street" v="Clover Road"/></node>
<node id="-309" lat="47.841083308" lon="-122.231715403" visible="true"><tag k="addr:housenumber" v="100"/><tag k="addr:postcode" v="98012"/><tag k="addr:city" v="Bothell"/><tag k="addr:street" v="172nd Place Southeast"/></node>
<node id="-310" lat="47.839837246" lon="-122.233906358" visible="true"><tag k="addr:housenumber" v="17419"/><tag k="addr:postcode" v="98012"/><tag k="addr:city" v="Bothell"/><tag k="addr:street" v="Gravenstein Road"/></node>
<node id="-311" lat="47.840058725" lon="-122.232474965" visible="true"><tag k="addr:housenumber" v="17410"/><tag k="addr:postcode" v="98012"/><tag k="addr:city" v="Bothell"/><tag k="addr:street" v="Clover Road"/></node>
<node id="-312" lat="47.83982155" lon="-122.232929055" visible="true"><tag k="addr:housenumber" v="17409"/><tag k="addr:postcode" v="98012"/><tag k="addr:city" v="Bothell"/><tag k="addr:street" v="Gravenstein Road"/></node>
<node id="-313" lat="47.839578426" lon="-122.23210702" visible="true"><tag k="addr:housenumber" v="17424"/><tag k="addr:postcode" v="98012"/><tag k="addr:city" v="Bothell"/><tag k="addr:street" v="Clover Road"/></node>
<node id="-314" lat="47.839814066" lon="-122.233418961" visible="true"><tag k="addr:housenumber" v="17415"/><tag k="addr:postcode" v="98012"/><tag k="addr:city" v="Bothell"/><tag k="addr:street" v="Gravenstein Road"/></node>
<node id="-315" lat="47.840447463" lon="-122.232126632" visible="true"><tag k="addr:housenumber" v="17323"/><tag k="addr:postcode" v="98012"/><tag k="addr:city" v="Bothell"/><tag k="addr:street" v="Clover Road"/></node>
<node id="-316" lat="47.839772379" lon="-122.232284215" visible="true"><tag k="addr:housenumber" v="17420"/><tag k="addr:postcode" v="98012"/><tag k="addr:city" v="Bothell"/><tag k="addr:street" v="Clover Road"/></node>
<node id="-317" lat="47.841667784" lon="-122.230383074" visible="true"><tag k="addr:housenumber" v="17215"/><tag k="addr:postcode" v="98012"/><tag k="addr:city" v="Bothell"/><tag k="addr:street" v="Gravenstein Road"/></node>
<node id="-318" lat="47.840817667" lon="-122.229838722" visible="true"><tag k="addr:housenumber" v="121"/><tag k="addr:postcode" v="98012"/><tag k="addr:city" v="Bothell"/><tag k="addr:street" v="173rd Place Southeast"/></node>
<node id="-319" lat="47.841066586" lon="-122.229594392" visible="true"><tag k="addr:housenumber" v="129"/><tag k="addr:postcode" v="98012"/><tag k="addr:city" v="Bothell"/><tag k="addr:street" v="173rd Place Southeast"/></node>
<node id="-320" lat="47.841262906" lon="-122.228118429" visible="true"><tag k="addr:housenumber" v="17308"/><tag k="addr:postcode" v="98012"/><tag k="addr:city" v="Bothell"/><tag k="addr:street" v="3rd Avenue Southeast"/></node>
<node id="-321" lat="47.840760239" lon="-122.232124592" visible="true"><tag k="addr:housenumber" v="17315"/><tag k="addr:postcode" v="98012"/><tag k="addr:city" v="Bothell"/><tag k="addr:street" v="Clover Road"/></node>
<node id="-322" lat="47.84103215" lon="-122.232155353" visible="true"><tag k="addr:housenumber" v="17305"/><tag k="addr:postcode" v="98012"/><tag k="addr:city" v="Bothell"/><tag k="addr:street" v="Clover Road"/></node>
<node id="-323" lat="47.840994402" lon="-122.227870907" visible="true"><tag k="addr:housenumber" v="17310"/><tag k="addr:postcode" v="98012"/><tag k="addr:city" v="Bothell"/><tag k="addr:street" v="3rd Avenue Southeast"/></node>
<node id="-324" lat="47.84183667" lon="-122.230511398" visible="true"><tag k="addr:housenumber" v="17213"/><tag k="addr:postcode" v="98012"/><tag k="addr:city" v="Bothell"/><tag k="addr:street" v="Gravenstein Road"/></node>
<node id="-325" lat="47.841897998" lon="-122.229051354" visible="true"><tag k="addr:housenumber" v="17208"/><tag k="addr:postcode" v="98012"/><tag k="addr:city" v="Bothell"/><tag k="addr:street" v="3rd Avenue Southeast"/></node>
<node id="-326" lat="47.841549557" lon="-122.228339406" visible="true"><tag k="addr:housenumber" v="17218"/><tag k="addr:postcode" v="98012"/><tag k="addr:city" v="Bothell"/><tag k="addr:street" v="3rd Avenue Southeast"/></node>
<node id="-327" lat="47.841540202" lon="-122.229161862" visible="true"><tag k="addr:housenumber" v="17214"/><tag k="addr:postcode" v="98012"/><tag k="addr:city" v="Bothell"/><tag k="addr:street" v="3rd Avenue Southeast"/></node>
<node id="-328" lat="47.841886002" lon="-122.228349484" visible="true"><tag k="addr:housenumber" v="17206"/><tag k="addr:postcode" v="98012"/><tag k="addr:city" v="Bothell"/><tag k="addr:street" v="3rd Avenue Southeast"/></node>
<node id="-329" lat="47.841144459" lon="-122.228618683" visible="true"><tag k="addr:housenumber" v="215"/><tag k="addr:postcode" v="98012"/><tag k="addr:city" v="Bothell"/><tag k="addr:street" v="173rd Place Southeast"/></node>
<node id="-330" lat="47.841533754" lon="-122.230493613" visible="true"><tag k="addr:housenumber" v="17219"/><tag k="addr:postcode" v="98012"/><tag k="addr:city" v="Bothell"/><tag k="addr:street" v="Gravenstein Road"/></node>
<node id="-331" lat="47.841076454" lon="-122.229915049" visible="true"><tag k="addr:housenumber" v="125"/><tag k="addr:postcode" v="98012"/><tag k="addr:city" v="Bothell"/><tag k="addr:street" v="173rd Place Southeast"/></node>
</osm>