<?xml version="1.0"?>
<osm version="0.6" upload="false" generator="uvmogr2osm">
<node id="-1" lat="47.810374254" lon="-122.279613597" visible="true"><tag k="addr:housenumber" v="3414"/><tag k="addr:postcode" v="98036"/><tag k="addr:city" v="Lynnwood"/><tag k="addr:street" v="207th Place Southwest"/></node>
<node id="-2" lat="47.810608989" lon="-122.279950982" visible="true"><tag k="addr:housenumber" v="3421"/><tag k="addr:postcode" v="98036"/><tag k="addr:city" v="Lynnwood"/><tag k="addr:street" v="207th Place Southwest"/></node>
<node id="-3" lat="47.810352872" lon="-122.279948809" visible="true"><tag k="addr:housenumber" v="3420"/><tag k="addr:postcode" v="98036"/><tag k="addr:city" v="Lynnwood"/><tag k="addr:street" v="207th Place Southwest"/></node>
<node id="-4" lat="47.810621803" lon="-122.279588619" visible="true"><tag k="addr:housenumber" v="3413"/><tag k="addr:postcode" v="98036"/><tag k="addr:city" v="Lynnwood"/><tag k="addr:street" v="207th Place Southwest"/></node>
<node id="-5" lat="47.810127562" lon="-122.279631136" visible="true"><tag k="addr:housenumber" v="3416"/><tag k="addr:postcode" v="98036"/><tag k="addr:city" v="Lynnwood"/><tag k="addr:street" v="207th Place Southwest"/></node>
<node id="-6" lat="47.809526698" lon="-122.279715112" visible="true"><tag k="addr:housenumber" v="20812"/><tag k="addr:postcode" v="98036"/><tag k="addr:city" v="Lynnwood"/><tag k="addr:street" v="Poplar Way"/></node>
<node id="-7" lat="47.808492916" lon="-122.280099397" visible="true"><tag k="addr:housenumber" v="20922"/><tag k="addr:postcode" v="98036"/><tag k="addr:city" v="Lynnwood"/><tag k="addr:street" v="Poplar Way"/></node>
<node id="-8" lat="47.811735707" lon="-122.279794053" visible="true"><tag k="addr:housenumber" v="20602"/><tag k="addr:postcode" v="98036"/><tag k="addr:city" v="Lynnwood"/><tag k="addr:street" v="Poplar Way"/></node>
<node id="-9" lat="47.808705999" lon="-122.280053449" visible="true"><tag k="addr:housenumber" v="20910"/><tag k="addr:postcode" v="98036"/><tag k="addr:city" v="Lynnwood"/><tag k="addr:street" v="Poplar Way"/></node>
<node id="-10" lat="47.810610893" lon="-122.279746496" visible="true"><tag k="addr:housenumber" v="3417"/><tag k="addr:postcode" v="98036"/><tag k="addr:city" v="Lynnwood"/><tag k="addr:street" v="207th Place Southwest"/></node>
<node id="-11" lat="47.810874553" lon="-122.27959194" visible="true"><tag k="addr:housenumber" v="20630"/><tag k="addr:postcode" v="98036"/><tag k="addr:city" v="Lynnwood"/><tag k="addr:street" v="Poplar Way"/></node>
<node id="-12" lat="47.812022108" lon="-122.279696212" visible="true"><tag k="addr:housenumber" v="20530"/><tag k="addr:postcode" v="98036"/><tag k="addr:city" v="Lynnwood"/><tag k="addr:street" v="Poplar Way"/></node>
<node id="-13" lat="47.810067194" lon="-122.279851287" visible="true"><tag k="addr:housenumber" v="3418"/><tag k="addr:postcode" v="98036"/><tag k="addr:city" v="Lynnwood"/><tag k="addr:street" v="207th Place Southwest"/></node>
<node id="-14" lat="47.811532518" lon="-122.279882683" visible="true"><tag k="addr:housenumber" v="3417"/><tag k="addr:postcode" v="98036"/><tag k="addr:city" v="Lynnwood"/><tag k="addr:street" v="206th Place Southwest"/></node>
<node id="-15" lat="47.811240571" lon="-122.28003351" visible="true"><tag k="addr:housenumber" v="3428"/><tag k="addr:postcode" v="98036"/><tag k="addr:city" v="Lynnwood"/><tag k="addr:street" v="206th Place Southwest"/></node>
<node id="-16" lat="47.812646811" lon="-122.279570155" visible="true"><tag k="addr:housenumber" v="20506"/><tag k="addr:postcode" v="98036"/><tag k="addr:city" v="Lynnwood"/><tag k="addr:street" v="Poplar Way"/></node>
<node id="-17" lat="47.809764573" lon="-122.279551812" visible="true"><tag k="addr:housenumber" v="20804"/><tag k="addr:postcode" v="98036"/><tag k="addr:city" v="Lynnwood"/><tag k="addr:street" v="Poplar Way"/></node>
<node id="-18" lat="47.811236682" lon="-122.279727127" visible="true"><tag k="addr:housenumber" v="3424"/><tag k="addr:postcode" v="98036"/><tag k="addr:city" v="Lynnwood"/><tag k="addr:street" v="206th Place Southwest"/></node>
<node id="-19" lat="47.812460517" lon="-122.27961177" visible="true"><tag k="addr:housenumber" v="20512"/><tag k="addr:postcode" v="98036"/><tag k="addr:city" v="Lynnwood"/><tag k="addr:street" v="Poplar Way"/></node>
<node id="-20" lat="47.809119581" lon="-122.279872669" visible="true"><tag k="addr:housenumber" v="20832"/><tag k="addr:postcode" v="98036"/><tag k="addr:city" v="Lynnwood"/><tag k="addr:street" v="Poplar Way"/></node>
<node id="-21" lat="47.808921823" lon="-122.280007576" visible="true"><tag k="addr:housenumber" v="20906"/><tag k="addr:postcode" v="98036"/><tag k="addr:city" v="Lynnwood"/><tag k="addr:street" v="Poplar Way"/></node>
<node id="-22" lat="47.809303674" lon="-122.27978826" visible="true"><tag k="addr:housenumber" v="20820"/><tag k="addr:postcode" v="98036"/><tag k="addr:city" v="Lynnwood"/><tag k="addr:street" v="Poplar Way"/></node>
<node id="-23" lat="47.812493829" lon="-122.280020508" visible="true"><tag k="addr:housenumber" v="3415"/><tag k="addr:postcode" v="98036"/><tag k="addr:city" v="Lynnwood"/><tag k="addr:street" v="205th Place Southwest"/></node>
<node id="-24" lat="47.813225017" lon="-122.279217689" visible="true"><tag k="addr:housenumber" v="3508"/><tag k="addr:postcode" v="98036"/><tag k="addr:city" v="Lynnwood"/><tag k="addr:street" v="204th Street Southwest"/></node>
<node id="-25" lat="47.81328914" lon="-122.279687602" visible="true"><tag k="addr:housenumber" v="3506"/><tag k="addr:postcode" v="98036"/><tag k="addr:unit" v="E"/><tag k="addr:city" v="Lynnwood"/><tag k="addr:street" v="204th Street Southwest"/></node>
<node id="-26" lat="47.813259898" lon="-122.279831521" visible="true"><tag k="addr:housenumber" v="3506"/><tag k="addr:postcode" v="98036"/><tag k="addr:city" v="Lynnwood"/><tag k="addr:street" v="204th Street Southwest"/></node>
<node id="-27" lat="47.813260311" lon="-122.280039586" visible="true"><tag k="addr:housenumber" v="3504"/><tag k="addr:postcode" v="98036"/><tag k="addr:city" v="Lynnwood"/><tag k="addr:street" v="204th Street Southwest"/></node>
<node id="-28" lat="47.813244305" lon="-122.279378792" visible="true"><tag k="addr:housenumber" v="3508"/><tag k="addr:postcode" v="98036"/><tag k="addr:unit" v="F"/><tag k="addr:city" v="Lynnwood"/><tag k="addr:street" v="204th Street Southwest"/></node>
<node id="-29" lat="47.812962347" lon="-122.279630993" visible="true"><tag k="addr:housenumber" v="3510"/><tag k="addr:postcode" v="98036"/><tag k="addr:unit" v="J"/><tag k="addr:city" v="Lynnwood"/><tag k="addr:street" v="204th Street Southwest"/></node>
<node id="-30" lat="47.812860751" lon="-122.279594236" visible="true"><tag k="addr:housenumber" v="3510"/><tag k="addr:postcode" v="98036"/><tag k="addr:city" v="Lynnwood"/><tag k="addr:street" v="204th Street Southwest"/></node>
</osm>